G21         ; Set units to mm
G90         ; Absolute positioning

;
; Operation:    0
; Type:         Mill Cut
; Paths:        1
; Direction:    Conventional
; Rapid Z:      5
; Start Z:      0
; End Z:        -0.2
; Pass Depth:   1
; Plunge rate:  4000 mm/min
; Cut rate:     4000 mm/min
;
; Retract
G0 Z5.000

; Path 0
; Rapid to initial position
G0 X226.393 Y286.915
G0 Z0.000
; plunge
G1 Z-0.200 F4000
; cut
G1 X224.909 Y287.420 F4000
G1 X228.987 Y235.912
G1 X228.023 Y284.890
G1 X226.150 Y304.644
G1 X226.943 Y286.771
G1 X218.270 Y303.659
G1 X298.091 Y258.416
G1 X255.811 Y216.561
G1 X306.083 Y251.788
G1 X258.826 Y215.422
G1 X307.296 Y251.528
G1 X291.485 Y274.878
G1 X291.180 Y258.629
G1 X218.471 Y292.101
G1 X238.853 Y269.644
G1 X249.219 Y222.124
G1 X242.419 Y267.634
G1 X217.195 Y291.360
G1 X239.157 Y270.349
G1 X203.676 Y222.993
G1 X317.246 Y247.118
G1 X277.038 Y217.185
G1 X316.834 Y242.316
G1 X271.170 Y209.542
G1 X312.828 Y238.892
G1 X295.587 Y256.515
G1 X307.903 Y236.231
G1 X290.170 Y252.618
G1 X302.846 Y235.320
G1 X284.376 Y255.735
G1 X298.391 Y239.161
G1 X279.020 Y260.016
G1 X293.548 Y242.174
G1 X275.498 Y260.997
G1 X288.700 Y245.304
G1 X283.527 Y261.652
G1 X284.153 Y248.530
G1 X265.431 Y267.849
G1 X279.610 Y251.638
G1 X259.737 Y271.782
G1 X274.779 Y254.880
G1 X286.219 Y193.277
G1 X270.228 Y257.933
G1 X249.953 Y278.037
G1 X269.290 Y257.540
G1 X285.893 Y190.515
G1 X273.740 Y254.397
G1 X290.225 Y190.397
G1 X296.328 Y232.438
G1 X236.989 Y286.229
G1 X234.408 Y288.940
G1 X239.791 Y241.012
G1 X239.030 Y286.217
G1 X214.976 Y311.292
G1 X241.044 Y284.847
G1 X225.114 Y292.597
G1 X279.021 Y268.964
G1 X235.009 Y232.997
G1 X283.317 Y264.206
G1 X267.493 Y284.247
G1 X287.022 Y261.811
G1 X296.805 Y217.001
G1 X280.683 Y261.439
G1 X262.384 Y221.724
G1 X254.269 Y264.906
G1 X254.213 Y233.018
G1 X252.329 Y264.862
G1 X225.405 Y289.411
G1 X249.289 Y265.834
G1 X255.427 Y277.764
G1 X290.817 Y252.391
G1 X246.359 Y217.847
G1 X294.068 Y248.284
G1 X293.155 Y261.540
G1 X294.741 Y243.836
G1 X277.570 Y260.018
G1 X293.454 Y239.060
G1 X300.538 Y192.952
G1 X288.687 Y239.496
G1 X281.110 Y254.615
G1 X283.208 Y243.402
G1 X260.835 Y265.480
G1 X277.485 Y247.140
G1 X238.284 Y229.785
G1 X271.915 Y250.576
G1 X276.541 Y206.681
G1 X266.480 Y254.180
G1 X275.279 Y195.768
G1 X261.023 Y257.789
G1 X267.513 Y203.760
G1 X255.287 Y261.443
G1 X196.275 Y219.935
G1 X252.112 Y262.682
G1 X259.222 Y212.935
G1 X254.630 Y260.279
G1 X254.392 Y274.084
G1 X260.137 Y256.423
G1 X241.885 Y275.067
G1 X285.127 Y233.776
G1 X266.114 Y258.924
G1 X267.171 Y258.792
G1 X269.661 Y274.236
G1 X272.563 Y256.217
G1 X255.148 Y274.583
G1 X277.179 Y252.130
G1 X225.678 Y209.438
G1 X282.619 Y248.554
G1 X265.852 Y265.530
G1 X284.317 Y245.668
G1 X269.114 Y262.816
G1 X286.936 Y243.209
G1 X243.362 Y212.066
G1 X287.474 Y239.030
G1 X269.686 Y255.053
G1 X286.319 Y236.601
G1 X299.757 Y172.935
G1 X280.777 Y238.170
G1 X277.659 Y253.428
G1 X278.236 Y238.662
G1 X262.622 Y253.651
G1 X280.318 Y237.012
G1 X263.140 Y254.474
G1 X283.274 Y235.482
G1 X296.536 Y180.317
G1 X284.803 Y232.786
G1 X233.233 Y191.536
G1 X284.680 Y229.477
G1 X272.819 Y244.295
G1 X280.114 Y231.255
G1 X276.675 Y246.277
G1 X274.725 Y234.585
G1 X269.663 Y249.771
G1 X268.888 Y238.149
G1 X277.317 Y181.665
G1 X263.263 Y241.222
G1 X270.456 Y186.020
G1 X257.592 Y244.568
G1 X258.860 Y205.389
G1 X252.042 Y248.144
G1 X226.115 Y269.671
G1 X246.747 Y251.362
G1 X243.302 Y267.664
G1 X244.604 Y251.285
G1 X221.060 Y270.677
G1 X247.566 Y248.474
G1 X225.937 Y267.161
G1 X253.192 Y244.821
G1 X232.125 Y263.302
G1 X279.189 Y223.768
G1 X305.043 Y167.598
G1 X276.302 Y234.114
G1 X240.448 Y210.070
G1 X281.271 Y231.794
G1 X266.072 Y245.744
G1 X286.209 Y227.362
G1 X285.443 Y192.057
G1 X291.683 Y223.428
G1 X303.798 Y179.226
G1 X296.121 Y220.057
G1 X278.815 Y235.489
G1 X293.026 Y220.664
G1 X240.030 Y184.117
G1 X287.711 Y222.581
G1 X266.654 Y239.955
G1 X287.501 Y221.909
G1 X300.935 Y164.665
G1 X284.511 Y223.216
G1 X265.000 Y241.812
G1 X281.595 Y226.334
G1 X260.297 Y243.859
G1 X275.814 Y228.953
G1 X272.652 Y242.596
G1 X271.746 Y230.833
G1 X278.337 Y180.700
G1 X266.507 Y233.107
G1 X243.779 Y251.646
G1 X261.804 Y235.880
G1 X269.002 Y180.271
G1 X256.125 Y238.008
G1 X230.737 Y258.000
G1 X251.439 Y240.893
G1 X255.393 Y189.881
G1 X245.396 Y243.668
G1 X223.182 Y260.358
G1 X239.518 Y246.371
G1 X210.455 Y268.227
G1 X233.952 Y249.109
G1 X229.084 Y264.999
G1 X228.374 Y252.489
G1 X219.064 Y267.626
G1 X224.106 Y254.944
G1 X193.939 Y277.786
G1 X220.956 Y255.769
G1 X189.852 Y277.637
G1 X218.379 Y255.428
G1 X192.548 Y274.955
G1 X224.109 Y252.328
G1 X199.035 Y271.918
G1 X254.241 Y230.570
G1 X244.305 Y244.158
G1 X245.552 Y243.395
G1 X257.149 Y184.888
G1 X250.637 Y239.941
G1 X237.485 Y255.969
G1 X255.385 Y238.202
G1 X264.702 Y188.226
G1 X260.089 Y235.429
G1 X256.046 Y247.152
G1 X265.257 Y232.534
G1 X245.506 Y249.537
G1 X268.793 Y230.329
G1 X248.937 Y247.360
G1 X271.538 Y228.709
G1 X279.785 Y185.231
G1 X275.623 Y226.359
G1 X285.805 Y180.253
G1 X278.943 Y224.618
G1 X263.130 Y239.600
G1 X281.506 Y223.684
G1 X288.340 Y181.041
G1 X278.265 Y223.314
G1 X293.366 Y173.971
G1 X281.625 Y222.578
G1 X235.271 Y187.689
G1 X284.593 Y221.858
G1 X303.065 Y154.983
G1 X287.558 Y220.384
G1 X270.836 Y235.605
G1 X289.585 Y217.789
G1 X286.989 Y228.755
G1 X285.059 Y217.784
G1 X297.458 Y160.085
G1 X278.900 Y218.614
G1 X255.400 Y236.397
G1 X273.855 Y221.593
G1 X271.305 Y232.286
G1 X271.320 Y220.805
G1 X249.822 Y235.825
G1 X265.875 Y221.854
G1 X250.577 Y182.224
G1 X260.411 Y224.681
G1 X267.332 Y170.452
G1 X255.230 Y227.492
G1 X261.297 Y173.864
G1 X252.940 Y227.018
G1 X262.061 Y177.790
G1 X258.650 Y223.923
G1 X272.035 Y165.035
G1 X283.959 Y205.899
G1 X251.503 Y230.329
G1 X250.899 Y230.110
G1 X248.784 Y241.211
G1 X251.805 Y229.117
G1 X228.656 Y246.604
G1 X253.573 Y228.014
G1 X212.481 Y201.857
G1 X255.507 Y225.531
G1 X238.911 Y238.366
G1 X261.081 Y222.704
G1 X241.824 Y237.864
G1 X267.010 Y219.755
G1 X249.081 Y234.102
G1 X272.851 Y216.946
G1 X255.758 Y231.015
G1 X278.712 Y214.131
G1 X297.432 Y160.644
G1 X284.573 Y211.316
G1 X269.236 Y224.344
G1 X289.669 Y208.673
G1 X299.518 Y164.891
G1 X291.206 Y206.614
G1 X238.602 Y160.957
G1 X296.801 Y204.072
G1 X289.413 Y213.999
G1 X300.306 Y199.754
G1 X298.942 Y205.458
G1 X302.942 Y194.182
G1 X323.871 Y125.384
G1 X305.109 Y187.977
G1 X288.215 Y196.328
G1 X302.119 Y183.415
G1 X251.810 Y144.129
G1 X298.160 Y179.571
G1 X302.600 Y115.823
G1 X296.061 Y177.884
G1 X280.460 Y185.780
G1 X297.975 Y175.116
G1 X295.907 Y179.348
G1 X297.635 Y173.578
G1 X318.255 Y102.421
G1 X297.246 Y173.477
G1 X315.908 Y106.698
G1 X295.490 Y175.390
G1 X303.419 Y132.867
G1 X294.102 Y176.393
G1 X279.896 Y184.650
G1 X299.984 Y174.444
G1 X297.379 Y178.323
G1 X318.732 Y163.951
G1 X286.163 Y194.222
G1 X283.123 Y195.193
G1 X264.555 Y206.598
G1 X280.395 Y197.070
G1 X260.274 Y209.551
G1 X279.395 Y196.112
G1 X259.022 Y207.642
G1 X279.355 Y193.944
G1 X292.946 Y139.651
G1 X283.478 Y191.846
G1 X298.173 Y137.148
G1 X288.413 Y189.884
G1 X274.331 Y199.706
G1 X294.295 Y187.354
G1 X279.862 Y197.326
G1 X300.122 Y185.042
G1 X287.092 Y194.705
G1 X305.665 Y183.328
G1 X320.361 Y136.416
G1 X311.078 Y180.747
G1 X306.539 Y187.254
G1 X316.824 Y178.485
G1 X268.897 Y137.064
G1 X320.666 Y175.240
G1 X308.178 Y181.332
G1 X320.349 Y168.873
G1 X330.447 Y112.242
G1 X318.854 Y161.101
G1 X305.843 Y163.262
G1 X318.463 Y153.358
G1 X313.792 Y150.922
G1 X316.892 Y145.518
G1 X314.284 Y143.210
G1 X315.498 Y139.143
G1 X302.180 Y139.409
G1 X316.008 Y133.751
G1 X306.218 Y134.835
G1 X320.318 Y130.703
G1 X311.452 Y130.470
G1 X325.184 Y126.667
G1 X352.808 Y53.878
G1 X329.913 Y122.900
G1 X329.152 Y120.019
G1 X333.055 Y121.582
G1 X352.010 Y66.581
G1 X333.028 Y123.013
G1 X323.836 Y123.244
G1 X337.814 Y121.817
G1 X329.572 Y122.234
G1 X350.766 Y119.700
G1 X367.501 Y74.955
G1 X334.667 Y133.653
G1 X288.901 Y94.049
G1 X337.092 Y133.715
G1 X362.359 Y67.616
G1 X338.811 Y134.630
G1 X330.906 Y136.557
G1 X342.865 Y134.265
G1 X295.525 Y96.322
G1 X340.539 Y135.165
G1 X362.067 Y84.138
G1 X341.070 Y136.362
G1 X333.417 Y138.804
G1 X346.115 Y134.401
G1 X339.341 Y136.554
G1 X351.229 Y133.641
G1 X344.860 Y137.606
G1 X354.781 Y135.790
G1 X350.218 Y137.596
G1 X358.713 Y134.904
G1 X381.071 Y82.090
G1 X362.909 Y134.763
G1 X392.612 Y63.230
G1 X361.632 Y132.686
G1 X353.809 Y132.820
G1 X357.764 Y129.603
G1 X353.325 Y127.978
G1 X354.406 Y124.934
G1 X346.725 Y123.229
G1 X356.492 Y120.087
G1 X385.009 Y46.511
G1 X353.823 Y115.179
G1 X342.825 Y115.970
G1 X351.521 Y117.555
G1 X343.100 Y119.414
G1 X350.234 Y119.374
G1 X339.090 Y121.540
G1 X348.384 Y118.610
G1 X340.700 Y115.569
G1 X350.407 Y113.053
G1 X300.012 Y68.357
G1 X350.877 Y108.717
G1 X372.050 Y48.136
G1 X354.013 Y102.374
G1 X347.054 Y97.719
G1 X354.809 Y98.011
G1 X297.899 Y48.979
G1 X354.662 Y94.389
G1 X349.835 Y90.918
G1 X366.123 Y98.009
G1 X357.342 Y106.412
G1 X358.412 Y106.364
G1 X353.132 Y104.116
G1 X361.112 Y103.419
G1 X354.025 Y99.814
G1 X359.919 Y100.884
G1 X389.796 Y28.463
G1 X360.233 Y99.611
G1 X306.101 Y49.909
G1 X361.177 Y95.790
G1 X355.900 Y91.217
G1 X364.272 Y94.746
G1 X365.558 Y89.992
G1 X369.792 Y94.054
G1 X371.039 Y90.502
G1 X375.246 Y95.559
G1 X374.009 Y94.779
G1 X380.068 Y98.711
G1 X379.475 Y97.094
G1 X381.267 Y100.402
G1 X376.201 Y98.853
G1 X380.901 Y101.631
G1 X378.629 Y100.396
G1 X381.476 Y102.090
G1 X377.914 Y101.194
G1 X379.243 Y102.879
G1 X401.303 Y48.952
G1 X375.893 Y101.636
G1 X369.196 Y97.406
G1 X375.101 Y100.013
G1 X374.525 Y97.636
G1 X376.003 Y101.491
G1 X375.310 Y98.477
G1 X378.576 Y102.386
G1 X376.333 Y101.782
G1 X381.325 Y104.164
G1 X381.431 Y103.700
G1 X383.135 Y106.566
G1 X413.549 Y43.446
G1 X386.685 Y106.216
G1 X383.846 Y106.031
G1 X387.345 Y105.782
G1 X422.074 Y33.047
G1 X389.190 Y104.165
G1 X414.654 Y51.554
G1 X390.346 Y105.576
G1 X387.679 Y106.101
G1 X391.996 Y107.352
G1 X361.433 Y80.643
G1 X394.491 Y109.487
G1 X383.849 Y103.124
G1 X382.389 Y105.105
G1 X418.703 Y28.875
G1 X382.879 Y102.217
G1 X407.250 Y41.727
G1 X379.048 Y99.966
G1 X405.502 Y37.246
G1 X376.247 Y99.306
G1 X372.133 Y94.719
G1 X377.930 Y95.291
G1 X374.899 Y89.723
G1 X380.977 Y92.168
G1 X378.881 Y89.028
G1 X384.205 Y93.181
G1 X384.631 Y90.600
G1 X386.877 Y95.619
G1 X385.839 Y94.555
G1 X390.739 Y98.965
G1 X388.319 Y97.769
G1 X389.702 Y100.835
G1 X423.314 Y29.003
G1 X389.047 Y103.360
G1 X390.689 Y101.709
G1 X391.320 Y104.594
G1 X387.461 Y104.502
G1 X390.448 Y108.455
G1 X340.759 Y67.002
G1 X388.362 Y110.222
G1 X382.901 Y107.499
G1 X385.863 Y108.495
G1 X382.870 Y108.756
G1 X386.578 Y110.631
G1 X386.813 Y108.827
G1 X388.653 Y110.988
G1 X387.026 Y111.124
G1 X390.537 Y111.831
G1 X421.650 Y50.737
G1 X392.835 Y115.441
G1 X416.580 Y69.092
G1 X395.195 Y117.554
G1 X394.437 Y119.089
G1 X395.717 Y118.986
G1 X395.256 Y119.427
G1 X396.081 Y122.290
G1 X431.136 Y52.318
G1 X396.452 Y126.086
G1 X418.316 Y82.729
G1 X398.096 Y129.433
G1 X396.422 Y132.922
G1 X397.855 Y129.002
G1 X407.438 Y124.194
G1 X407.046 Y126.854
G1 X405.790 Y130.495
G1 X404.091 Y127.658
G1 X432.052 Y65.762
G1 X399.392 Y130.313
G1 X396.825 Y134.734
G1 X395.784 Y132.334
G1 X423.327 Y73.948
G1 X393.990 Y134.141
G1 X338.728 Y85.404
G1 X393.171 Y130.578
G1 X390.351 Y134.049
G1 X391.649 Y133.621
G1 X387.684 Y137.799
G1 X388.456 Y135.766
G1 X419.294 Y87.644
G1 X388.667 Y139.226
G1 X418.932 Y67.488
G1 X386.275 Y139.243
G1 X384.796 Y145.064
G1 X389.922 Y142.762
G1 X391.445 Y144.861
G1 X392.251 Y142.325
G1 X422.148 Y80.446
G1 X391.513 Y147.226
G1 X354.692 Y119.804
G1 X391.250 Y151.333
G1 X345.599 Y111.902
G1 X389.147 Y146.684
G1 X387.311 Y148.211
G1 X385.213 Y143.444
G1 X408.522 Y87.446
G1 X380.425 Y146.094
G1 X322.882 Y99.436
G1 X375.429 Y146.619
G1 X369.679 Y151.351
G1 X373.393 Y149.157
G1 X367.103 Y156.879
G1 X371.089 Y149.471
G1 X364.765 Y153.889
G1 X370.151 Y149.513
G1 X364.427 Y157.493
G1 X368.981 Y155.486
G1 X362.949 Y162.878
G1 X367.378 Y156.516
G1 X380.214 Y113.898
G1 X366.225 Y156.150
G1 X359.937 Y164.771
G1 X371.680 Y153.122
G1 X381.599 Y150.406
G1 X377.745 Y153.421
G1 X340.332 Y102.561
G1 X378.136 Y157.938
G1 X330.168 Y119.027
G1 X377.824 Y160.693
G1 X376.546 Y168.728
G1 X376.344 Y164.742
G1 X371.595 Y173.221
G1 X374.181 Y167.314
G1 X392.593 Y119.980
G1 X374.167 Y168.102
G1 X401.223 Y113.068
G1 X377.161 Y172.837
G1 X372.538 Y185.671
G1 X375.813 Y179.525
G1 X395.478 Y137.470
G1 X375.275 Y186.929
G1 X373.700 Y198.557
G1 X373.982 Y193.254
G1 X374.447 Y206.032
G1 X373.381 Y193.789
G1 X368.092 Y201.742
G1 X373.174 Y187.567
G1 X367.867 Y195.990
G1 X372.343 Y182.613
G1 X365.333 Y194.620
G1 X369.284 Y185.798
G1 X388.997 Y135.711
G1 X365.327 Y189.450
G1 X388.168 Y129.449
G1 X362.272 Y192.227
G1 X354.668 Y203.343
G1 X358.279 Y195.191
G1 X350.942 Y208.678
G1 X353.464 Y199.126
G1 X367.894 Y159.083
G1 X350.735 Y201.585
G1 X340.812 Y214.530
G1 X347.889 Y200.036
G1 X345.635 Y207.135
G1 X344.450 Y195.417
G1 X360.220 Y145.986
G1 X340.669 Y197.890
G1 X294.504 Y166.758
G1 X337.143 Y202.068
G1 X336.304 Y213.474
G1 X338.845 Y202.726
G1 X357.774 Y151.218
G1 X347.259 Y193.780
G1 X347.967 Y191.764
G1 X346.455 Y194.572
G1 X336.906 Y208.842
G1 X344.896 Y200.297
G1 X363.990 Y148.862
G1 X343.523 Y203.011
G1 X361.243 Y152.226
G1 X342.352 Y203.259
G1 X357.447 Y158.712
G1 X339.101 Y207.366
G1 X277.158 Y158.027
G1 X338.009 Y212.243
G1 X288.529 Y175.849
G1 X339.277 Y218.506
G1 X338.043 Y234.461
G1 X338.528 Y225.385
G1 X288.748 Y201.796
G1 X333.863 Y234.859
G1 X291.552 Y262.425
G1 X298.675 Y248.093
G1 X317.024 Y184.360
G1 X300.144 Y246.314
G1 X283.570 Y264.576
G1 X299.125 Y243.327
G1 X283.199 Y260.198
G1 X307.246 Y234.486
G1 X255.145 Y192.184
G1 X308.029 Y233.845
G1 X328.198 Y168.036
G1 X308.636 Y235.400
G1 X295.058 Y253.574
G1 X308.591 Y237.591
G1 X291.325 Y257.690
G1 X303.743 Y240.721
G1 X322.980 Y177.046
G1 X323.945 Y236.994
G1 X336.900 Y193.706
G1 X323.665 Y234.540
G1 X309.904 Y250.902
G1 X322.560 Y229.658
G1 X310.696 Y165.302
G1 X318.433 Y227.921
G1 X337.365 Y161.042
G1 X313.723 Y230.057
G1 X327.205 Y177.536
G1 X309.626 Y234.240
G1 X294.114 Y255.042
G1 X312.265 Y236.308
G1 X312.996 Y252.765
G1 X326.965 Y222.111
G1 X313.901 Y232.422
G1 X311.128 Y235.909
G1 X331.572 Y166.803
G1 X308.630 Y239.760
G1 X293.092 Y261.121
G1 X306.134 Y241.867
G1 X290.031 Y258.727
G1 X303.749 Y239.441
G1 X295.122 Y256.637
G1 X306.512 Y239.850
G1 X306.281 Y258.244
G1 X305.779 Y245.214
G1 X313.178 Y213.522
G1 X305.227 Y249.891
G1 X253.585 Y211.972
G1 X304.212 Y254.109
G1 X321.712 Y193.358
G1 X296.466 Y262.967
G1 X230.558 Y297.997
G1 X241.128 Y278.374
G1 X217.427 Y301.846
G1 X244.081 Y276.089
G1 X219.663 Y301.376
G1 X244.338 Y276.632
G1 X227.812 Y284.800
G1 X258.795 Y267.990
G1 X239.294 Y288.705
G1 X262.070 Y264.778
G1 X243.445 Y284.740
G1 X265.614 Y263.355
G1 X245.615 Y286.322
G1 X268.551 Y263.602
G1 X285.408 Y196.366
G1 X269.587 Y262.750
G1 X296.866 Y192.927
G1 X305.085 Y252.166
G1 X293.288 Y266.241
G1 X306.855 Y245.949
G1 X326.648 Y177.043
G1 X306.887 Y241.030
G1 X289.599 Y262.298
G1 X302.458 Y244.312
G1 X305.579 Y204.008
G1 X297.062 Y246.424
G1 X244.283 Y209.268
G1 X293.776 Y248.244
G1 X277.389 Y269.654
G1 X295.454 Y251.814
G1 X280.564 Y219.457
G1 X313.979 Y234.261
G1 X270.540 Y261.338
G1 X268.666 Y263.049
G1 X249.167 Y284.373
G1 X272.726 Y260.532
G1 X255.286 Y281.956
G1 X274.412 Y260.788
G1 X280.797 Y212.509
G1 X268.977 Y263.810
G1 X298.059 Y195.026
G1 X294.799 Y248.034
G1 X280.803 Y266.783
G1 X299.671 Y245.798
G1 X317.358 Y187.178
G1 X303.281 Y242.179
G1 X324.160 Y169.240
G1 X301.541 Y240.834
G1 X310.190 Y197.395
G1 X296.079 Y245.578
G1 X246.775 Y219.452
G1 X287.611 Y250.936
G1 X295.217 Y206.405
G1 X284.499 Y252.013
G1 X269.008 Y269.875
G1 X289.238 Y247.574
G1 X310.578 Y174.921
G1 X295.014 Y242.429
G1 X276.448 Y261.474
G1 X291.087 Y242.615
G1 X304.190 Y189.612
G1 X287.059 Y246.664
G1 X267.879 Y269.967
G1 X291.024 Y248.646
G1 X323.137 Y192.607
G1 X314.681 Y234.397
G1 X331.481 Y181.587
G1 X318.664 Y229.459
G1 X306.334 Y243.790
G1 X318.434 Y227.340
G1 X304.117 Y245.708
G1 X315.784 Y230.911
G1 X301.793 Y252.186
G1 X309.758 Y237.024
G1 X286.320 Y255.225
G1 X302.658 Y236.706
G1 X286.827 Y252.739
G1 X301.952 Y233.898
G1 X284.807 Y255.390
G1 X300.073 Y238.807
G1 X282.648 Y258.425
G1 X313.687 Y221.321
G1 X288.495 Y243.934
G1 X286.444 Y245.053
G1 X266.616 Y266.085
G1 X285.554 Y246.303
G1 X274.307 Y263.314
G1 X286.112 Y246.796
G1 X246.559 Y217.272
G1 X301.503 Y241.163
G1 X295.104 Y253.881
G1 X315.187 Y231.329
G1 X338.030 Y163.861
G1 X316.864 Y229.030
G1 X337.073 Y164.809
G1 X316.317 Y230.510
G1 X267.993 Y195.382
G1 X303.942 Y234.277
G1 X297.793 Y249.981
G1 X299.634 Y235.145
G1 X313.514 Y169.299
G1 X300.014 Y232.547
G1 X283.231 Y248.830
G1 X298.309 Y230.262
G1 X253.579 Y200.352
G1 X296.816 Y231.148
G1 X279.561 Y249.995
G1 X296.285 Y233.466
G1 X278.073 Y253.697
G1 X296.925 Y235.100
G1 X286.361 Y250.363
G1 X303.063 Y231.050
G1 X300.504 Y242.268
G1 X305.519 Y227.355
G1 X332.160 Y156.509
G1 X312.388 Y223.056
G1 X310.856 Y237.317
G1 X310.994 Y225.920
G1 X310.136 Y238.958
G1 X323.828 Y223.311
G1 X335.294 Y232.828
G1 X336.796 Y218.372
G1 X336.143 Y229.845
G1 X336.861 Y217.483
G1 X288.100 Y180.756
G1 X337.499 Y214.120
G1 X363.154 Y144.897
G1 X339.669 Y209.832
G1 X338.738 Y220.042
G1 X341.885 Y208.496
G1 X342.172 Y218.183
G1 X351.449 Y192.420
G1 X323.817 Y215.469
G1 X320.391 Y217.820
G1 X315.549 Y232.571
G1 X315.793 Y220.565
G1 X299.356 Y237.833
G1 X313.438 Y221.706
G1 X302.907 Y237.047
G1 X327.624 Y216.389
G1 X317.361 Y230.440
G1 X329.930 Y214.186
G1 X348.858 Y160.325
G1 X330.756 Y212.808
G1 X318.351 Y229.279
G1 X328.904 Y216.867
G1 X315.697 Y236.048
G1 X318.228 Y223.326
G1 X329.012 Y175.522
G1 X315.893 Y225.188
G1 X294.717 Y242.942
G1 X309.886 Y223.073
G1 X308.944 Y232.181
G1 X311.147 Y218.587
G1 X295.676 Y233.945
G1 X308.623 Y219.191
G1 X291.725 Y236.463
G1 X304.578 Y223.128
G1 X320.865 Y164.845
G1 X305.701 Y226.668
G1 X295.432 Y242.580
G1 X273.205 Y233.385
G1 X258.083 Y247.112
G1 X260.863 Y231.653
G1 X218.729 Y203.676
G1 X260.030 Y231.813
G1 X235.384 Y253.527
G1 X261.850 Y236.188
G1 X326.165 Y181.005
G1 X342.485 Y214.847
G1 X346.230 Y224.005
G1 X355.917 Y207.432
G1 X349.205 Y218.053
G1 X358.207 Y201.457
G1 X352.404 Y211.985
G1 X360.169 Y197.834
G1 X387.280 Y136.132
G1 X362.438 Y197.878
G1 X357.295 Y210.906
G1 X333.782 Y206.029
G1 X308.480 Y222.047
G1 X334.336 Y193.012
G1 X350.806 Y192.966
G1 X348.057 Y194.268
G1 X344.806 Y204.534
G1 X342.569 Y195.764
G1 X329.336 Y209.490
G1 X336.903 Y197.831
G1 X324.157 Y210.702
G1 X332.619 Y199.884
G1 X318.789 Y214.172
G1 X328.515 Y203.429
G1 X342.826 Y160.686
G1 X331.179 Y202.876
G1 X322.218 Y216.528
G1 X331.754 Y205.398
G1 X278.361 Y165.323
G1 X333.032 Y210.700
G1 X323.737 Y228.565
G1 X334.077 Y216.353
G1 X303.452 Y237.456
G1 X314.398 Y220.931
G1 X302.212 Y235.050
G1 X318.131 Y216.814
G1 X306.210 Y228.888
G1 X318.499 Y212.970
G1 X339.258 Y142.009
G1 X312.649 Y213.806
G1 X297.028 Y230.656
G1 X309.506 Y219.221
G1 X257.984 Y186.645
G1 X215.249 Y247.445
G1 X151.896 Y274.309
G1 X184.183 Y252.712
G1 X152.568 Y271.024
G1 X186.607 Y250.856
G1 X153.382 Y272.641
G1 X194.793 Y251.384
G1 X276.969 Y185.794
G1 X358.689 Y204.672
G1 X383.463 Y143.786
G1 X358.719 Y201.642
G1 X351.722 Y210.072
G1 X358.690 Y194.706
G1 X385.040 Y126.463
G1 X355.787 Y193.665
G1 X347.555 Y209.682
G1 X356.163 Y200.714
G1 X376.747 Y140.462
G1 X282.554 Y226.867
G1 X229.168 Y252.658
G1 X274.169 Y217.240
G1 X276.516 Y222.639
G1 X275.940 Y223.342
G1 X219.283 Y177.614
G1 X275.842 Y224.007
G1 X252.489 Y242.768
G1 X270.369 Y227.359
G1 X248.868 Y244.995
G1 X275.610 Y223.632
G1 X269.202 Y233.796
G1 X273.862 Y222.376
G1 X282.579 Y181.302
G1 X279.397 Y220.024
G1 X265.112 Y233.473
G1 X283.711 Y217.876
G1 X297.778 Y164.127
G1 X288.451 Y215.936
G1 X273.196 Y230.831
G1 X292.420 Y215.448
G1 X268.057 Y233.921
G1 X284.055 Y219.442
G1 X263.133 Y237.130
G1 X280.696 Y222.240
G1 X294.583 Y157.613
G1 X276.624 Y223.947
G1 X251.669 Y242.430
G1 X262.825 Y227.303
G1 X235.202 Y246.602
G1 X255.256 Y230.304
G1 X249.778 Y243.885
G1 X234.355 Y235.086
G1 X237.568 Y172.821
G1 X232.629 Y233.243
G1 X209.418 Y249.729
G1 X238.262 Y230.226
G1 X215.635 Y246.065
G1 X245.138 Y227.145
G1 X276.463 Y178.460
G1 X281.215 Y216.613
G1 X277.003 Y227.799
G1 X278.135 Y218.641
G1 X255.237 Y235.306
G1 X272.838 Y219.942
G1 X251.387 Y235.415
G1 X267.074 Y222.819
G1 X274.703 Y177.120
G1 X269.388 Y224.042
G1 X222.026 Y186.977
G1 X260.470 Y227.717
G1 X253.175 Y195.751
G1 X276.637 Y213.774
G1 X272.118 Y224.809
G1 X273.751 Y222.957
G1 X298.695 Y170.976
G1 X289.733 Y214.816
G1 X272.200 Y229.320
G1 X289.764 Y213.849
G1 X273.920 Y226.574
G1 X295.308 Y208.183
G1 X309.663 Y147.559
G1 X293.686 Y203.814
G1 X276.071 Y217.177
G1 X293.462 Y203.640
G1 X292.325 Y213.497
G1 X293.897 Y204.049
G1 X279.410 Y216.883
G1 X296.434 Y203.529
G1 X248.490 Y168.302
G1 X296.469 Y205.670
G1 X277.137 Y222.970
G1 X293.064 Y211.386
G1 X243.053 Y176.584
G1 X293.173 Y214.611
G1 X245.179 Y176.550
G1 X295.373 Y213.163
G1 X277.660 Y226.465
G1 X288.493 Y212.991
G1 X265.919 Y230.501
G1 X283.007 Y216.405
G1 X287.254 Y180.977
G1 X276.099 Y217.954
G1 X256.498 Y230.821
G1 X277.753 Y213.453
G1 X277.707 Y222.820
G1 X278.579 Y212.510
G1 X285.670 Y170.410
G1 X278.422 Y212.783
G1 X276.989 Y222.573
G1 X279.725 Y211.803
G1 X261.398 Y226.137
G1 X280.880 Y211.151
G1 X279.193 Y221.153
G1 X280.575 Y211.028
G1 X278.035 Y221.195
G1 X277.793 Y211.815
G1 X275.083 Y222.753
G1 X275.962 Y213.225
G1 X280.044 Y158.519
G1 X276.096 Y214.120
G1 X255.421 Y230.086
G1 X292.526 Y201.939
G1 X261.415 Y223.024
G1 X286.636 Y214.233
G1 X246.509 Y155.078
G1 X309.261 Y202.782
G1 X311.144 Y210.801
G1 X314.194 Y199.048
G1 X303.209 Y209.453
G1 X318.621 Y194.430
G1 X296.597 Y204.620
G1 X304.389 Y192.844
G1 X298.102 Y201.174
G1 X300.140 Y194.103
G1 X318.429 Y127.770
G1 X299.076 Y196.096
G1 X320.441 Y130.497
G1 X299.425 Y197.690
G1 X280.539 Y212.839
G1 X297.467 Y202.067
G1 X297.371 Y213.598
G1 X315.953 Y201.696
G1 X303.386 Y216.351
G1 X320.407 Y201.806
G1 X340.504 Y149.440
G1 X327.557 Y196.300
G1 X316.852 Y205.789
G1 X329.011 Y192.810
G1 X348.085 Y133.913
G1 X326.717 Y195.242
G1 X278.809 Y149.110
G1 X317.374 Y197.691
G1 X301.584 Y208.281
G1 X315.003 Y194.768
G1 X334.826 Y127.975
G1 X311.488 Y196.968
G1 X323.516 Y141.632
G1 X306.753 Y201.580
G1 X297.771 Y143.558
G1 X310.189 Y201.202
G1 X314.876 Y207.411
G1 X318.082 Y195.966
G1 X306.079 Y206.027
G1 X320.804 Y192.579
G1 X320.203 Y199.855
G1 X320.849 Y190.534
G1 X305.695 Y202.147
G1 X315.856 Y191.377
G1 X298.106 Y204.427
G1 X310.458 Y192.735
G1 X292.484 Y205.465
G1 X319.680 Y182.734
G1 X296.980 Y202.631
G1 X285.604 Y207.937
G1 X230.883 Y162.370
G1 X291.124 Y207.972
G1 X307.734 Y151.987
G1 X296.466 Y207.559
G1 X284.231 Y220.616
G1 X303.031 Y206.943
G1 X253.750 Y228.607
G1 X255.171 Y217.426
G1 X229.350 Y233.202
G1 X255.244 Y216.593
G1 X234.457 Y231.223
G1 X260.839 Y214.051
G1 X242.903 Y227.034
G1 X262.661 Y213.893
G1 X270.051 Y160.151
G1 X265.762 Y214.649
G1 X344.011 Y136.782
G1 X339.547 Y192.896
G1 X341.605 Y199.300
G1 X343.992 Y187.518
G1 X299.273 Y145.808
G1 X347.075 Y182.002
G1 X339.521 Y189.939
G1 X350.456 Y179.053
G1 X342.136 Y187.307
G1 X349.614 Y176.368
G1 X344.878 Y182.143
G1 X343.750 Y174.913
G1 X366.200 Y110.104
G1 X339.824 Y178.325
G1 X352.424 Y138.383
G1 X337.344 Y183.769
G1 X325.551 Y198.453
G1 X335.484 Y190.561
G1 X324.011 Y206.208
G1 X351.586 Y190.553
G1 X361.846 Y195.534
G1 X366.677 Y181.745
G1 X364.190 Y186.697
G1 X362.680 Y177.505
G1 X389.962 Y108.437
G1 X361.813 Y174.943
G1 X387.412 Y119.275
G1 X358.730 Y170.492
G1 X355.124 Y174.430
G1 X354.606 Y166.576
G1 X351.900 Y170.074
G1 X358.368 Y155.914
G1 X356.519 Y118.366
G1 X327.772 Y176.922
G1 X324.959 Y185.853
G1 X327.652 Y181.544
G1 X350.233 Y122.890
G1 X332.180 Y183.757
G1 X324.893 Y194.064
G1 X338.159 Y184.659
G1 X348.982 Y152.215
G1 X322.466 Y191.650
G1 X342.056 Y145.285
G1 X319.359 Y195.399
G1 X304.789 Y209.736
G1 X318.570 Y197.901
G1 X306.491 Y210.684
G1 X321.613 Y197.248
G1 X322.286 Y206.282
G1 X325.749 Y195.816
G1 X355.617 Y159.105
G1 X352.339 Y187.073
G1 X347.167 Y195.808
G1 X356.822 Y184.881
G1 X298.489 Y137.355
G1 X356.036 Y184.767
G1 X351.075 Y193.883
G1 X360.971 Y182.515
G1 X362.667 Y191.339
G1 X364.800 Y182.412
G1 X367.889 Y189.098
G1 X365.653 Y179.311
G1 X357.558 Y187.157
G1 X363.304 Y175.947
G1 X358.164 Y182.553
G1 X363.800 Y177.938
G1 X357.247 Y192.265
G1 X360.750 Y186.321
G1 X297.457 Y212.995
G1 X303.827 Y201.998
G1 X296.021 Y212.354
G1 X313.069 Y196.670
G1 X329.539 Y141.361
G1 X314.764 Y193.175
G1 X336.573 Y127.314
G1 X315.819 Y191.126
G1 X269.881 Y153.891
G1 X318.341 Y188.605
G1 X328.359 Y151.810
G1 X320.907 Y184.911
G1 X321.382 Y190.278
G1 X334.824 Y171.791
G1 X331.383 Y172.867
G1 X328.476 Y175.459
G1 X327.563 Y142.983
G1 X324.391 Y180.453
G1 X311.049 Y192.870
G1 X324.083 Y183.526
G1 X312.852 Y194.489
G1 X324.743 Y185.590
G1 X310.691 Y198.833
G1 X321.150 Y190.048
G1 X273.295 Y158.051
G1 X315.857 Y194.602
G1 X298.336 Y209.771
G1 X311.596 Y198.422
G1 X311.515 Y208.147
G1 X315.476 Y197.927
G1 X327.798 Y160.238
G1 X320.199 Y195.876
G1 X321.523 Y204.710
G1 X325.760 Y193.692
G1 X328.375 Y201.171
G1 X329.464 Y192.023
G1 X318.453 Y202.987
G1 X330.334 Y192.405
G1 X321.432 Y203.514
G1 X333.044 Y191.724
G1 X335.894 Y200.478
G1 X356.322 Y185.651
G1 X353.773 Y192.828
G1 X359.224 Y180.241
G1 X380.542 Y121.366
G1 X356.923 Y175.150
G1 X350.050 Y182.792
G1 X357.368 Y177.532
G1 X333.039 Y234.930
G1 X352.585 Y186.514
G1 X252.116 Y220.202
G1 X250.544 Y210.445
G1 X265.230 Y142.790
G1 X255.474 Y205.957
G1 X267.829 Y146.061
G1 X259.188 Y203.036
G1 X214.338 Y171.734
G1 X259.213 Y203.785
G1 X266.967 Y155.700
G1 X272.655 Y201.424
G1 X291.600 Y202.792
G1 X311.236 Y188.986
G1 X269.265 Y153.587
G1 X328.573 Y175.376
G1 X321.296 Y184.286
G1 X306.989 Y188.937
G1 X288.584 Y201.432
G1 X301.170 Y191.305
G1 X268.874 Y248.903
G1 X295.207 Y194.757
G1 X237.776 Y152.951
G1 X289.527 Y198.047
G1 X301.547 Y151.895
G1 X291.153 Y198.638
G1 X286.665 Y207.979
G1 X285.741 Y200.492
G1 X264.689 Y214.524
G1 X281.106 Y202.404
G1 X279.535 Y211.853
G1 X284.892 Y203.184
G1 X266.659 Y216.826
G1 X284.301 Y203.049
G1 X267.218 Y216.011
G1 X288.263 Y201.197
G1 X273.224 Y212.257
G1 X290.649 Y199.089
G1 X275.660 Y211.212
G1 X294.733 Y198.048
G1 X305.659 Y151.775
G1 X292.712 Y198.636
G1 X302.436 Y202.392
G1 X333.616 Y183.962
G1 X333.422 Y187.209
G1 X335.929 Y176.818
G1 X314.702 Y116.979
G1 X333.407 Y173.179
G1 X321.366 Y182.698
G1 X332.142 Y177.055
G1 X321.936 Y189.726
G1 X326.100 Y185.409
G1 X238.996 Y211.961
G1 X221.572 Y208.423
G1 X227.544 Y149.764
G1 X223.880 Y204.476
G1 X226.092 Y161.331
G1 X227.771 Y202.730
G1 X202.940 Y216.764
G1 X228.309 Y205.001
G1 X232.917 Y148.821
G1 X250.290 Y201.563
G1 X314.857 Y189.838
G1 X321.799 Y181.481
G1 X310.022 Y189.827
G1 X333.173 Y170.451
G1 X330.829 Y173.128
G1 X319.597 Y175.143
G1 X305.365 Y183.232
G1 X316.770 Y174.315
G1 X333.877 Y113.871
G1 X313.330 Y180.970
G1 X330.620 Y122.482
G1 X310.647 Y186.961
G1 X327.659 Y189.359
G1 X353.611 Y174.013
G1 X371.055 Y123.446
G1 X353.181 Y170.262
G1 X308.787 Y135.266
G1 X350.689 Y169.317
G1 X344.048 Y179.542
G1 X352.103 Y173.624
G1 X331.585 Y186.528
G1 X321.667 Y181.922
G1 X265.479 Y133.602
G1 X319.396 Y176.445
G1 X305.717 Y185.580
G1 X320.653 Y178.672
G1 X335.339 Y136.819
G1 X318.125 Y182.764
G1 X296.961 Y194.151
G1 X312.227 Y180.649
G1 X303.722 Y185.755
G1 X321.422 Y172.224
G1 X310.212 Y176.877
G1 X325.488 Y168.427
G1 X339.942 Y116.959
G1 X326.705 Y162.617
G1 X325.499 Y163.659
G1 X325.456 Y161.026
G1 X310.964 Y171.043
G1 X320.986 Y166.673
G1 X318.712 Y124.093
G1 X300.263 Y174.255
G1 X284.503 Y183.878
G1 X299.277 Y178.087
G1 X282.583 Y191.587
G1 X308.682 Y180.300
G1 X322.643 Y182.276
G1 X324.477 Y172.963
G1 X311.489 Y179.680
G1 X327.430 Y170.097
G1 X355.500 Y119.330
G1 X338.505 Y172.162
G1 X316.584 Y184.649
G1 X327.126 Y169.973
G1 X326.979 Y169.576
G1 X316.814 Y170.352
G1 X258.873 Y120.457
G1 X314.538 Y168.363
G1 X285.184 Y118.790
G1 X314.008 Y176.550
G1 X305.806 Y188.085
G1 X339.719 Y174.110
G1 X349.114 Y174.349
G1 X363.139 Y162.828
G1 X380.480 Y113.625
G1 X360.014 Y161.032
G1 X302.452 Y112.927
G1 X360.463 Y163.152
G1 X361.460 Y170.096
G1 X362.092 Y164.933
G1 X349.511 Y174.362
G1 X346.090 Y169.854
G1 X336.127 Y177.551
G1 X334.244 Y169.531
G1 X323.688 Y175.320
G1 X334.199 Y168.206
G1 X322.173 Y179.727
G1 X330.769 Y173.318
G1 X314.881 Y184.282
G1 X329.514 Y173.589
G1 X270.668 Y192.705
G1 X260.029 Y187.388
G1 X213.833 Y150.337
G1 X263.554 Y183.209
G1 X276.002 Y123.928
G1 X264.826 Y180.697
G1 X277.559 Y116.286
G1 X303.767 Y170.663
G1 X315.621 Y171.188
G1 X326.477 Y162.415
G1 X305.903 Y126.869
G1 X324.226 Y160.884
G1 X348.164 Y89.002
G1 X322.849 Y160.489
G1 X309.045 Y171.139
G1 X325.923 Y165.465
G1 X322.731 Y172.898
G1 X333.390 Y166.326
G1 X326.150 Y173.425
G1 X336.704 Y165.574
G1 X306.292 Y130.196
G1 X341.601 Y163.796
G1 X325.974 Y171.960
G1 X340.361 Y158.456
G1 X321.750 Y166.937
G1 X319.571 Y165.881
G1 X305.366 Y172.249
G1 X317.640 Y165.603
G1 X317.367 Y173.461
G1 X321.995 Y170.766
G1 X329.646 Y176.083
G1 X358.071 Y163.169
G1 X361.190 Y163.455
G1 X360.891 Y155.892
G1 X381.303 Y98.446
G1 X355.448 Y156.070
G1 X385.586 Y84.364
G1 X356.121 Y161.443
G1 X348.761 Y169.357
G1 X330.797 Y168.372
G1 X333.045 Y119.609
G1 X315.404 Y172.233
G1 X288.246 Y184.959
G1 X301.256 Y173.849
G1 X313.976 Y119.610
G1 X299.048 Y169.373
G1 X279.839 Y179.144
G1 X295.237 Y171.650
G1 X306.584 Y123.059
G1 X296.406 Y173.000
G1 X252.468 Y138.843
G1 X211.455 Y195.007
G1 X217.972 Y129.581
G1 X212.423 Y191.209
G1 X182.521 Y201.604
G1 X211.486 Y190.089
G1 X179.100 Y203.256
G1 X257.399 Y178.198
G1 X253.491 Y125.006
G1 X285.547 Y164.311
G1 X265.386 Y169.044
G1 X283.420 Y159.203
G1 X301.552 Y86.258
G1 X280.930 Y156.079
G1 X259.817 Y164.722
G1 X277.331 Y161.090
G1 X272.298 Y167.523
G1 X275.062 Y167.205
G1 X255.973 Y176.451
G1 X279.225 Y167.276
G1 X230.156 Y120.140
G1 X287.516 Y161.471
G1 X286.538 Y162.570
G1 X305.992 Y152.676
G1 X362.974 Y101.478
G1 X331.764 Y158.995
G1 X318.507 Y167.874
G1 X330.655 Y163.615
G1 X357.501 Y95.010
G1 X341.973 Y160.125
G1 X342.315 Y163.725
G1 X354.501 Y155.766
G1 X348.247 Y158.887
G1 X356.106 Y150.493
G1 X346.863 Y153.758
G1 X351.669 Y150.203
G1 X341.425 Y159.397
G1 X348.482 Y156.937
G1 X336.608 Y165.221
G1 X261.242 Y180.678
G1 X188.483 Y202.831
G1 X213.683 Y190.530
G1 X184.042 Y198.852
G1 X208.828 Y186.573
G1 X175.743 Y195.071
G1 X203.403 Y182.474
G1 X171.477 Y189.768
G1 X198.510 Y178.266
G1 X192.064 Y178.938
G1 X196.077 Y177.422
G1 X148.120 Y146.062
G1 X198.196 Y182.619
G1 X164.468 Y194.599
G1 X194.981 Y181.689
G1 X158.743 Y189.823
G1 X189.940 Y177.665
G1 X182.747 Y177.458
G1 X184.717 Y173.746
G1 X177.407 Y172.611
G1 X179.262 Y169.597
G1 X146.735 Y174.201
G1 X174.186 Y166.657
G1 X164.928 Y126.722
G1 X168.666 Y167.203
G1 X133.887 Y174.809
G1 X162.735 Y168.816
G1 X121.817 Y177.973
G1 X156.905 Y169.938
G1 X148.692 Y125.399
G1 X156.865 Y168.350
G1 X149.784 Y134.004
G1 X162.711 Y167.340
G1 X160.451 Y166.480
G1 X201.620 Y159.000
G1 X223.434 Y160.894
G1 X213.686 Y162.258
G1 X184.235 Y168.032
G1 X210.168 Y160.624
G1 X206.594 Y98.221
G1 X209.362 Y156.564
G1 X217.296 Y87.106
G1 X208.940 Y152.433
G1 X179.022 Y156.411
G1 X205.236 Y150.876
G1 X197.245 Y150.472
G1 X203.999 Y153.031
G1 X174.322 Y159.793
G1 X201.178 Y154.729
G1 X199.090 Y106.057
G1 X178.935 Y158.468
G1 X169.395 Y97.309
G1 X170.202 Y159.421
G1 X119.229 Y123.331
G1 X172.617 Y161.315
G1 X138.682 Y169.426
G1 X175.028 Y163.182
G1 X171.622 Y117.296
G1 X177.628 Y165.144
G1 X143.798 Y173.954
G1 X181.041 Y167.243
G1 X153.222 Y174.971
G1 X185.798 Y168.058
G1 X155.494 Y175.915
G1 X189.472 Y166.921
G1 X156.675 Y174.705
G1 X189.849 Y166.793
G1 X188.514 Y101.159
G1 X184.017 Y166.579
G1 X163.473 Y169.930
G1 X178.404 Y166.510
G1 X177.506 Y116.684
G1 X178.867 Y168.277
G1 X176.851 Y122.579
G1 X181.272 Y171.424
G1 X148.488 Y181.936
G1 X183.520 Y174.844
G1 X150.385 Y185.651
G1 X184.237 Y175.673
G1 X149.328 Y182.413
G1 X182.467 Y171.633
G1 X179.135 Y131.365
G1 X186.794 Y172.213
G1 X181.388 Y176.013
G1 X222.015 Y166.235
G1 X225.846 Y97.097
G1 X186.997 Y172.247
G1 X155.226 Y180.576
G1 X187.171 Y172.086
G1 X157.391 Y179.485
G1 X186.665 Y171.347
G1 X182.350 Y170.851
G1 X185.495 Y167.353
G1 X187.084 Y112.284
G1 X183.627 Y163.979
G1 X150.198 Y170.185
G1 X184.741 Y162.321
G1 X186.843 Y99.098
G1 X184.407 Y158.777
G1 X182.116 Y107.427
G1 X186.126 Y153.532
G1 X157.561 Y156.284
G1 X190.708 Y149.367
G1 X194.690 Y93.409
G1 X195.821 Y149.915
G1 X172.575 Y154.586
G1 X201.112 Y150.475
G1 X196.827 Y150.175
G1 X206.411 Y151.091
G1 X179.271 Y156.753
G1 X211.833 Y151.209
G1 X187.928 Y155.297
G1 X217.435 Y149.305
G1 X191.506 Y153.371
G1 X223.156 Y147.457
G1 X195.969 Y153.538
G1 X223.469 Y150.135
G1 X223.022 Y104.055
G1 X218.355 Y153.393
G1 X188.386 Y160.843
G1 X213.469 Y156.853
G1 X214.291 Y110.295
G1 X212.978 Y161.340
G1 X185.398 Y170.662
G1 X214.070 Y166.138
G1 X184.789 Y176.865
G1 X214.973 Y170.841
G1 X186.081 Y181.669
G1 X215.160 Y173.407
G1 X217.876 Y116.038
G1 X212.248 Y173.183
G1 X187.255 Y181.739
G1 X212.379 Y176.693
G1 X184.423 Y188.641
G1 X240.321 Y171.838
G1 X210.750 Y181.362
G1 X209.707 Y183.349
G1 X182.162 Y195.393
G1 X214.725 Y185.899
G1 X211.527 Y191.676
G1 X219.612 Y187.581
G1 X227.737 Y127.748
G1 X223.033 Y183.430
G1 X229.643 Y124.343
G1 X225.776 Y176.522
G1 X228.228 Y130.437
G1 X228.507 Y169.676
G1 X238.869 Y102.196
G1 X231.284 Y162.410
G1 X206.294 Y165.707
G1 X233.986 Y155.368
G1 X212.142 Y157.085
G1 X237.409 Y149.183
G1 X180.319 Y98.077
G1 X242.422 Y145.254
G1 X219.584 Y148.103
G1 X246.254 Y142.535
G1 X225.597 Y145.132
G1 X249.689 Y140.240
G1 X264.179 Y73.334
G1 X253.026 Y138.028
G1 X268.401 Y69.990
G1 X256.389 Y135.985
G1 X241.821 Y136.114
G1 X259.827 Y134.444
G1 X271.002 Y75.758
G1 X257.395 Y138.888
G1 X250.622 Y141.332
G1 X253.575 Y144.916
G1 X228.140 Y153.007
G1 X249.751 Y151.061
G1 X223.451 Y160.425
G1 X246.007 Y157.011
G1 X218.972 Y166.597
G1 X242.280 Y162.927
G1 X245.390 Y114.781
G1 X245.336 Y166.601
G1 X236.115 Y172.069
G1 X254.172 Y166.928
G1 X230.023 Y176.571
G1 X251.683 Y170.399
G1 X245.801 Y176.154
G1 X248.532 Y175.031
G1 X254.631 Y119.855
G1 X267.637 Y170.430
G1 X246.085 Y182.007
G1 X223.738 Y186.819
G1 X221.779 Y189.134
G1 X227.155 Y182.495
G1 X213.350 Y186.985
G1 X231.206 Y177.423
G1 X206.905 Y183.997
G1 X235.240 Y172.095
G1 X246.614 Y106.819
G1 X239.229 Y165.877
G1 X215.506 Y170.440
G1 X243.108 Y160.095
G1 X219.322 Y163.803
G1 X247.013 Y154.045
G1 X245.799 Y151.080
G1 X250.850 Y147.984
G1 X228.993 Y149.762
G1 X254.995 Y142.219
G1 X253.403 Y138.046
G1 X258.467 Y136.951
G1 X235.735 Y139.336
G1 X256.226 Y137.538
G1 X266.820 Y74.240
G1 X251.992 Y140.217
G1 X229.181 Y145.151
G1 X247.779 Y143.036
G1 X249.900 Y98.549
G1 X243.432 Y145.541
G1 X218.349 Y151.448
G1 X239.041 Y148.494
G1 X211.404 Y155.971
G1 X235.129 Y153.325
G1 X176.009 Y110.509
G1 X232.356 Y160.619
G1 X227.138 Y165.676
G1 X229.849 Y167.639
G1 X201.843 Y179.833
G1 X227.165 Y174.793
G1 X220.017 Y181.925
G1 X224.527 Y181.673
G1 X217.454 Y189.890
G1 X255.598 Y178.351
G1 X307.925 Y168.063
G1 X311.665 Y161.503
G1 X271.817 Y128.105
G1 X314.942 Y157.274
G1 X306.519 Y160.005
G1 X315.295 Y155.380
G1 X310.011 Y159.555
G1 X324.788 Y151.439
G1 X285.557 Y166.430
G1 X282.787 Y167.882
G1 X263.753 Y176.765
G1 X282.100 Y169.748
G1 X265.091 Y177.925
G1 X289.779 Y166.892
G1 X279.567 Y170.877
G1 X299.489 Y161.470
G1 X285.212 Y100.362
G1 X303.332 Y157.499
G1 X287.173 Y161.677
G1 X303.976 Y152.711
G1 X287.502 Y156.099
G1 X302.915 Y149.444
G1 X286.382 Y155.812
G1 X302.714 Y151.327
G1 X307.598 Y110.474
G1 X291.067 Y154.235
G1 X304.348 Y101.099
G1 X293.578 Y147.097
G1 X275.965 Y148.751
G1 X292.558 Y142.193
G1 X289.365 Y140.241
G1 X291.193 Y138.948
G1 X273.409 Y141.954
G1 X292.202 Y139.817
G1 X276.575 Y145.047
G1 X293.956 Y142.582
G1 X289.976 Y145.049
G1 X291.888 Y143.589
G1 X296.590 Y102.842
G1 X287.100 Y143.159
G1 X270.038 Y147.167
G1 X286.957 Y142.935
G1 X282.391 Y144.568
G1 X284.015 Y146.466
G1 X292.052 Y98.947
G1 X279.368 Y151.520
G1 X257.372 Y159.988
G1 X275.102 Y156.474
G1 X254.370 Y167.661
G1 X289.073 Y160.278
G1 X309.144 Y160.072
G1 X313.419 Y158.400
G1 X312.347 Y163.417
G1 X324.218 Y157.312
G1 X339.657 Y153.468
G1 X347.581 Y147.411
G1 X336.791 Y151.053
G1 X353.798 Y140.812
G1 X341.950 Y145.167
G1 X330.957 Y149.502
G1 X317.561 Y158.040
G1 X328.814 Y155.730
G1 X326.981 Y161.527
G1 X336.877 Y156.173
G1 X331.488 Y159.794
G1 X331.645 Y156.004
G1 X321.683 Y160.330
G1 X333.738 Y152.521
G1 X357.706 Y83.479
G1 X333.881 Y149.665
G1 X328.709 Y151.806
G1 X332.801 Y147.885
G1 X350.547 Y96.252
G1 X332.314 Y152.110
G1 X314.898 Y161.237
G1 X318.889 Y157.518
G1 X318.137 Y156.756
G1 X319.299 Y150.582
G1 X305.811 Y152.055
G1 X317.545 Y144.011
G1 X259.881 Y93.027
G1 X316.306 Y138.379
G1 X304.280 Y139.934
G1 X318.321 Y138.636
G1 X308.678 Y144.214
G1 X322.149 Y142.920
G1 X322.220 Y146.621
G1 X322.180 Y145.033
G1 X261.255 Y160.830
G1 X232.608 Y165.376
G1 X205.617 Y170.272
G1 X233.993 Y159.812
G1 X208.083 Y164.744
G1 X232.676 Y158.210
G1 X183.649 Y124.109
G1 X229.692 Y158.237
G1 X200.788 Y165.029
G1 X226.222 Y158.972
G1 X229.449 Y114.689
G1 X228.105 Y163.040
G1 X201.506 Y172.454
G1 X228.307 Y167.607
G1 X219.771 Y173.244
G1 X238.673 Y167.882
G1 X210.793 Y115.832
G1 X264.493 Y156.639
G1 X242.521 Y160.133
G1 X283.588 Y146.840
G1 X295.131 Y87.244
G1 X340.407 Y139.122
G1 X361.474 Y81.358
G1 X340.244 Y144.772
G1 X331.777 Y152.629
G1 X344.487 Y148.018
G1 X328.232 Y154.778
G1 X305.698 Y157.751
G1 X300.849 Y158.964
G1 X304.761 Y153.405
G1 X290.967 Y156.789
G1 X307.927 Y153.273
G1 X295.224 Y158.666
G1 X312.316 Y151.628
G1 X257.851 Y103.961
G1 X315.900 Y151.502
G1 X303.179 Y157.655
G1 X317.433 Y152.059
G1 X338.508 Y98.449
G1 X314.869 Y148.141
G1 X310.042 Y148.767
G1 X309.344 Y146.015
G1 X304.015 Y145.931
G1 X320.616 Y139.138
G1 X260.275 Y89.204
G1 X317.642 Y140.847
G1 X314.648 Y145.933
G1 X316.923 Y148.213
G1 X315.258 Y154.547
G1 X316.842 Y155.440
G1 X175.753 Y196.463
G1 X77.883 Y218.458
G1 X27.578 Y230.657
G1 X79.201 Y211.866
G1 X62.841 Y167.051
G1 X81.450 Y204.884
G1 X32.784 Y215.259
G1 X83.766 Y198.495
G1 X66.510 Y159.436
G1 X84.757 Y193.528
G1 X73.609 Y134.534
G1 X88.242 Y188.489
G1 X75.650 Y131.442
G1 X86.615 Y185.255
G1 X39.602 Y194.935
G1 X88.278 Y183.453
G1 X75.601 Y133.751
G1 X91.184 Y178.362
G1 X42.534 Y137.247
G1 X136.037 Y165.849
G1 X135.636 Y129.751
G1 X137.333 Y166.875
G1 X135.092 Y102.960
G1 X140.153 Y166.339
G1 X135.432 Y107.723
G1 X139.609 Y171.653
G1 X128.573 Y175.418
G1 X129.701 Y178.986
G1 X118.365 Y131.780
G1 X127.090 Y182.228
G1 X89.707 Y192.986
G1 X129.366 Y183.200
G1 X86.463 Y194.650
G1 X128.717 Y185.317
G1 X89.867 Y196.692
G1 X127.017 Y189.511
G1 X88.646 Y202.765
G1 X125.175 Y195.252
G1 X114.309 Y147.226
G1 X122.578 Y199.768
G1 X110.085 Y155.103
G1 X119.280 Y204.875
G1 X270.191 Y165.635
G1 X341.577 Y143.406
G1 X363.592 Y84.493
G1 X343.366 Y139.218
G1 X315.408 Y88.262
G1 X340.973 Y142.896
G1 X337.162 Y148.398
G1 X339.601 Y147.817
G1 X310.739 Y158.550
G1 X281.487 Y163.022
G1 X267.212 Y165.689
G1 X282.335 Y157.831
G1 X260.893 Y162.813
G1 X278.953 Y155.202
G1 X257.706 Y162.806
G1 X279.124 Y156.930
G1 X299.331 Y88.293
G1 X285.227 Y153.819
G1 X294.962 Y110.009
G1 X288.129 Y148.700
G1 X284.232 Y148.501
G1 X284.592 Y148.407
G1 X268.219 Y155.111
G1 X284.195 Y151.475
G1 X275.766 Y152.551
G1 X277.901 Y148.767
G1 X273.393 Y147.711
G1 X293.500 Y142.033
G1 X182.525 Y117.925
G1 X202.101 Y157.073
G1 X200.271 Y156.448
G1 X206.762 Y157.246
G1 X181.076 Y162.352
G1 X212.156 Y155.861
G1 X181.185 Y163.079
G1 X209.287 Y158.705
G1 X179.400 Y167.876
G1 X209.337 Y162.847
G1 X205.962 Y164.806
G1 X222.256 Y160.215
G1 X199.060 Y165.076
G1 X224.764 Y158.774
G1 X221.928 Y116.690
G1 X224.608 Y161.691
G1 X218.525 Y120.371
G1 X224.580 Y163.412
G1 X195.256 Y171.942
G1 X222.506 Y165.699
G1 X196.377 Y174.292
G1 X222.288 Y168.052
G1 X307.511 Y144.782
G1 X364.605 Y127.316
G1 X359.547 Y126.695
G1 X365.090 Y124.981
G1 X395.510 Y151.611
G1 X361.896 Y127.416
G1 X382.992 Y73.800
G1 X360.167 Y130.833
G1 X352.179 Y134.554
G1 X357.177 Y132.721
G1 X377.536 Y79.763
G1 X356.920 Y131.742
G1 X355.672 Y133.086
G1 X354.902 Y133.375
G1 X369.054 Y63.769
G1 X337.436 Y139.232
G1 X328.583 Y141.437
G1 X340.103 Y136.064
G1 X330.647 Y137.031
G1 X338.491 Y133.668
G1 X325.187 Y137.097
G1 X333.650 Y135.518
G1 X323.877 Y140.521
G1 X334.411 Y138.689
G1 X347.764 Y91.170
G1 X332.852 Y138.255
G1 X326.545 Y139.414
G1 X343.356 Y133.293
G1 X329.079 Y137.268
G1 X305.964 Y144.722
G1 X286.785 Y152.045
G1 X292.906 Y150.964
G1 X297.749 Y147.951
G1 X304.221 Y143.349
G1 X287.790 Y145.855
G1 X301.450 Y142.303
G1 X286.608 Y148.227
G1 X303.014 Y144.973
G1 X293.560 Y148.294
G1 X320.597 Y140.625
G1 X361.817 Y94.343
G1 X374.130 Y122.117
G1 X374.485 Y122.140
G1 X376.201 Y121.720
G1 X372.347 Y121.364
G1 X377.456 Y118.659
G1 X376.279 Y117.254
G1 X377.031 Y117.434
G1 X396.947 Y47.595
G1 X335.690 Y126.557
G1 X332.096 Y124.855
G1 X333.932 Y123.619
G1 X352.604 Y68.197
G1 X333.098 Y124.215
G1 X319.342 Y127.414
G1 X341.924 Y123.151
G1 X363.475 Y115.671
G1 X368.055 Y117.056
G1 X320.725 Y78.007
G1 X365.881 Y118.091
G1 X357.941 Y120.230
G1 X365.188 Y121.236
G1 X383.587 Y71.029
G1 X336.070 Y133.344
G1 X300.701 Y143.168
G1 X307.695 Y139.562
G1 X292.082 Y140.923
G1 X304.597 Y136.916
G1 X286.784 Y139.726
G1 X301.085 Y136.646
G1 X282.357 Y141.119
G1 X296.560 Y138.703
G1 X291.694 Y140.386
G1 X297.113 Y139.750
G1 X311.107 Y90.494
G1 X300.282 Y140.372
G1 X285.122 Y143.445
G1 X317.291 Y134.983
G1 X343.528 Y134.730
G1 X231.168 Y164.271
G1 X118.026 Y193.872
G1 X157.536 Y181.772
G1 X154.773 Y181.363
G1 X163.521 Y177.878
G1 X163.703 Y119.866
G1 X167.310 Y176.188
G1 X132.486 Y185.985
G1 X163.656 Y178.773
G1 X152.282 Y182.772
G1 X160.208 Y181.565
G1 X216.417 Y116.711
G1 X366.755 Y122.307
G1 X360.720 Y121.768
G1 X365.431 Y119.633
G1 X366.020 Y69.620
G1 X361.209 Y119.316
G1 X313.999 Y79.450
G1 X364.920 Y122.236
G1 X275.699 Y103.146
G1 X180.822 Y169.740
G1 X139.866 Y178.646
G1 X177.408 Y168.805
G1 X148.755 Y174.776
G1 X181.569 Y166.959
G1 X146.644 Y176.085
G1 X229.980 Y155.024
G1 X366.885 Y74.216
G1 X348.881 Y119.874
G1 X339.329 Y117.119
G1 X348.381 Y114.340
G1 X340.801 Y116.240
G1 X349.318 Y118.685
G1 X289.545 Y134.993
G1 X220.047 Y155.739
G1 X186.020 Y163.090
G1 X212.425 Y157.650
G1 X160.326 Y123.134
G1 X206.566 Y158.576
G1 X204.036 Y157.089
G1 X210.879 Y156.428
G1 X184.441 Y161.644
G1 X209.694 Y154.966
G1 X207.102 Y106.746
G1 X203.889 Y153.612
G1 X205.983 Y96.638
G1 X198.295 Y152.347
G1 X163.489 Y157.142
G1 X223.378 Y145.713
G1 X269.235 Y85.228
G1 X193.980 Y155.657
G1 X159.051 Y160.949
G1 X163.252 Y160.690
G1 X127.749 Y165.958
G1 X161.007 Y158.606
G1 X122.075 Y164.163
G1 X158.262 Y157.001
G1 X153.730 Y102.287
G1 X153.596 Y156.800
G1 X116.998 Y162.530
G1 X153.954 Y157.869
G1 X129.864 Y96.369
G1 X232.407 Y137.652
G1 X209.285 Y140.662
G1 X235.957 Y137.593
G1 X239.779 Y94.054
G1 X238.416 Y138.459
G1 X250.038 Y80.121
G1 X243.856 Y140.607
G1 X238.027 Y79.870
G1 X181.702 Y158.759
G1 X151.987 Y165.416
G1 X184.322 Y159.525
G1 X153.482 Y166.302
G1 X189.748 Y159.672
G1 X161.114 Y167.091
G1 X211.479 Y156.474
G1 X250.959 Y144.904
G1 X192.171 Y161.623
G1 X133.356 Y173.757
G1 X170.872 Y163.894
G1 X167.116 Y163.309
G1 X172.459 Y165.395
G1 X149.665 Y121.628
G1 X123.525 Y180.286
G1 X90.666 Y186.488
G1 X126.568 Y177.425
G1 X111.812 Y145.962
G1 X125.606 Y176.138
G1 X81.987 Y185.305
G1 X124.575 Y175.710
G1 X92.511 Y182.082
G1 X127.024 Y174.022
G1 X86.125 Y181.984
G1 X129.064 Y172.238
G1 X117.678 Y133.645
G1 X130.635 Y169.822
G1 X125.253 Y135.233
G1 X170.750 Y160.439
G1 X126.722 Y107.653
G1 X147.820 Y162.092
G1 X142.354 Y98.499
G1 X142.369 Y161.777
G1 X98.821 Y168.777
G1 X136.405 Y161.859
G1 X130.285 Y104.307
G1 X142.031 Y158.205
G1 X137.987 Y90.027
G1 X137.679 Y157.603
G1 X129.720 Y154.633
G1 X139.556 Y157.227
G1 X137.845 Y117.376
G1 X140.192 Y158.832
G1 X86.284 Y170.146
G1 X127.000 Y163.598
G1 X123.195 Y161.370
G1 X132.367 Y163.353
G1 X127.060 Y162.682
G1 X137.205 Y164.700
G1 X98.114 Y173.146
G1 X140.479 Y165.876
G1 X100.685 Y174.767
G1 X159.438 Y162.358
G1 X150.492 Y161.885
G1 X184.369 Y156.027
G1 X190.190 Y86.686
G1 X186.515 Y156.132
G1 X157.068 Y161.934
G1 X128.957 Y172.847
G1 X52.418 Y138.695
G1 X104.309 Y179.599
G1 X72.782 Y185.743
G1 X76.275 Y187.210
G1 X33.654 Y196.581
G1 X75.895 Y187.164
G1 X71.747 Y185.288
G1 X80.010 Y185.010
G1 X95.342 Y117.273
G1 X186.661 Y154.612
G1 X196.311 Y101.730
G1 X190.887 Y151.877
G1 X127.595 Y99.259
G1 X191.522 Y150.839
G1 X161.280 Y156.617
G1 X174.398 Y156.490
G1 X71.070 Y179.451
G1 X114.477 Y170.193
G1 X76.365 Y176.232
G1 X159.542 Y160.414
G1 X120.318 Y173.107
G1 X103.364 Y178.569
G1 X62.256 Y187.630
G1 X123.809 Y173.238
G1 X109.171 Y174.809
G1 X119.069 Y175.033
G1 X81.872 Y183.215
G1 X141.211 Y168.270
G1 X100.399 Y176.818
G1 X138.145 Y169.654
G1 X93.038 Y179.154
G1 X119.878 Y173.978
G1 X72.442 Y183.478
G1 X106.587 Y176.765
G1 X56.830 Y187.484
G1 X65.660 Y185.866
G1 X58.344 Y183.513
G1 X68.529 Y183.168
G1 X53.900 Y126.742
G1 X70.384 Y183.960
G1 X19.506 Y194.827
G1 X68.325 Y184.296
G1 X17.232 Y195.191
G1 X103.793 Y173.662
G1 X118.344 Y163.746
G1 X153.947 Y156.505
G1 X145.072 Y107.695
G1 X150.125 Y154.311
G1 X111.428 Y158.935
G1 X152.467 Y154.394
G1 X149.595 Y106.945
G1 X142.421 Y160.805
G1 X73.719 Y176.606
G1 X74.054 Y178.843
G1 X67.960 Y175.414
G1 X78.750 Y175.287
G1 X28.347 Y185.653
G1 X77.783 Y177.923
G1 X87.272 Y125.287
G1 X350.880 Y103.602
G1 X363.042 Y94.313
G1 X367.436 Y95.776
G1 X390.752 Y34.110
G1 X362.652 Y95.664
G1 X386.382 Y27.382
G1 X311.793 Y112.076
G1 X109.414 Y111.928
G1 X162.105 Y149.224
G1 X144.948 Y148.056
G1 X177.280 Y147.425
G1 X138.455 Y158.823
G1 X133.157 Y160.851
G1 X159.993 Y148.034
G1 X333.965 Y100.976
G1 X360.076 Y29.368
G1 X333.896 Y98.902
G1 X343.526 Y58.490
G1 X334.053 Y95.113
G1 X322.154 Y93.990
G1 X332.675 Y98.525
G1 X310.265 Y101.000
G1 X186.081 Y139.016
G1 X134.900 Y104.172
G1 X139.384 Y149.630
G1 X86.965 Y156.660
G1 X126.763 Y150.440
G1 X83.354 Y154.556
G1 X122.620 Y148.592
G1 X114.312 Y102.102
G1 X118.061 Y147.782
G1 X69.905 Y152.328
G1 X112.691 Y146.691
G1 X100.525 Y89.998
G1 X115.501 Y143.601
G1 X80.901 Y143.315
G1 X122.625 Y138.218
G1 X60.067 Y86.686
G1 X125.971 Y138.706
G1 X86.214 Y142.707
G1 X131.198 Y140.009
G1 X100.319 Y144.036
G1 X134.267 Y142.459
G1 X117.670 Y84.632
G1 X124.938 Y147.200
G1 X87.571 Y151.765
G1 X130.571 Y147.408
G1 X127.482 Y143.656
G1 X135.450 Y149.180
G1 X154.629 Y139.213
G1 X359.089 Y89.480
G1 X369.838 Y78.527
G1 X375.532 Y80.608
G1 X372.105 Y73.865
G1 X373.644 Y79.882
G1 X366.128 Y74.734
G1 X359.620 Y83.791
G1 X327.283 Y88.200
G1 X330.998 Y95.246
G1 X186.363 Y68.774
G1 X163.327 Y139.344
G1 X137.577 Y145.194
G1 X126.235 Y146.917
G1 X155.161 Y80.905
G1 X238.302 Y111.903
G1 X218.719 Y111.400
G1 X241.844 Y111.789
G1 X243.455 Y104.509
G1 X283.398 Y97.932
G1 X304.124 Y39.067
G1 X284.242 Y99.018
G1 X294.432 Y33.617
G1 X198.237 Y122.203
G1 X135.567 Y130.612
G1 X169.025 Y128.408
G1 X130.500 Y130.226
G1 X163.206 Y128.132
G1 X122.154 Y129.944
G1 X156.782 Y127.782
G1 X147.451 Y120.930
G1 X150.185 Y127.593
G1 X140.982 Y120.273
G1 X143.580 Y127.349
G1 X138.222 Y61.985
G1 X137.567 Y127.095
G1 X94.127 Y128.517
G1 X133.076 Y125.570
G1 X94.497 Y127.025
G1 X138.325 Y125.705
G1 X108.279 Y126.347
G1 X144.744 Y126.027
G1 X108.907 Y127.896
G1 X151.341 Y126.361
G1 X116.154 Y128.611
G1 X157.752 Y126.627
G1 X150.696 Y122.055
G1 X164.142 Y126.753
G1 X117.825 Y92.116
G1 X170.400 Y127.176
G1 X198.284 Y56.846
G1 X271.501 Y100.934
G1 X275.127 Y91.703
G1 X282.589 Y96.343
G1 X265.705 Y92.604
G1 X281.551 Y94.552
G1 X272.540 Y88.517
G1 X276.852 Y94.127
G1 X288.772 Y37.774
G1 X278.937 Y96.457
G1 X204.586 Y107.987
G1 X199.389 Y123.586
G1 X115.986 Y137.750
G1 X109.893 Y137.110
G1 X72.933 Y137.791
G1 X106.857 Y134.884
G1 X94.563 Y92.723
G1 X109.382 Y136.198
G1 X86.161 Y134.585
G1 X168.391 Y118.899
G1 X135.208 Y117.806
G1 X168.604 Y117.826
G1 X111.677 Y78.067
G1 X163.232 Y118.043
G1 X157.183 Y63.465
G1 X158.177 Y117.741
G1 X122.046 Y118.961
G1 X155.040 Y118.796
G1 X119.255 Y119.692
G1 X151.439 Y119.246
G1 X113.925 Y120.189
G1 X146.941 Y120.163
G1 X88.308 Y85.733
G1 X143.064 Y121.267
G1 X103.310 Y122.797
G1 X139.546 Y122.276
G1 X103.157 Y123.099
G1 X146.798 Y119.213
G1 X89.405 Y71.208
G1 X150.582 Y118.657
G1 X149.633 Y58.238
G1 X154.720 Y117.979
G1 X160.448 Y120.138
G1 X161.356 Y117.111
G1 X129.325 Y117.256
G1 X174.685 Y114.576
G1 X151.637 Y112.802
G1 X182.870 Y112.459
G1 X155.320 Y111.575
G1 X185.990 Y111.438
G1 X154.329 Y110.236
G1 X189.495 Y110.345
G1 X158.603 Y109.000
G1 X192.984 Y109.140
G1 X162.409 Y107.421
G1 X190.671 Y106.608
G1 X128.956 Y56.889
G1 X187.794 Y105.444
G1 X159.726 Y103.592
G1 X191.179 Y106.039
G1 X162.237 Y106.275
G1 X226.514 Y109.328
G1 X139.709 Y75.716
G1 X99.532 Y132.330
G1 X86.667 Y70.967
G1 X93.981 Y130.037
G1 X80.687 Y67.131
G1 X88.300 Y128.185
G1 X38.928 Y128.575
G1 X84.616 Y126.913
G1 X71.073 Y118.928
G1 X78.809 Y126.721
G1 X29.626 Y128.370
G1 X78.016 Y125.389
G1 X60.911 Y78.242
G1 X77.391 Y122.386
G1 X16.410 Y73.753
G1 X83.161 Y124.825
G1 X33.395 Y90.482
G1 X88.325 Y124.546
G1 X75.473 Y118.676
G1 X90.830 Y125.865
G1 X45.566 Y129.188
G1 X95.040 Y128.161
G1 X89.670 Y120.620
G1 X100.892 Y129.823
G1 X64.024 Y131.120
G1 X141.268 Y120.866
G1 X141.951 Y57.260
G1 X141.231 Y120.614
G1 X130.566 Y70.123
G1 X137.652 Y120.041
G1 X99.434 Y120.094
G1 X143.278 Y118.886
G1 X108.386 Y119.287
G1 X173.794 Y111.265
G1 X157.667 Y104.073
G1 X186.049 Y105.379
G1 X153.823 Y102.902
G1 X180.304 Y103.108
G1 X141.820 Y145.215
G1 X174.969 Y101.078
G1 X112.659 Y51.195
G1 X169.770 Y98.489
G1 X168.195 Y32.569
G1 X164.008 Y96.106
G1 X126.374 Y92.432
G1 X165.869 Y95.618
G1 X132.990 Y94.068
G1 X171.609 Y97.862
G1 X146.591 Y97.156
G1 X209.010 Y102.033
G1 X147.419 Y80.843
G1 X157.218 Y111.339
G1 X158.133 Y47.962
G1 X158.890 Y112.237
G1 X122.250 Y79.131
G1 X112.775 Y124.093
G1 X67.231 Y125.543
G1 X106.241 Y124.324
G1 X56.508 Y126.117
G1 X100.649 Y124.395
G1 X88.306 Y71.642
G1 X103.327 Y122.909
G1 X59.187 Y123.323
G1 X107.977 Y121.690
G1 X104.341 Y112.822
G1 X87.813 Y124.942
G1 X24.233 Y128.447
G1 X73.446 Y126.994
G1 X25.636 Y128.864
G1 X69.886 Y127.724
G1 X5.785 Y80.112
G1 X67.134 Y128.707
G1 X23.874 Y128.686
G1 X71.534 Y128.454
G1 X25.448 Y130.104
G1 X87.897 Y125.501
G1 X75.020 Y83.405
G1 X93.647 Y123.994
G1 X86.442 Y68.150
G1 X95.789 Y121.573
G1 X46.912 Y121.310
G1 X93.771 Y119.690
G1 X47.652 Y121.116
G1 X100.304 Y116.815
G1 X91.122 Y105.828
G1 X100.073 Y112.779
G1 X82.443 Y104.645
G1 X95.722 Y110.723
G1 X45.031 Y108.758
G1 X93.301 Y107.465
G1 X37.804 Y66.983
G1 X95.070 Y109.006
G1 X87.577 Y98.883
G1 X96.822 Y110.435
G1 X52.958 Y110.196
G1 X99.588 Y112.035
G1 X91.625 Y102.732
G1 X104.459 Y113.605
G1 X98.314 Y54.578
G1 X150.497 Y115.454
G1 X170.350 Y97.233
G1 X169.420 Y97.477
G1 X161.301 Y88.448
G1 X169.678 Y97.874
G1 X109.196 Y104.024
G1 X135.372 Y108.639
G1 X75.972 Y75.689
G1 X92.852 Y114.875
G1 X73.992 Y54.707
G1 X83.310 Y114.239
G1 X70.430 Y54.101
G1 X84.741 Y112.208
G1 X78.863 Y101.429
G1 X90.462 Y113.003
G1 X51.136 Y113.433
G1 X91.234 Y107.891
G1 X75.636 Y51.458
G1 X85.388 Y104.948
G1 X66.137 Y60.195
G1 X80.706 Y104.636
G1 X21.071 Y61.025
G1 X79.264 Y105.275
G1 X32.920 Y104.030
G1 X80.077 Y104.249
G1 X15.743 Y53.764
G1 X78.423 Y102.300
G1 X67.620 Y37.986
G1 X80.615 Y100.214
G1 X74.344 Y31.254
G1 X82.769 Y97.732
G1 X72.754 Y83.825
G1 X81.109 Y97.063
G1 X71.519 Y84.526
G1 X80.559 Y97.207
G1 X118.579 Y41.740
G1 X208.401 Y115.413
G1 X175.881 Y114.785
G1 X206.133 Y114.351
G1 X192.933 Y108.804
G1 X205.612 Y112.192
G1 X160.083 Y79.005
G1 X208.399 Y114.077
G1 X151.397 Y67.364
G1 X211.173 Y115.877
G1 X211.529 Y73.102
G1 X213.035 Y117.307
G1 X217.017 Y64.574
G1 X215.561 Y118.039
G1 X187.941 Y119.323
G1 X244.591 Y118.536
G1 X223.714 Y46.228
G1 X187.843 Y94.187
G1 X164.417 Y87.253
G1 X183.294 Y92.126
G1 X136.581 Y56.169
G1 X187.497 Y93.203
G1 X175.593 Y30.485
G1 X109.169 Y105.165
G1 X85.478 Y55.270
G1 X96.002 Y103.648
G1 X46.851 Y100.378
G1 X94.306 Y101.274
G1 X85.988 Y47.088
G1 X97.697 Y103.378
G1 X58.342 Y103.612
G1 X136.628 Y88.727
G1 X115.806 Y74.689
G1 X151.605 Y79.164
G1 X95.211 Y36.506
G1 X149.498 Y78.002
G1 X113.826 Y73.058
G1 X153.106 Y78.771
G1 X119.314 Y74.932
G1 X150.474 Y78.066
G1 X141.375 Y9.586
G1 X140.293 Y74.488
G1 X129.621 Y58.690
G1 X135.372 Y72.582
G1 X95.925 Y65.751
G1 X134.021 Y71.338
G1 X93.149 Y65.259
G1 X136.906 Y72.558
G1 X136.477 Y6.512
G1 X140.738 Y73.645
G1 X206.113 Y84.023
G1 X407.180 Y114.703
G1 X363.843 Y76.350
G1 X407.180 Y114.703
G1 X351.534 Y65.456
G1 X407.180 Y114.703
G1 X443.247 Y43.419
G1 X407.180 Y114.703
; Retract
G0 Z5.000
M5          ; Switch tool offEnd
