G21         ; Set units to mm
G90         ; Absolute positioning

;
; Operation:    0
; Type:         Mill Cut
; Paths:        67
; Direction:    Conventional
; Rapid Z:      3
; Start Z:      0
; End Z:        -0.2
; Pass Depth:   1
; Plunge rate:  4000 mm/min
; Cut rate:     4000 mm/min
;
; Retract
G0 Z3.000

; Path 0
; Rapid to initial position
G0 X307.226 Y-58.397
G0 Z0.000
; plunge
G1 Z-0.200 F4000
; cut
G1 X281.032 Y-41.349 F4000
G1 X265.506 Y-31.244
G1 X281.032 Y-41.349
G1 X307.226 Y-58.397
G1 X298.480 Y-60.978
G1 X307.226 Y-58.397
G1 X307.226 Y-84.047
G1 X265.886 Y-64.705
G1 X275.230 Y-61.743
G1 X267.520 Y-57.807
G1 X275.230 Y-55.180
G1 X267.520 Y-57.807
G1 X275.230 Y-61.743
G1 X265.886 Y-64.705
G1 X307.226 Y-84.047
G1 X298.480 Y-85.902
G1 X307.226 Y-84.047
G1 X307.226 Y-58.397
G1 X307.226 Y-58.397
; Retract
G0 Z3.000

; Path 1
; Rapid to initial position
G0 X285.175 Y-80.209
G0 Z0.000
; plunge
G1 Z-0.200 F4000
; cut
G1 X265.350 Y-71.724 F4000
G1 X285.175 Y-80.209
G1 X222.261 Y-96.171
G1 X260.687 Y-106.664
G1 X222.261 Y-96.171
G1 X285.175 Y-80.209
G1 X285.175 Y-80.209
; Retract
G0 Z3.000

; Path 2
; Rapid to initial position
G0 X265.886 Y-64.705
G0 Z0.000
; plunge
G1 Z-0.200 F4000
; cut
G1 X265.506 Y-64.527 F4000
G1 X265.886 Y-64.705
G1 X252.443 Y-68.968
G1 X265.886 Y-64.705
; Retract
G0 Z3.000

; Path 3
; Rapid to initial position
G0 X265.506 Y-58.493
G0 Z0.000
; plunge
G1 Z-0.200 F4000
; cut
G1 X267.520 Y-57.807 F4000
G1 X230.662 Y-38.992
G1 X267.520 Y-57.807
G1 X259.506 Y-60.538
G1 X265.506 Y-58.493
; Retract
G0 Z3.000

; Path 4
; Rapid to initial position
G0 X259.506 Y-60.538
G0 Z0.000
; plunge
G1 Z-0.200 F4000
; cut
G1 X255.971 Y-61.743 F4000
G1 X252.443 Y-62.945
G1 X232.075 Y-53.888
G1 X252.443 Y-62.945
G1 X255.971 Y-61.743
G1 X259.506 Y-60.538
G1 X259.506 Y-60.538
; Retract
G0 Z3.000

; Path 5
; Rapid to initial position
G0 X252.443 Y-68.968
G0 Z0.000
; plunge
G1 Z-0.200 F4000
; cut
G1 X251.951 Y-68.764 F4000
G1 X223.991 Y-57.195
G1 X251.951 Y-68.764
G1 X252.443 Y-68.968
G1 X252.443 Y-68.968
; Retract
G0 Z3.000

; Path 6
; Rapid to initial position
G0 X232.075 Y-53.888
G0 Z0.000
; plunge
G1 Z-0.200 F4000
; cut
G1 X217.615 Y-47.458 F4000
G1 X232.075 Y-53.888
G1 X223.991 Y-57.195
G1 X209.540 Y-51.216
G1 X223.991 Y-57.195
G1 X206.585 Y-64.316
G1 X223.991 Y-57.195
G1 X232.075 Y-53.888
G1 X232.075 Y-53.888
; Retract
G0 Z3.000

; Path 7
; Rapid to initial position
G0 X215.158 Y-46.366
G0 Z0.000
; plunge
G1 Z-0.200 F4000
; cut
G1 X207.091 Y-50.203 F4000
G1 X215.158 Y-46.366
G1 X207.091 Y-42.779
G1 X215.158 Y-46.366
; Retract
G0 Z3.000

; Path 8
; Rapid to initial position
G0 X209.540 Y-51.216
G0 Z0.000
; plunge
G1 Z-0.200 F4000
; cut
G1 X206.585 Y-52.591 F4000
G1 X209.540 Y-51.216
G1 X207.091 Y-50.203
G1 X209.540 Y-51.216
; Retract
G0 Z3.000

; Path 9
; Rapid to initial position
G0 X215.824 Y-94.414
G0 Z0.000
; plunge
G1 Z-0.200 F4000
; cut
G1 X222.261 Y-96.171 F4000
G1 X215.824 Y-97.804
G1 X222.261 Y-96.171
G1 X215.824 Y-94.414
; Retract
G0 Z3.000

; Path 10
; Rapid to initial position
G0 X234.446 Y-135.287
G0 Z0.000
; plunge
G1 Z-0.200 F4000
; cut
G1 X189.669 Y-132.270 F4000
G1 X234.968 Y-135.256
G1 X234.446 Y-135.287
G1 X234.446 Y-135.287
; Retract
G0 Z3.000

; Path 11
; Rapid to initial position
G0 X234.446 Y-135.287
G0 Z0.000
; plunge
G1 Z-0.200 F4000
; cut
G1 X234.968 Y-135.256 F4000
G1 X189.669 Y-132.189
G1 X189.157 Y-132.236
G1 X189.669 Y-132.189
G1 X189.157 Y-132.236
G1 X189.669 Y-132.270
G1 X234.446 Y-135.287
; Retract
G0 Z3.000

; Path 12
; Rapid to initial position
G0 X234.968 Y-135.256
G0 Z0.000
; plunge
G1 Z-0.200 F4000
; cut
G1 X234.968 Y-135.256 F4000
; Retract
G0 Z3.000

; Path 13
; Rapid to initial position
G0 X234.968 Y-143.263
G0 Z0.000
; plunge
G1 Z-0.200 F4000
; cut
G1 X189.669 Y-141.904 F4000
G1 X189.157 Y-141.925
G1 X234.446 Y-143.277
G1 X234.968 Y-143.263
G1 X234.968 Y-143.263
; Retract
G0 Z3.000

; Path 14
; Rapid to initial position
G0 X234.968 Y-143.263
G0 Z0.000
; plunge
G1 Z-0.200 F4000
; cut
G1 X234.968 Y-143.263 F4000
; Retract
G0 Z3.000

; Path 15
; Rapid to initial position
G0 X234.968 Y-143.263
G0 Z0.000
; plunge
G1 Z-0.200 F4000
; cut
G1 X234.446 Y-143.277 F4000
G1 X189.157 Y-141.925
G1 X189.669 Y-141.904
G1 X234.968 Y-143.263
; Retract
G0 Z3.000

; Path 16
; Rapid to initial position
G0 X222.976 Y-150.518
G0 Z0.000
; plunge
G1 Z-0.200 F4000
; cut
G1 X233.476 Y-157.654 F4000
G1 X222.976 Y-158.042
G1 X188.132 Y-159.347
G1 X222.976 Y-158.042
G1 X233.399 Y-157.652
G1 X233.564 Y-157.714
G1 X222.976 Y-158.161
G1 X189.669 Y-159.425
G1 X222.976 Y-158.161
G1 X233.626 Y-157.756
G1 X234.968 Y-157.705
G1 X233.476 Y-157.654
G1 X222.976 Y-150.518
; Retract
G0 Z3.000

; Path 17
; Rapid to initial position
G0 X233.476 Y-157.654
G0 Z0.000
; plunge
G1 Z-0.200 F4000
; cut
G1 X234.968 Y-157.705 F4000
G1 X233.625 Y-157.756
G1 X233.476 Y-157.654
G1 X233.476 Y-157.654
; Retract
G0 Z3.000

; Path 18
; Rapid to initial position
G0 X237.082 Y-160.105
G0 Z0.000
; plunge
G1 Z-0.200 F4000
; cut
G1 X245.145 Y-165.586 F4000
G1 X222.976 Y-164.155
G1 X245.145 Y-165.586
G1 X248.127 Y-167.612
G1 X242.145 Y-168.152
G1 X222.976 Y-166.698
G1 X242.145 Y-168.152
G1 X222.976 Y-169.881
G1 X242.145 Y-168.152
G1 X248.127 Y-167.612
G1 X245.145 Y-165.586
G1 X237.082 Y-160.105
; Retract
G0 Z3.000

; Path 19
; Rapid to initial position
G0 X234.968 Y-165.243
G0 Z0.000
; plunge
G1 Z-0.200 F4000
; cut
G1 X233.399 Y-165.139 F4000
G1 X234.968 Y-165.243
G1 X234.968 Y-165.243
; Retract
G0 Z3.000

; Path 20
; Rapid to initial position
G0 X233.399 Y-165.139
G0 Z0.000
; plunge
G1 Z-0.200 F4000
; cut
G1 X222.976 Y-165.894 F4000
G1 X217.559 Y-166.287
G1 X218.886 Y-166.388
G1 X219.131 Y-166.406
G1 X218.886 Y-166.388
G1 X217.559 Y-166.287
G1 X222.976 Y-165.895
G1 X233.399 Y-165.139
; Retract
G0 Z3.000

; Path 21
; Rapid to initial position
G0 X222.976 Y-164.155
G0 Z0.000
; plunge
G1 Z-0.200 F4000
; cut
G1 X203.832 Y-162.919 F4000
G1 X222.976 Y-164.155
; Retract
G0 Z3.000

; Path 22
; Rapid to initial position
G0 X217.559 Y-166.287
G0 Z0.000
; plunge
G1 Z-0.200 F4000
; cut
G1 X203.832 Y-165.246 F4000
G1 X217.559 Y-166.287
G1 X190.365 Y-168.257
G1 X191.143 Y-168.332
G1 X191.907 Y-168.406
G1 X214.777 Y-170.620
G1 X191.907 Y-168.406
G1 X191.143 Y-168.332
G1 X190.365 Y-168.257
G1 X217.559 Y-166.287
; Retract
G0 Z3.000

; Path 23
; Rapid to initial position
G0 X203.832 Y-162.919
G0 Z0.000
; plunge
G1 Z-0.200 F4000
; cut
G1 X159.949 Y-165.312 F4000
G1 X159.949 Y-168.058
G1 X159.949 Y-165.312
G1 X177.015 Y-166.964
G1 X185.486 Y-167.784
G1 X177.015 Y-166.964
G1 X183.591 Y-166.543
G1 X177.015 Y-166.964
G1 X159.949 Y-165.312
G1 X203.832 Y-162.919
; Retract
G0 Z3.000

; Path 24
; Rapid to initial position
G0 X190.365 Y-168.257
G0 Z0.000
; plunge
G1 Z-0.200 F4000
; cut
G1 X189.669 Y-168.307 F4000
G1 X188.132 Y-168.419
G1 X189.669 Y-168.307
G1 X190.365 Y-168.257
; Retract
G0 Z3.000

; Path 25
; Rapid to initial position
G0 X189.669 Y-168.570
G0 Z0.000
; plunge
G1 Z-0.200 F4000
; cut
G1 X188.132 Y-168.419 F4000
G1 X189.669 Y-168.570
G1 X189.669 Y-168.570
; Retract
G0 Z3.000

; Path 26
; Rapid to initial position
G0 X154.315 Y-131.314
G0 Z0.000
; plunge
G1 Z-0.200 F4000
; cut
G1 X148.018 Y-130.920 F4000
G1 X115.882 Y-128.911
G1 X148.018 Y-130.920
G1 X139.105 Y-132.033
G1 X148.018 Y-130.920
G1 X154.315 Y-131.314
; Retract
G0 Z3.000

; Path 27
; Rapid to initial position
G0 X150.095 Y-117.336
G0 Z0.000
; plunge
G1 Z-0.200 F4000
; cut
G1 X168.561 Y-113.414 F4000
G1 X163.335 Y-112.735
G1 X168.561 Y-113.414
G1 X150.095 Y-117.336
G1 X150.095 Y-117.336
; Retract
G0 Z3.000

; Path 28
; Rapid to initial position
G0 X150.095 Y-115.691
G0 Z0.000
; plunge
G1 Z-0.200 F4000
; cut
G1 X163.335 Y-112.735 F4000
G1 X138.940 Y-109.566
G1 X163.335 Y-112.735
G1 X150.095 Y-115.691
; Retract
G0 Z3.000

; Path 29
; Rapid to initial position
G0 X138.940 Y-114.417
G0 Z0.000
; plunge
G1 Z-0.200 F4000
; cut
G1 X116.581 Y-111.864 F4000
G1 X128.180 Y-108.169
G1 X116.581 Y-111.864
G1 X138.940 Y-114.417
; Retract
G0 Z3.000

; Path 30
; Rapid to initial position
G0 X138.940 Y-107.525
G0 Z0.000
; plunge
G1 Z-0.200 F4000
; cut
G1 X138.940 Y-77.873 F4000
G1 X138.940 Y-107.525
G1 X168.561 Y-111.569
G1 X138.940 Y-107.525
; Retract
G0 Z3.000

; Path 31
; Rapid to initial position
G0 X133.304 Y-121.941
G0 Z0.000
; plunge
G1 Z-0.200 F4000
; cut
G1 X130.384 Y-122.566 F4000
G1 X125.105 Y-121.941
G1 X130.384 Y-122.566
G1 X125.105 Y-123.695
G1 X130.384 Y-122.566
G1 X133.304 Y-121.941
; Retract
G0 Z3.000

; Path 32
; Rapid to initial position
G0 X139.105 Y-132.033
G0 Z0.000
; plunge
G1 Z-0.200 F4000
; cut
G1 X108.176 Y-130.267 F4000
G1 X115.882 Y-128.911
G1 X108.176 Y-130.267
G1 X139.105 Y-132.033
G1 X139.105 Y-132.033
; Retract
G0 Z3.000

; Path 33
; Rapid to initial position
G0 X114.387 Y-122.566
G0 Z0.000
; plunge
G1 Z-0.200 F4000
; cut
G1 X110.080 Y-123.568 F4000
G1 X97.112 Y-122.566
G1 X110.080 Y-123.568
G1 X114.387 Y-122.566
G1 X114.387 Y-122.566
; Retract
G0 Z3.000

; Path 34
; Rapid to initial position
G0 X112.295 Y-113.230
G0 Z0.000
; plunge
G1 Z-0.200 F4000
; cut
G1 X116.581 Y-111.864 F4000
G1 X112.295 Y-111.375
G1 X116.581 Y-111.864
G1 X112.295 Y-113.230
; Retract
G0 Z3.000

; Path 35
; Rapid to initial position
G0 X108.176 Y-130.267
G0 Z0.000
; plunge
G1 Z-0.200 F4000
; cut
G1 X103.071 Y-129.975 F4000
G1 X108.176 Y-130.267
G1 X103.071 Y-131.164
G1 X108.176 Y-130.267
; Retract
G0 Z3.000

; Path 36
; Rapid to initial position
G0 X77.990 Y-122.713
G0 Z0.000
; plunge
G1 Z-0.200 F4000
; cut
G1 X76.904 Y-123.079 F4000
G1 X57.467 Y-121.685
G1 X76.904 Y-123.079
G1 X76.904 Y-162.307
G1 X80.302 Y-162.853
G1 X76.904 Y-162.307
G1 X76.904 Y-123.079
G1 X77.990 Y-122.713
; Retract
G0 Z3.000

; Path 37
; Rapid to initial position
G0 X57.467 Y-121.685
G0 Z0.000
; plunge
G1 Z-0.200 F4000
; cut
G1 X57.467 Y-163.959 F4000
G1 X57.467 Y-121.685
G1 X56.442 Y-121.612
G1 X57.467 Y-121.685
; Retract
G0 Z3.000

; Path 38
; Rapid to initial position
G0 X65.665 Y-82.997
G0 Z0.000
; plunge
G1 Z-0.200 F4000
; cut
G1 X65.665 Y-71.724 F4000
G1 X65.665 Y-82.997
; Retract
G0 Z3.000

; Path 39
; Rapid to initial position
G0 X70.667 Y-71.346
G0 Z0.000
; plunge
G1 Z-0.200 F4000
; cut
G1 X72.117 Y-71.648 F4000
G1 X70.667 Y-71.346
G1 X70.667 Y-71.346
; Retract
G0 Z3.000

; Path 40
; Rapid to initial position
G0 X83.600 Y-62.867
G0 Z0.000
; plunge
G1 Z-0.200 F4000
; cut
G1 X99.527 Y-46.716 F4000
G1 X83.600 Y-62.867
G1 X83.600 Y-62.867
; Retract
G0 Z3.000

; Path 41
; Rapid to initial position
G0 X89.719 Y-47.735
G0 Z0.000
; plunge
G1 Z-0.200 F4000
; cut
G1 X92.504 Y-44.639 F4000
G1 X89.719 Y-43.815
G1 X92.504 Y-44.639
G1 X89.719 Y-47.735
; Retract
G0 Z3.000

; Path 42
; Rapid to initial position
G0 X92.504 Y-44.639
G0 Z0.000
; plunge
G1 Z-0.200 F4000
; cut
G1 X93.246 Y-43.815 F4000
G1 X96.360 Y-40.354
G1 X93.246 Y-43.815
G1 X92.504 Y-44.639
G1 X92.504 Y-44.639
; Retract
G0 Z3.000

; Path 43
; Rapid to initial position
G0 X99.527 Y-46.716
G0 Z0.000
; plunge
G1 Z-0.200 F4000
; cut
G1 X115.227 Y-51.361 F4000
G1 X99.527 Y-46.716
G1 X109.733 Y-36.368
G1 X99.527 Y-46.716
; Retract
G0 Z3.000

; Path 44
; Rapid to initial position
G0 X92.383 Y-87.661
G0 Z0.000
; plunge
G1 Z-0.200 F4000
; cut
G1 X92.383 Y-87.661 F4000
; Retract
G0 Z3.000

; Path 45
; Rapid to initial position
G0 X141.337 Y-52.760
G0 Z0.000
; plunge
G1 Z-0.200 F4000
; cut
G1 X148.985 Y-55.180 F4000
G1 X153.112 Y-56.487
G1 X148.985 Y-55.180
G1 X141.337 Y-52.760
; Retract
G0 Z3.000

; Path 46
; Rapid to initial position
G0 X81.656 Y-177.489
G0 Z0.000
; plunge
G1 Z-0.200 F4000
; cut
G1 X80.302 Y-177.038 F4000
G1 X81.656 Y-177.489
; Retract
G0 Z3.000

; Path 47
; Rapid to initial position
G0 X87.699 Y-200.340
G0 Z0.000
; plunge
G1 Z-0.200 F4000
; cut
G1 X89.479 Y-201.347 F4000
G1 X87.699 Y-201.604
G1 X89.479 Y-201.347
G1 X87.699 Y-200.340
; Retract
G0 Z3.000

; Path 48
; Rapid to initial position
G0 X87.699 Y-201.604
G0 Z0.000
; plunge
G1 Z-0.200 F4000
; cut
G1 X92.018 Y-204.106 F4000
G1 X94.360 Y-205.464
G1 X92.018 Y-204.106
G1 X87.699 Y-201.604
G1 X87.699 Y-201.604
; Retract
G0 Z3.000

; Path 49
; Rapid to initial position
G0 X74.857 Y-215.329
G0 Z0.000
; plunge
G1 Z-0.200 F4000
; cut
G1 X54.016 Y-197.509 F4000
G1 X74.857 Y-215.329
; Retract
G0 Z3.000

; Path 50
; Rapid to initial position
G0 X54.016 Y-197.509
G0 Z0.000
; plunge
G1 Z-0.200 F4000
; cut
G1 X36.970 Y-199.584 F4000
G1 X54.016 Y-197.509
G1 X54.016 Y-197.509
; Retract
G0 Z3.000

; Path 51
; Rapid to initial position
G0 X57.467 Y-163.959
G0 Z0.000
; plunge
G1 Z-0.200 F4000
; cut
G1 X56.442 Y-163.712 F4000
G1 X57.467 Y-163.959
G1 X57.467 Y-163.959
; Retract
G0 Z3.000

; Path 52
; Rapid to initial position
G0 X54.016 Y-240.472
G0 Z0.000
; plunge
G1 Z-0.200 F4000
; cut
G1 X52.342 Y-240.858 F4000
G1 X54.016 Y-240.472
G1 X54.016 Y-240.472
; Retract
G0 Z3.000

; Path 53
; Rapid to initial position
G0 X180.958 Y-233.741
G0 Z0.000
; plunge
G1 Z-0.200 F4000
; cut
G1 X189.669 Y-237.746 F4000
G1 X180.958 Y-233.741
G1 X226.019 Y-219.518
G1 X180.958 Y-233.741
; Retract
G0 Z3.000

; Path 54
; Rapid to initial position
G0 X188.523 Y-258.406
G0 Z0.000
; plunge
G1 Z-0.200 F4000
; cut
G1 X194.381 Y-261.751 F4000
G1 X188.523 Y-258.406
G1 X194.381 Y-255.945
G1 X188.523 Y-258.406
; Retract
G0 Z3.000

; Path 55
; Rapid to initial position
G0 X207.177 Y-259.326
G0 Z0.000
; plunge
G1 Z-0.200 F4000
; cut
G1 X207.683 Y-259.591 F4000
G1 X207.177 Y-259.326
G1 X207.683 Y-259.095
G1 X207.177 Y-259.326
; Retract
G0 Z3.000

; Path 56
; Rapid to initial position
G0 X236.299 Y-246.457
G0 Z0.000
; plunge
G1 Z-0.200 F4000
; cut
G1 X238.543 Y-245.428 F4000
G1 X236.299 Y-244.534
G1 X238.543 Y-245.428
G1 X236.299 Y-246.457
; Retract
G0 Z3.000

; Path 57
; Rapid to initial position
G0 X236.299 Y-246.457
G0 Z0.000
; plunge
G1 Z-0.200 F4000
; cut
G1 X250.134 Y-252.079 F4000
G1 X254.053 Y-250.044
G1 X250.134 Y-252.079
G1 X236.299 Y-246.457
; Retract
G0 Z3.000

; Path 58
; Rapid to initial position
G0 X234.968 Y-224.392
G0 Z0.000
; plunge
G1 Z-0.200 F4000
; cut
G1 X231.726 Y-223.369 F4000
G1 X234.968 Y-222.261
G1 X231.726 Y-223.369
G1 X234.968 Y-224.392
; Retract
G0 Z3.000

; Path 59
; Rapid to initial position
G0 X261.844 Y-174.843
G0 Z0.000
; plunge
G1 Z-0.200 F4000
; cut
G1 X299.946 Y-200.239 F4000
G1 X297.788 Y-201.365
G1 X299.946 Y-200.239
G1 X261.844 Y-174.843
; Retract
G0 Z3.000

; Path 60
; Rapid to initial position
G0 X259.979 Y-169.504
G0 Z0.000
; plunge
G1 Z-0.200 F4000
; cut
G1 X259.979 Y-166.543 F4000
G1 X257.860 Y-166.406
G1 X259.979 Y-166.543
G1 X248.127 Y-167.612
G1 X297.788 Y-201.365
G1 X252.134 Y-170.336
G1 X259.979 Y-169.504
; Retract
G0 Z3.000

; Path 61
; Rapid to initial position
G0 X259.979 Y-169.504
G0 Z0.000
; plunge
G1 Z-0.200 F4000
; cut
G1 X252.134 Y-170.336 F4000
G1 X249.772 Y-168.730
G1 X248.127 Y-167.612
G1 X259.979 Y-166.543
G1 X259.979 Y-169.504
; Retract
G0 Z3.000

; Path 62
; Rapid to initial position
G0 X261.844 Y-140.848
G0 Z0.000
; plunge
G1 Z-0.200 F4000
; cut
G1 X343.144 Y-177.686 F4000
G1 X343.144 Y-229.031
G1 X297.788 Y-263.863
G1 X343.144 Y-229.031
G1 X343.144 Y-227.151
G1 X343.357 Y-226.993
G1 X343.144 Y-227.151
G1 X343.144 Y-177.686
G1 X261.844 Y-140.848
; Retract
G0 Z3.000

; Path 63
; Rapid to initial position
G0 X299.946 Y-200.239
G0 Z0.000
; plunge
G1 Z-0.200 F4000
; cut
G1 X300.098 Y-200.340 F4000
G1 X299.946 Y-200.239
G1 X343.144 Y-177.686
G1 X299.946 Y-200.239
; Retract
G0 Z3.000

; Path 64
; Rapid to initial position
G0 X352.104 Y-178.306
G0 Z0.000
; plunge
G1 Z-0.200 F4000
; cut
G1 X379.040 Y-170.204 F4000
G1 X373.870 Y-169.925
G1 X379.040 Y-170.204
G1 X352.104 Y-178.306
; Retract
G0 Z3.000

; Path 65
; Rapid to initial position
G0 X377.455 Y-106.539
G0 Z0.000
; plunge
G1 Z-0.200 F4000
; cut
G1 X355.910 Y-93.266 F4000
G1 X351.309 Y-90.432
G1 X350.054 Y-89.659
G1 X351.309 Y-90.432
G1 X355.910 Y-93.266
G1 X377.455 Y-106.539
; Retract
G0 Z3.000

; Path 66
; Rapid to initial position
G0 X377.455 Y-100.280
G0 Z0.000
; plunge
G1 Z-0.200 F4000
; cut
G1 X365.270 Y-91.683 F4000
G1 X368.347 Y-91.162
G1 X365.270 Y-91.683
G1 X361.029 Y-88.691
G1 X350.054 Y-80.948
G1 X361.029 Y-88.691
G1 X365.270 Y-91.683
G1 X377.455 Y-100.280
; Retract
G0 Z3.000
M5          ; Switch tool offEnd
