G21         ; Set units to mm
G90         ; Absolute positioning

;
; Operation:    0
; Type:         Mill Cut
; Paths:        87
; Direction:    Conventional
; Rapid Z:      5
; Start Z:      0
; End Z:        -0.2
; Pass Depth:   1
; Plunge rate:  4000 mm/min
; Cut rate:     4000 mm/min
;
; Retract
G0 Z5.000

; Path 0
; Rapid to initial position
G0 X110.556 Y124.972
G0 Z0.000
; plunge
G1 Z-0.200 F4000
; cut
G1 X110.480 Y124.748 F4000
G1 X109.516 Y126.040
G1 X108.453 Y125.605
G1 X105.267 Y124.287
G1 X107.565 Y123.601
G1 X107.359 Y124.194
G1 X106.817 Y125.249
G1 X99.381 Y126.621
G1 X100.888 Y126.700
G1 X102.232 Y127.161
G1 X103.988 Y126.251
G1 X104.476 Y125.948
G1 X102.633 Y127.781
G1 X101.528 Y131.157
G1 X100.389 Y130.379
G1 X100.292 Y131.698
G1 X100.682 Y134.124
G1 X105.614 Y140.190
G1 X106.654 Y140.665
G1 X107.283 Y140.440
G1 X107.337 Y140.295
G1 X105.971 Y138.766
G1 X107.792 Y138.792
G1 X106.806 Y130.854
G1 X106.969 Y128.098
G1 X106.979 Y127.755
G1 X107.023 Y125.249
G1 X107.240 Y125.869
G1 X106.307 Y126.054
G1 X105.820 Y126.251
G1 X40.202 Y205.042
G1 X106.123 Y122.994
G1 X107.218 Y121.649
G1 X110.101 Y120.673
G1 X110.524 Y120.383
G1 X110.979 Y119.724
G1 X191.131 Y154.643
G1 X113.136 Y106.498
G1 X111.900 Y106.682
G1 X110.968 Y107.117
G1 X104.768 Y109.939
G1 X105.614 Y109.900
G1 X105.440 Y110.150
G1 X103.988 Y111.271
G1 X104.064 Y112.010
G1 X104.974 Y112.682
G1 X127.085 Y197.816
G1 X106.838 Y118.959
G1 X106.611 Y119.566
G1 X106.557 Y119.276
G1 X107.781 Y120.555
G1 X106.427 Y119.065
G1 X105.462 Y117.495
G1 X104.671 Y116.111
G1 X103.945 Y114.067
G1 X104.682 Y112.273
G1 X103.077 Y107.539
G1 X103.316 Y105.509
G1 X103.338 Y105.812
G1 X153.933 Y130.893
G1 X102.796 Y105.627
G1 X102.947 Y106.023
G1 X103.511 Y106.273
G1 X128.440 Y125.724
G1 X107.445 Y109.333
G1 X106.654 Y107.315
G1 X104.747 Y101.685
G1 X105.191 Y100.906
G1 X104.226 Y102.238
G1 X74.918 Y76.036
G1 X102.720 Y103.570
G1 X102.579 Y103.148
G1 X102.460 Y102.858
G1 X103.468 Y102.753
G1 X103.934 Y102.726
G1 X111.011 Y97.333
G1 X112.052 Y96.528
G1 X112.247 Y94.986
G1 X121.937 Y83.605
G1 X114.859 Y83.645
G1 X115.249 Y85.531
G1 X115.293 Y85.874
G1 X115.889 Y89.592
G1 X117.124 Y89.408
G1 X116.051 Y90.449
G1 X115.434 Y91.649
G1 X112.052 Y94.405
G1 X113.786 Y92.493
G1 X115.011 Y89.935
G1 X119.292 Y85.636
G1 X119.466 Y85.003
G1 X118.631 Y83.421
G1 X119.531 Y73.676
G1 X119.303 Y73.847
G1 X120.127 Y74.414
G1 X45.307 Y119.750
G1 X120.279 Y75.931
G1 X120.539 Y74.375
G1 X120.886 Y73.267
G1 X119.737 Y72.278
G1 X120.994 Y71.671
G1 X117.157 Y69.522
G1 X122.880 Y69.654
G1 X122.587 Y70.841
G1 X122.403 Y73.452
G1 X121.883 Y76.999
G1 X120.766 Y77.579
G1 X119.747 Y78.120
G1 X114.436 Y78.608
G1 X112.648 Y78.225
G1 X112.084 Y78.331
G1 X56.384 Y90.476
G1 X103.619 Y79.966
G1 X103.836 Y79.280
G1 X103.999 Y79.254
G1 X104.692 Y79.109
G1 X105.570 Y78.529
G1 X105.397 Y78.186
G1 X104.107 Y77.329
G1 X97.550 Y74.375
G1 X98.298 Y74.164
G1 X98.406 Y73.913
G1 X99.696 Y70.762
G1 X101.170 Y69.773
G1 X101.332 Y69.588
G1 X98.980 Y64.828
G1 X97.409 Y63.548
G1 X96.162 Y62.810
G1 X94.547 Y63.364
G1 X94.287 Y61.452
G1 X95.230 Y62.111
G1 X94.721 Y62.217
G1 X94.558 Y61.346
G1 X93.930 Y59.421
G1 X94.786 Y60.700
G1 X95.057 Y62.071
G1 X99.175 Y67.412
G1 X100.530 Y68.480
G1 X98.536 Y68.823
G1 X90.483 Y72.318
G1 X89.106 Y71.737
G1 X89.789 Y70.696
G1 X146.736 Y36.727
G1 X90.364 Y67.755
G1 X89.410 Y66.700
G1 X86.874 Y62.480
G1 X86.613 Y62.243
G1 X88.185 Y63.562
G1 X158.008 Y29.474
G1 X93.789 Y61.162
G1 X93.713 Y61.030
G1 X93.333 Y60.318
G1 X94.558 Y58.287
G1 X93.843 Y60.555
G1 X92.997 Y61.346
G1 X91.751 Y63.456
G1 X91.523 Y63.654
G1 X91.643 Y63.904
G1 X94.287 Y69.667
G1 X94.092 Y70.287
G1 X92.651 Y70.893
G1 X92.098 Y71.118
G1 X90.765 Y71.816
G1 X90.342 Y71.935
G1 X91.361 Y71.724
G1 X93.333 Y70.392
G1 X94.135 Y69.799
G1 X92.499 Y69.021
G1 X91.610 Y68.309
G1 X86.202 Y63.746
G1 X85.595 Y63.575
G1 X85.399 Y64.392
G1 X137.458 Y195.469
G1 X83.763 Y68.348
G1 X84.153 Y66.951
G1 X84.847 Y65.579
G1 X131.724 Y154.484
G1 X89.117 Y61.729
G1 X89.150 Y61.003
G1 X89.312 Y60.753
G1 X89.030 Y59.315
G1 X117.276 Y118.827
G1 X88.781 Y53.355
G1 X87.567 Y54.186
G1 X85.887 Y55.425
G1 X81.964 Y58.300
G1 X80.338 Y58.142
G1 X78.961 Y57.707
G1 X76.620 Y59.263
G1 X75.514 Y59.368
G1 X76.523 Y57.601
G1 X57.609 Y19.571
G1 X78.983 Y53.065
G1 X79.698 Y53.658
G1 X79.958 Y53.830
G1 X80.674 Y54.595
G1 X79.460 Y54.819
G1 X78.051 Y54.568
G1 X76.512 Y53.817
G1 X70.876 Y55.768
G1 X71.266 Y54.608
G1 X73.217 Y48.384
G1 X73.824 Y47.487
G1 X73.498 Y46.498
G1 X72.469 Y45.008
G1 X71.526 Y45.456
G1 X72.599 Y47.935
G1 X73.065 Y48.278
G1 X9.409 Y54.568
G1 X74.322 Y51.628
G1 X74.658 Y50.797
G1 X72.642 Y47.566
G1 X72.534 Y47.421
G1 X74.485 Y47.869
G1 X150.183 Y63.456
G1 X77.455 Y45.865
G1 X77.129 Y44.612
G1 X77.108 Y43.636
G1 X77.433 Y42.463
G1 X78.907 Y41.685
G1 X80.576 Y41.619
G1 X81.248 Y41.421
G1 X81.248 Y43.056
G1 X81.248 Y44.889
G1 X81.248 Y46.485
G1 X81.248 Y51.641
; Retract
G0 Z5.000

; Path 1
; Rapid to initial position
G0 X80.338 Y58.142
G0 Z0.000
; plunge
G1 Z-0.200 F4000
; cut
G1 X93.431 Y114.317 F4000
; Retract
G0 Z5.000

; Path 2
; Rapid to initial position
G0 X90.103 Y114.291
G0 Z0.000
; plunge
G1 Z-0.200 F4000
; cut
G1 X76.620 Y59.263 F4000
; Retract
G0 Z5.000

; Path 3
; Rapid to initial position
G0 X71.266 Y54.608
G0 Z0.000
; plunge
G1 Z-0.200 F4000
; cut
G1 X83.383 Y111.443 F4000
; Retract
G0 Z5.000

; Path 4
; Rapid to initial position
G0 X82.343 Y109.412
G0 Z0.000
; plunge
G1 Z-0.200 F4000
; cut
G1 X40.028 Y15.601 F4000
; Retract
G0 Z5.000

; Path 5
; Rapid to initial position
G0 X41.080 Y22.696
G0 Z0.000
; plunge
G1 Z-0.200 F4000
; cut
G1 X40.505 Y21.733 F4000
G1 X40.516 Y22.036
G1 X40.885 Y24.291
G1 X40.993 Y25.162
G1 X43.226 Y24.160
G1 X42.142 Y21.984
G1 X41.015 Y20.691
G1 X38.533 Y15.061
G1 X40.028 Y15.601
G1 X40.484 Y15.615
G1 X46.803 Y20.639
G1 X48.916 Y20.665
G1 X49.382 Y19.505
G1 X57.609 Y19.571
; Retract
G0 Z5.000

; Path 6
; Rapid to initial position
G0 X46.803 Y20.639
G0 Z0.000
; plunge
G1 Z-0.200 F4000
; cut
G1 X88.499 Y113.737 F4000
; Retract
G0 Z5.000

; Path 7
; Rapid to initial position
G0 X86.624 Y109.320
G0 Z0.000
; plunge
G1 Z-0.200 F4000
; cut
G1 X74.322 Y51.628 F4000
; Retract
G0 Z5.000

; Path 8
; Rapid to initial position
G0 X73.217 Y48.384
G0 Z0.000
; plunge
G1 Z-0.200 F4000
; cut
G1 X85.302 Y105.364 F4000
; Retract
G0 Z5.000

; Path 9
; Rapid to initial position
G0 X85.139 Y103.926
G0 Z0.000
; plunge
G1 Z-0.200 F4000
; cut
G1 X72.642 Y47.566 F4000
; Retract
G0 Z5.000

; Path 10
; Rapid to initial position
G0 X77.433 Y42.463
G0 Z0.000
; plunge
G1 Z-0.200 F4000
; cut
G1 X88.651 Y100.656 F4000
; Retract
G0 Z5.000

; Path 11
; Rapid to initial position
G0 X92.369 Y98.981
G0 Z0.000
; plunge
G1 Z-0.200 F4000
; cut
G1 X80.576 Y41.619 F4000
; Retract
G0 Z5.000

; Path 12
; Rapid to initial position
G0 X89.312 Y60.753
G0 Z0.000
; plunge
G1 Z-0.200 F4000
; cut
G1 X102.340 Y116.876 F4000
; Retract
G0 Z5.000

; Path 13
; Rapid to initial position
G0 X101.831 Y118.775
G0 Z0.000
; plunge
G1 Z-0.200 F4000
; cut
G1 X89.117 Y61.729 F4000
; Retract
G0 Z5.000

; Path 14
; Rapid to initial position
G0 X86.874 Y62.480
G0 Z0.000
; plunge
G1 Z-0.200 F4000
; cut
G1 X99.349 Y120.924 F4000
; Retract
G0 Z5.000

; Path 15
; Rapid to initial position
G0 X99.316 Y120.106
G0 Z0.000
; plunge
G1 Z-0.200 F4000
; cut
G1 X86.202 Y63.746 F4000
; Retract
G0 Z5.000

; Path 16
; Rapid to initial position
G0 X91.751 Y63.456
G0 Z0.000
; plunge
G1 Z-0.200 F4000
; cut
G1 X104.822 Y118.775 F4000
; Retract
G0 Z5.000

; Path 17
; Rapid to initial position
G0 X106.470 Y116.256
G0 Z0.000
; plunge
G1 Z-0.200 F4000
; cut
G1 X93.843 Y60.555 F4000
; Retract
G0 Z5.000

; Path 18
; Rapid to initial position
G0 X94.786 Y60.700
G0 Z0.000
; plunge
G1 Z-0.200 F4000
; cut
G1 X107.283 Y117.021 F4000
; Retract
G0 Z5.000

; Path 19
; Rapid to initial position
G0 X103.945 Y114.067
G0 Z0.000
; plunge
G1 Z-0.200 F4000
; cut
G1 X115.900 Y171.627 F4000
; Retract
G0 Z5.000

; Path 20
; Rapid to initial position
G0 X117.244 Y166.563
G0 Z0.000
; plunge
G1 Z-0.200 F4000
; cut
G1 X103.988 Y111.271 F4000
; Retract
G0 Z5.000

; Path 21
; Rapid to initial position
G0 X105.614 Y109.900
G0 Z0.000
; plunge
G1 Z-0.200 F4000
; cut
G1 X118.555 Y165.667 F4000
; Retract
G0 Z5.000

; Path 22
; Rapid to initial position
G0 X120.040 Y165.904
G0 Z0.000
; plunge
G1 Z-0.200 F4000
; cut
G1 X107.445 Y109.333 F4000
; Retract
G0 Z5.000

; Path 23
; Rapid to initial position
G0 X103.077 Y107.539
G0 Z0.000
; plunge
G1 Z-0.200 F4000
; cut
G1 X114.989 Y165.759 F4000
; Retract
G0 Z5.000

; Path 24
; Rapid to initial position
G0 X115.206 Y159.126
G0 Z0.000
; plunge
G1 Z-0.200 F4000
; cut
G1 X103.468 Y102.753 F4000
; Retract
G0 Z5.000

; Path 25
; Rapid to initial position
G0 X104.747 Y101.685
G0 Z0.000
; plunge
G1 Z-0.200 F4000
; cut
G1 X117.352 Y158.493 F4000
; Retract
G0 Z5.000

; Path 26
; Rapid to initial position
G0 X122.262 Y154.234
G0 Z0.000
; plunge
G1 Z-0.200 F4000
; cut
G1 X111.011 Y97.333 F4000
; Retract
G0 Z5.000

; Path 27
; Rapid to initial position
G0 X113.786 Y92.493
G0 Z0.000
; plunge
G1 Z-0.200 F4000
; cut
G1 X125.828 Y149.645 F4000
; Retract
G0 Z5.000

; Path 28
; Rapid to initial position
G0 X123.693 Y147.034
G0 Z0.000
; plunge
G1 Z-0.200 F4000
; cut
G1 X127.172 Y84.608 F4000
; Retract
G0 Z5.000

; Path 29
; Rapid to initial position
G0 X125.134 Y86.652
G0 Z0.000
; plunge
G1 Z-0.200 F4000
; cut
G1 X122.349 Y150.396 F4000
; Retract
G0 Z5.000

; Path 30
; Rapid to initial position
G0 X115.488 Y150.541
G0 Z0.000
; plunge
G1 Z-0.200 F4000
; cut
G1 X189.072 Y156.106 F4000
; Retract
G0 Z5.000

; Path 31
; Rapid to initial position
G0 X191.131 Y154.643
G0 Z0.000
; plunge
G1 Z-0.200 F4000
; cut
G1 X205.785 Y207.996 F4000
G1 X205.926 Y206.625
G1 X206.392 Y205.992
G1 X206.360 Y206.321
; Retract
G0 Z5.000

; Path 32
; Rapid to initial position
G0 X153.684 Y198.713
G0 Z0.000
; plunge
G1 Z-0.200 F4000
; cut
G1 X152.383 Y199.570 F4000
G1 X153.163 Y201.891
G1 X154.713 Y203.974
G1 X155.168 Y240.211
; Retract
G0 Z5.000

; Path 33
; Rapid to initial position
G0 X148.383 Y266.967
G0 Z0.000
; plunge
G1 Z-0.200 F4000
; cut
G1 X126.207 Y175.570 F4000
; Retract
G0 Z5.000

; Path 34
; Rapid to initial position
G0 X125.947 Y177.864
G0 Z0.000
; plunge
G1 Z-0.200 F4000
; cut
G1 X147.679 Y269.539 F4000
; Retract
G0 Z5.000

; Path 35
; Rapid to initial position
G0 X142.888 Y268.800
G0 Z0.000
; plunge
G1 Z-0.200 F4000
; cut
G1 X120.365 Y180.634 F4000
; Retract
G0 Z5.000

; Path 36
; Rapid to initial position
G0 X117.276 Y181.438
G0 Z0.000
; plunge
G1 Z-0.200 F4000
; cut
G1 X106.123 Y122.994 F4000
; Retract
G0 Z5.000

; Path 37
; Rapid to initial position
G0 X105.635 Y125.671
G0 Z0.000
; plunge
G1 Z-0.200 F4000
; cut
G1 X92.499 Y69.021 F4000
; Retract
G0 Z5.000

; Path 38
; Rapid to initial position
G0 X90.364 Y67.755
G0 Z0.000
; plunge
G1 Z-0.200 F4000
; cut
G1 X102.947 Y124.010 F4000
; Retract
G0 Z5.000

; Path 39
; Rapid to initial position
G0 X103.988 Y126.251
G0 Z0.000
; plunge
G1 Z-0.200 F4000
; cut
G1 X116.073 Y184.590 F4000
; Retract
G0 Z5.000

; Path 40
; Rapid to initial position
G0 X114.816 Y188.045
G0 Z0.000
; plunge
G1 Z-0.200 F4000
; cut
G1 X137.469 Y278.282 F4000
; Retract
G0 Z5.000

; Path 41
; Rapid to initial position
G0 X135.865 Y278.980
G0 Z0.000
; plunge
G1 Z-0.200 F4000
; cut
G1 X113.656 Y189.113 F4000
; Retract
G0 Z5.000

; Path 42
; Rapid to initial position
G0 X115.293 Y192.700
G0 Z0.000
; plunge
G1 Z-0.200 F4000
; cut
G1 X97.170 Y124.089 F4000
; Retract
G0 Z5.000

; Path 43
; Rapid to initial position
G0 X100.888 Y126.700
G0 Z0.000
; plunge
G1 Z-0.200 F4000
; cut
G1 X111.770 Y180.963 F4000
; Retract
G0 Z5.000

; Path 44
; Rapid to initial position
G0 X121.948 Y177.719
G0 Z0.000
; plunge
G1 Z-0.200 F4000
; cut
G1 X110.101 Y120.673 F4000
; Retract
G0 Z5.000

; Path 45
; Rapid to initial position
G0 X110.936 Y123.614
G0 Z0.000
; plunge
G1 Z-0.200 F4000
; cut
G1 X99.175 Y67.412 F4000
; Retract
G0 Z5.000

; Path 46
; Rapid to initial position
G0 X99.696 Y70.762
G0 Z0.000
; plunge
G1 Z-0.200 F4000
; cut
G1 X112.128 Y127.240 F4000
; Retract
G0 Z5.000

; Path 47
; Rapid to initial position
G0 X115.141 Y128.836
G0 Z0.000
; plunge
G1 Z-0.200 F4000
; cut
G1 X27.640 Y111.931 F4000
; Retract
G0 Z5.000

; Path 48
; Rapid to initial position
G0 X30.154 Y111.232
G0 Z0.000
; plunge
G1 Z-0.200 F4000
; cut
G1 X118.198 Y127.676 F4000
; Retract
G0 Z5.000

; Path 49
; Rapid to initial position
G0 X117.796 Y129.535
G0 Z0.000
; plunge
G1 Z-0.200 F4000
; cut
G1 X29.948 Y113.276 F4000
; Retract
G0 Z5.000

; Path 50
; Rapid to initial position
G0 X26.924 Y116.454
G0 Z0.000
; plunge
G1 Z-0.200 F4000
; cut
G1 X114.512 Y133.293 F4000
; Retract
G0 Z5.000

; Path 51
; Rapid to initial position
G0 X109.537 Y130.643
G0 Z0.000
; plunge
G1 Z-0.200 F4000
; cut
G1 X98.298 Y74.164 F4000
; Retract
G0 Z5.000

; Path 52
; Rapid to initial position
G0 X101.864 Y76.999
G0 Z0.000
; plunge
G1 Z-0.200 F4000
; cut
G1 X103.630 Y78.937 F4000
G1 X105.126 Y77.434
G1 X106.448 Y75.759
G1 X117.157 Y69.522
; Retract
G0 Z5.000

; Path 53
; Rapid to initial position
G0 X120.886 Y73.267
G0 Z0.000
; plunge
G1 Z-0.200 F4000
; cut
G1 X132.851 Y130.590 F4000
; Retract
G0 Z5.000

; Path 54
; Rapid to initial position
G0 X132.743 Y132.410
G0 Z0.000
; plunge
G1 Z-0.200 F4000
; cut
G1 X120.279 Y75.931 F4000
; Retract
G0 Z5.000

; Path 55
; Rapid to initial position
G0 X120.766 Y77.579
G0 Z0.000
; plunge
G1 Z-0.200 F4000
; cut
G1 X133.827 Y133.174 F4000
; Retract
G0 Z5.000

; Path 56
; Rapid to initial position
G0 X127.757 Y135.720
G0 Z0.000
; plunge
G1 Z-0.200 F4000
; cut
G1 X114.436 Y78.608 F4000
; Retract
G0 Z5.000

; Path 57
; Rapid to initial position
G0 X119.292 Y85.636
G0 Z0.000
; plunge
G1 Z-0.200 F4000
; cut
G1 X130.705 Y142.761 F4000
; Retract
G0 Z5.000

; Path 58
; Rapid to initial position
G0 X123.129 Y137.051
G0 Z0.000
; plunge
G1 Z-0.200 F4000
; cut
G1 X36.907 Y117.733 F4000
; Retract
G0 Z5.000

; Path 59
; Rapid to initial position
G0 X34.479 Y113.869
G0 Z0.000
; plunge
G1 Z-0.200 F4000
; cut
G1 X34.457 Y112.142 F4000
G1 X34.555 Y112.867
G1 X34.685 Y115.412
G1 X9.409 Y54.568
; Retract
G0 Z5.000

; Path 60
; Rapid to initial position
G0 X62.877 Y72.212
G0 Z0.000
; plunge
G1 Z-0.200 F4000
; cut
G1 X63.657 Y71.724 F4000
G1 X63.278 Y72.304
G1 X74.918 Y76.036
; Retract
G0 Z5.000

; Path 61
; Rapid to initial position
G0 X79.276 Y86.414
G0 Z0.000
; plunge
G1 Z-0.200 F4000
; cut
G1 X79.969 Y83.961 F4000
G1 X79.395 Y85.056
G1 X49.686 Y103.293
; Retract
G0 Z5.000

; Path 62
; Rapid to initial position
G0 X39.714 Y111.113
G0 Z0.000
; plunge
G1 Z-0.200 F4000
; cut
G1 X126.749 Y128.533 F4000
; Retract
G0 Z5.000

; Path 63
; Rapid to initial position
G0 X128.440 Y125.724
G0 Z0.000
; plunge
G1 Z-0.200 F4000
; cut
G1 X148.947 Y133.834 F4000
G1 X148.774 Y133.465
G1 X149.597 Y132.080
G1 X152.123 Y132.093
; Retract
G0 Z5.000

; Path 64
; Rapid to initial position
G0 X153.933 Y130.893
G0 Z0.000
; plunge
G1 Z-0.200 F4000
; cut
G1 X186.763 Y157.860 F4000
G1 X185.745 Y156.185
G1 X186.081 Y156.278
G1 X187.836 Y155.882
G1 X189.072 Y156.106
G1 X189.311 Y156.146
G1 X189.506 Y156.172
G1 X190.243 Y153.574
G1 X190.210 Y153.284
G1 X189.733 Y152.519
G1 X191.576 Y152.388
G1 X191.413 Y152.335
G1 X190.860 Y151.807
G1 X191.413 Y151.174
; Retract
G0 Z5.000

; Path 65
; Rapid to initial position
G0 X186.081 Y156.278
G0 Z0.000
; plunge
G1 Z-0.200 F4000
; cut
G1 X111.131 Y151.412 F4000
; Retract
G0 Z5.000

; Path 66
; Rapid to initial position
G0 X107.792 Y138.792
G0 Z0.000
; plunge
G1 Z-0.200 F4000
; cut
G1 X119.433 Y196.300 F4000
; Retract
G0 Z5.000

; Path 67
; Rapid to initial position
G0 X119.617 Y199.609
G0 Z0.000
; plunge
G1 Z-0.200 F4000
; cut
G1 X99.891 Y130.603 F4000
; Retract
G0 Z5.000

; Path 68
; Rapid to initial position
G0 X106.806 Y130.854
G0 Z0.000
; plunge
G1 Z-0.200 F4000
; cut
G1 X119.509 Y189.561 F4000
; Retract
G0 Z5.000

; Path 69
; Rapid to initial position
G0 X119.542 Y192.449
G0 Z0.000
; plunge
G1 Z-0.200 F4000
; cut
G1 X141.577 Y285.191 F4000
; Retract
G0 Z5.000

; Path 70
; Rapid to initial position
G0 X146.573 Y277.570
G0 Z0.000
; plunge
G1 Z-0.200 F4000
; cut
G1 X124.126 Y187.873 F4000
; Retract
G0 Z5.000

; Path 71
; Rapid to initial position
G0 X122.598 Y183.693
G0 Z0.000
; plunge
G1 Z-0.200 F4000
; cut
G1 X143.062 Y274.827 F4000
; Retract
G0 Z5.000

; Path 72
; Rapid to initial position
G0 X133.057 Y274.115
G0 Z0.000
; plunge
G1 Z-0.200 F4000
; cut
G1 X135.008 Y273.337 F4000
G1 X134.857 Y274.286
G1 X136.949 Y275.051
G1 X137.154 Y274.101
G1 X137.187 Y274.497
G1 X137.100 Y275.064
G1 X135.843 Y279.231
G1 X135.865 Y278.980
G1 X135.919 Y278.545
G1 X137.469 Y278.282
G1 X139.062 Y279.482
G1 X139.918 Y277.622
G1 X142.281 Y268.260
G1 X142.162 Y268.233
G1 X144.080 Y269.803
G1 X146.129 Y270.660
G1 X146.942 Y271.570
G1 X146.205 Y274.233
G1 X145.511 Y274.391
G1 X144.514 Y273.719
G1 X144.254 Y273.548
G1 X143.062 Y274.827
G1 X142.932 Y274.945
G1 X141.577 Y285.191
G1 X141.273 Y285.864
G1 X142.693 Y283.715
G1 X143.517 Y283.161
G1 X141.783 Y283.543
G1 X143.430 Y282.449
G1 X144.872 Y281.262
G1 X77.119 Y268.774
G1 X146.573 Y277.570
G1 X146.281 Y276.211
G1 X142.888 Y268.800
G1 X142.270 Y267.838
G1 X143.051 Y267.693
G1 X155.168 Y240.211
G1 X152.329 Y266.453
G1 X151.267 Y265.715
G1 X150.497 Y265.504
G1 X149.153 Y264.726
G1 X148.383 Y266.967
G1 X148.438 Y267.851
G1 X147.679 Y269.539
G1 X146.779 Y268.154
G1 X127.085 Y197.816
; Retract
G0 Z5.000

; Path 73
; Rapid to initial position
G0 X128.072 Y202.220
G0 Z0.000
; plunge
G1 Z-0.200 F4000
; cut
G1 X128.202 Y202.313 F4000
G1 X126.598 Y202.260
G1 X124.907 Y202.247
G1 X118.729 Y207.324
G1 X118.057 Y208.168
G1 X117.601 Y207.007
G1 X118.035 Y204.053
G1 X119.552 Y200.532
G1 X119.617 Y199.609
G1 X119.444 Y197.737
G1 X115.293 Y192.700
G1 X114.469 Y192.489
G1 X116.431 Y192.409
G1 X137.458 Y195.469
; Retract
G0 Z5.000

; Path 74
; Rapid to initial position
G0 X138.087 Y183.456
G0 Z0.000
; plunge
G1 Z-0.200 F4000
; cut
G1 X137.696 Y183.311 F4000
G1 X138.856 Y182.176
G1 X117.276 Y118.827
; Retract
G0 Z5.000

; Path 75
; Rapid to initial position
G0 X104.974 Y135.733
G0 Z0.000
; plunge
G1 Z-0.200 F4000
; cut
G1 X18.524 Y117.245 F4000
; Retract
G0 Z5.000

; Path 76
; Rapid to initial position
G0 X14.026 Y121.597
G0 Z0.000
; plunge
G1 Z-0.200 F4000
; cut
G1 X100.617 Y140.374 F4000
; Retract
G0 Z5.000

; Path 77
; Rapid to initial position
G0 X82.538 Y131.302
G0 Z0.000
; plunge
G1 Z-0.200 F4000
; cut
G1 X82.126 Y130.761 F4000
G1 X81.779 Y133.109
G1 X81.443 Y135.469
G1 X77.119 Y268.774
; Retract
G0 Z5.000

; Path 78
; Rapid to initial position
G0 X70.919 Y255.178
G0 Z0.000
; plunge
G1 Z-0.200 F4000
; cut
G1 X70.605 Y255.693 F4000
G1 X70.897 Y255.798
G1 X70.529 Y256.207
G1 X40.202 Y205.042
; Retract
G0 Z5.000

; Path 79
; Rapid to initial position
G0 X45.274 Y166.642
G0 Z0.000
; plunge
G1 Z-0.200 F4000
; cut
G1 X107.489 Y198.264 F4000
G1 X106.286 Y197.486
G1 X104.833 Y197.091
G1 X103.988 Y197.961
; Retract
G0 Z5.000

; Path 80
; Rapid to initial position
G0 X85.573 Y185.829
G0 Z0.000
; plunge
G1 Z-0.200 F4000
; cut
G1 X85.605 Y185.935 F4000
G1 X84.652 Y183.416
G1 X83.947 Y181.385
G1 X45.307 Y119.750
; Retract
G0 Z5.000

; Path 81
; Rapid to initial position
G0 X56.384 Y90.476
G0 Z0.000
; plunge
G1 Z-0.200 F4000
; cut
G1 X29.916 Y116.032 F4000
G1 X28.431 Y114.990
G1 X29.948 Y113.276
G1 X30.111 Y111.324
G1 X30.154 Y111.232
G1 X29.970 Y109.241
G1 X29.840 Y108.871
G1 X29.255 Y108.423
G1 X30.349 Y107.355
G1 X45.274 Y166.642
G1 X37.763 Y110.388
G1 X40.050 Y110.427
G1 X39.714 Y111.113
G1 X37.221 Y116.599
G1 X36.907 Y117.733
G1 X49.686 Y103.293
G1 X31.921 Y117.746
G1 X30.024 Y117.153
G1 X29.786 Y117.284
G1 X30.284 Y117.271
G1 X26.892 Y117.733
G1 X26.285 Y118.234
G1 X26.924 Y116.454
G1 X26.827 Y114.001
G1 X27.640 Y111.931
G1 X26.968 Y110.744
G1 X25.049 Y110.375
G1 X24.041 Y110.137
G1 X23.890 Y110.124
G1 X23.955 Y110.586
G1 X24.030 Y109.794
G1 X23.976 Y110.190
G1 X22.578 Y110.441
G1 X21.722 Y109.465
G1 X19.186 Y115.399
G1 X18.915 Y116.335
G1 X18.524 Y117.245
G1 X14.557 Y121.029
G1 X14.026 Y121.597
G1 X11.718 Y116.599
G1 X11.154 Y116.375
G1 X11.273 Y116.520
G1 X6.060 Y118.880
G1 X5.735 Y118.656
G1 X3.838 Y118.076
G1 X4.846 Y118.867
; Retract
G0 Z5.000

; Path 82
; Rapid to initial position
G0 X121.113 Y87.588
G0 Z0.000
; plunge
G1 Z-0.200 F4000
; cut
G1 X121.482 Y86.731 F4000
G1 X123.140 Y87.786
G1 X123.259 Y87.944
G1 X126.305 Y88.274
G1 X126.489 Y88.419
G1 X125.091 Y87.047
G1 X124.928 Y87.021
G1 X124.668 Y87.548
G1 X125.134 Y86.652
G1 X125.351 Y86.230
G1 X127.172 Y84.608
G1 X127.562 Y83.975
G1 X128.147 Y82.775
G1 X121.937 Y83.605
; Retract
G0 Z5.000

; Path 83
; Rapid to initial position
G0 X150.183 Y63.456
G0 Z0.000
; plunge
G1 Z-0.200 F4000
; cut
G1 X178.017 Y120.067 F4000
G1 X177.800 Y121.689
G1 X178.125 Y122.968
G1 X177.952 Y121.188
; Retract
G0 Z5.000

; Path 84
; Rapid to initial position
G0 X160.458 Y94.590
G0 Z0.000
; plunge
G1 Z-0.200 F4000
; cut
G1 X161.217 Y94.550 F4000
G1 X160.848 Y95.698
G1 X161.260 Y96.792
G1 X158.008 Y29.474
; Retract
G0 Z5.000

; Path 85
; Rapid to initial position
G0 X146.736 Y36.727
G0 Z0.000
; plunge
G1 Z-0.200 F4000
; cut
G1 X171.004 Y71.751 F4000
G1 X171.459 Y73.399
G1 X172.077 Y75.654
G1 X172.337 Y75.627
; Retract
G0 Z5.000

; Path 86
; Rapid to initial position
G0 X131.724 Y154.484
G0 Z0.000
; plunge
G1 Z-0.200 F4000
; cut
G1 X147.917 Y209.961 F4000
G1 X148.394 Y209.420
G1 X150.725 Y208.866
G1 X149.630 Y208.801
; Retract
G0 Z5.000
M5          ; Switch tool offEnd
