G21         ; Set units to mm
G90         ; Absolute positioning

;
; Operation:    0
; Type:         Mill Cut
; Paths:        238
; Direction:    Conventional
; Rapid Z:      5
; Start Z:      0
; End Z:        -0.2
; Pass Depth:   1
; Plunge rate:  4000 mm/min
; Cut rate:     4000 mm/min
;
; Retract
G0 Z5.000

; Path 0
; Rapid to initial position
G0 X259.171 Y213.956
G0 Z0.000
; plunge
G1 Z-0.200 F4000
; cut
G1 X259.281 Y213.959 F4000
G1 X259.391 Y213.967
G1 X259.501 Y213.979
G1 X259.609 Y213.996
G1 X259.717 Y214.017
G1 X259.823 Y214.042
G1 X259.929 Y214.071
G1 X260.032 Y214.104
G1 X260.135 Y214.141
G1 X260.236 Y214.182
G1 X260.335 Y214.227
G1 X260.432 Y214.276
G1 X260.527 Y214.328
G1 X260.620 Y214.384
G1 X260.711 Y214.444
G1 X260.799 Y214.507
G1 X260.885 Y214.574
G1 X260.969 Y214.644
G1 X261.050 Y214.717
G1 X261.128 Y214.793
G1 X261.203 Y214.873
G1 X261.274 Y214.956
G1 X261.343 Y215.041
G1 X261.408 Y215.130
G1 X261.470 Y215.221
G1 X261.529 Y215.315
G1 X261.583 Y215.412
G1 X261.634 Y215.512
G1 X261.681 Y215.614
G1 X261.724 Y215.719
G1 X261.762 Y215.826
G1 X261.797 Y215.935
G1 X261.826 Y216.047
G1 X261.852 Y216.161
G1 X261.872 Y216.277
G1 X261.888 Y216.396
G1 X261.899 Y216.516
G1 X261.905 Y216.638
G1 X261.905 Y216.758
G1 X261.901 Y216.873
G1 X261.892 Y216.986
G1 X261.878 Y217.099
G1 X261.860 Y217.210
G1 X261.837 Y217.321
G1 X261.810 Y217.430
G1 X261.779 Y217.537
G1 X261.743 Y217.643
G1 X261.703 Y217.747
G1 X261.659 Y217.850
G1 X261.611 Y217.950
G1 X261.559 Y218.048
G1 X261.503 Y218.145
G1 X261.443 Y218.238
G1 X261.379 Y218.330
G1 X261.312 Y218.419
G1 X261.241 Y218.505
G1 X261.166 Y218.588
G1 X261.088 Y218.669
G1 X261.007 Y218.746
G1 X260.922 Y218.820
G1 X260.834 Y218.891
G1 X260.742 Y218.958
G1 X260.648 Y219.022
G1 X260.550 Y219.083
G1 X260.444 Y219.142
G1 X260.335 Y219.197
G1 X260.226 Y219.247
G1 X260.115 Y219.292
G1 X260.004 Y219.331
G1 X259.893 Y219.365
G1 X259.781 Y219.395
G1 X259.669 Y219.419
G1 X259.557 Y219.438
G1 X259.445 Y219.453
G1 X259.333 Y219.462
G1 X259.222 Y219.467
G1 X259.111 Y219.468
G1 X259.000 Y219.464
G1 X258.890 Y219.455
G1 X258.781 Y219.442
G1 X258.672 Y219.425
G1 X258.565 Y219.403
G1 X258.459 Y219.377
G1 X258.354 Y219.347
G1 X258.250 Y219.313
G1 X258.148 Y219.276
G1 X258.048 Y219.234
G1 X257.949 Y219.188
G1 X257.852 Y219.138
G1 X257.758 Y219.085
G1 X257.665 Y219.028
G1 X257.575 Y218.968
G1 X257.487 Y218.904
G1 X257.401 Y218.837
G1 X257.318 Y218.766
G1 X257.238 Y218.693
G1 X257.161 Y218.615
G1 X257.086 Y218.535
G1 X257.015 Y218.452
G1 X256.947 Y218.366
G1 X256.882 Y218.277
G1 X256.821 Y218.185
G1 X256.763 Y218.090
G1 X256.710 Y217.992
G1 X256.660 Y217.892
G1 X256.614 Y217.789
G1 X256.572 Y217.684
G1 X256.534 Y217.577
G1 X256.501 Y217.467
G1 X256.472 Y217.355
G1 X256.447 Y217.240
G1 X256.428 Y217.124
G1 X256.413 Y217.005
G1 X256.403 Y216.884
G1 X256.398 Y216.762
G1 X256.399 Y216.643
G1 X256.404 Y216.529
G1 X256.414 Y216.416
G1 X256.429 Y216.303
G1 X256.448 Y216.192
G1 X256.471 Y216.082
G1 X256.499 Y215.973
G1 X256.532 Y215.866
G1 X256.568 Y215.760
G1 X256.609 Y215.656
G1 X256.654 Y215.554
G1 X256.703 Y215.454
G1 X256.756 Y215.357
G1 X256.812 Y215.261
G1 X256.873 Y215.168
G1 X256.938 Y215.077
G1 X257.006 Y214.988
G1 X257.077 Y214.903
G1 X257.153 Y214.820
G1 X257.231 Y214.740
G1 X257.314 Y214.663
G1 X257.399 Y214.590
G1 X257.488 Y214.520
G1 X257.580 Y214.453
G1 X257.675 Y214.390
G1 X257.773 Y214.330
G1 X257.881 Y214.271
G1 X257.990 Y214.217
G1 X258.100 Y214.168
G1 X258.210 Y214.124
G1 X258.321 Y214.086
G1 X258.433 Y214.053
G1 X258.545 Y214.025
G1 X258.656 Y214.001
G1 X258.769 Y213.983
G1 X258.881 Y213.969
G1 X258.992 Y213.961
G1 X259.104 Y213.957
G1 X259.171 Y213.956
; Retract
G0 Z5.000

; Path 1
; Rapid to initial position
G0 X259.322 Y219.319
G0 Z0.000
; plunge
G1 Z-0.200 F4000
; cut
G1 X259.322 Y232.641 F4000
; Retract
G0 Z5.000

; Path 2
; Rapid to initial position
G0 X247.995 Y233.873
G0 Z0.000
; plunge
G1 Z-0.200 F4000
; cut
G1 X247.995 Y228.542 F4000
; Retract
G0 Z5.000

; Path 3
; Rapid to initial position
G0 X249.409 Y220.212
G0 Z0.000
; plunge
G1 Z-0.200 F4000
; cut
G1 X249.409 Y214.881 F4000
; Retract
G0 Z5.000

; Path 4
; Rapid to initial position
G0 X249.334 Y206.381
G0 Z0.000
; plunge
G1 Z-0.200 F4000
; cut
G1 X262.659 Y206.381 F4000
; Retract
G0 Z5.000

; Path 5
; Rapid to initial position
G0 X265.248 Y219.396
G0 Z0.000
; plunge
G1 Z-0.200 F4000
; cut
G1 X296.633 Y219.396 F4000
; Retract
G0 Z5.000

; Path 6
; Rapid to initial position
G0 X304.825 Y213.472
G0 Z0.000
; plunge
G1 Z-0.200 F4000
; cut
G1 X304.825 Y200.145 F4000
; Retract
G0 Z5.000

; Path 7
; Rapid to initial position
G0 X319.364 Y201.463
G0 Z0.000
; plunge
G1 Z-0.200 F4000
; cut
G1 X319.364 Y258.534 F4000
; Retract
G0 Z5.000

; Path 8
; Rapid to initial position
G0 X330.477 Y277.806
G0 Z0.000
; plunge
G1 Z-0.200 F4000
; cut
G1 X361.863 Y277.806 F4000
; Retract
G0 Z5.000

; Path 9
; Rapid to initial position
G0 X350.749 Y258.534
G0 Z0.000
; plunge
G1 Z-0.200 F4000
; cut
G1 X350.749 Y201.463 F4000
; Retract
G0 Z5.000

; Path 10
; Rapid to initial position
G0 X350.327 Y200.859
G0 Z0.000
; plunge
G1 Z-0.200 F4000
; cut
G1 X337.002 Y200.859 F4000
; Retract
G0 Z5.000

; Path 11
; Rapid to initial position
G0 X305.283 Y173.371
G0 Z0.000
; plunge
G1 Z-0.200 F4000
; cut
G1 X305.283 Y168.041 F4000
; Retract
G0 Z5.000

; Path 12
; Rapid to initial position
G0 X318.198 Y149.641
G0 Z0.000
; plunge
G1 Z-0.200 F4000
; cut
G1 X318.110 Y149.577 F4000
G1 X318.025 Y149.509
G1 X317.942 Y149.439
G1 X317.862 Y149.365
G1 X317.784 Y149.288
G1 X317.710 Y149.208
G1 X317.639 Y149.124
G1 X317.571 Y149.038
G1 X317.506 Y148.949
G1 X317.445 Y148.857
G1 X317.387 Y148.762
G1 X317.334 Y148.665
G1 X317.284 Y148.564
G1 X317.238 Y148.462
G1 X317.196 Y148.357
G1 X317.158 Y148.249
G1 X317.125 Y148.139
G1 X317.096 Y148.027
G1 X317.071 Y147.912
G1 X317.052 Y147.796
G1 X317.037 Y147.677
G1 X317.027 Y147.556
G1 X317.023 Y147.434
G1 X317.023 Y147.315
G1 X317.028 Y147.201
G1 X317.038 Y147.088
G1 X317.053 Y146.975
G1 X317.072 Y146.864
G1 X317.096 Y146.754
G1 X317.124 Y146.645
G1 X317.156 Y146.538
G1 X317.192 Y146.432
G1 X317.233 Y146.328
G1 X317.278 Y146.226
G1 X317.327 Y146.126
G1 X317.380 Y146.028
G1 X317.437 Y145.932
G1 X317.498 Y145.839
G1 X317.562 Y145.748
G1 X317.630 Y145.660
G1 X317.702 Y145.574
G1 X317.777 Y145.491
G1 X317.856 Y145.411
G1 X317.938 Y145.335
G1 X318.024 Y145.261
G1 X318.113 Y145.191
G1 X318.205 Y145.124
G1 X318.300 Y145.061
G1 X318.398 Y145.001
G1 X318.506 Y144.942
G1 X318.615 Y144.888
G1 X318.725 Y144.839
G1 X318.835 Y144.796
G1 X318.946 Y144.757
G1 X319.058 Y144.724
G1 X319.170 Y144.696
G1 X319.282 Y144.673
G1 X319.394 Y144.654
G1 X319.506 Y144.641
G1 X319.617 Y144.632
G1 X319.729 Y144.628
G1 X319.840 Y144.628
G1 X319.951 Y144.633
G1 X320.060 Y144.643
G1 X320.170 Y144.657
G1 X320.278 Y144.675
G1 X320.385 Y144.698
G1 X320.491 Y144.724
G1 X320.595 Y144.755
G1 X320.699 Y144.790
G1 X320.800 Y144.829
G1 X320.900 Y144.871
G1 X320.999 Y144.918
G1 X321.095 Y144.968
G1 X321.189 Y145.022
G1 X321.282 Y145.080
G1 X321.372 Y145.141
G1 X321.459 Y145.205
G1 X321.544 Y145.273
G1 X321.627 Y145.344
G1 X321.706 Y145.419
G1 X321.783 Y145.497
G1 X321.857 Y145.578
G1 X321.927 Y145.661
G1 X321.995 Y145.748
G1 X322.058 Y145.838
G1 X322.119 Y145.931
G1 X322.176 Y146.026
G1 X322.229 Y146.124
G1 X322.278 Y146.225
G1 X322.323 Y146.328
G1 X322.364 Y146.434
G1 X322.401 Y146.542
G1 X322.434 Y146.652
G1 X322.462 Y146.765
G1 X322.485 Y146.880
G1 X322.504 Y146.997
G1 X322.517 Y147.116
G1 X322.526 Y147.237
G1 X322.530 Y147.360
G1 X322.528 Y147.476
G1 X322.522 Y147.590
G1 X322.511 Y147.704
G1 X322.496 Y147.816
G1 X322.476 Y147.927
G1 X322.451 Y148.037
G1 X322.422 Y148.145
G1 X322.389 Y148.252
G1 X322.352 Y148.358
G1 X322.310 Y148.461
G1 X322.264 Y148.563
G1 X322.215 Y148.663
G1 X322.161 Y148.760
G1 X322.103 Y148.855
G1 X322.042 Y148.948
G1 X321.977 Y149.039
G1 X321.908 Y149.127
G1 X321.835 Y149.212
G1 X321.759 Y149.294
G1 X321.680 Y149.373
G1 X321.597 Y149.449
G1 X321.511 Y149.522
G1 X321.421 Y149.592
G1 X321.329 Y149.658
G1 X321.233 Y149.720
G1 X321.133 Y149.780
G1 X321.024 Y149.838
G1 X320.915 Y149.891
G1 X320.805 Y149.939
G1 X320.695 Y149.981
G1 X320.583 Y150.019
G1 X320.472 Y150.051
G1 X320.360 Y150.078
G1 X320.248 Y150.100
G1 X320.136 Y150.118
G1 X320.024 Y150.130
G1 X319.912 Y150.138
G1 X319.801 Y150.141
G1 X319.690 Y150.140
G1 X319.579 Y150.134
G1 X319.470 Y150.123
G1 X319.361 Y150.109
G1 X319.253 Y150.089
G1 X319.146 Y150.066
G1 X319.040 Y150.039
G1 X318.936 Y150.007
G1 X318.833 Y149.971
G1 X318.732 Y149.932
G1 X318.632 Y149.888
G1 X318.534 Y149.841
G1 X318.438 Y149.790
G1 X318.344 Y149.735
G1 X318.252 Y149.677
G1 X318.198 Y149.641
; Retract
G0 Z5.000

; Path 13
; Rapid to initial position
G0 X317.575 Y145.212
G0 Z0.000
; plunge
G1 Z-0.200 F4000
; cut
G1 X317.575 Y131.887 F4000
; Retract
G0 Z5.000

; Path 14
; Rapid to initial position
G0 X306.059 Y124.590
G0 Z0.000
; plunge
G1 Z-0.200 F4000
; cut
G1 X300.728 Y124.590 F4000
; Retract
G0 Z5.000

; Path 15
; Rapid to initial position
G0 X298.403 Y116.500
G0 Z0.000
; plunge
G1 Z-0.200 F4000
; cut
G1 X303.733 Y116.500 F4000
; Retract
G0 Z5.000

; Path 16
; Rapid to initial position
G0 X301.018 Y111.220
G0 Z0.000
; plunge
G1 Z-0.200 F4000
; cut
G1 X301.018 Y97.895 F4000
; Retract
G0 Z5.000

; Path 17
; Rapid to initial position
G0 X294.090 Y90.748
G0 Z0.000
; plunge
G1 Z-0.200 F4000
; cut
G1 X288.760 Y90.748 F4000
; Retract
G0 Z5.000

; Path 18
; Rapid to initial position
G0 X286.078 Y96.289
G0 Z0.000
; plunge
G1 Z-0.200 F4000
; cut
G1 X280.748 Y96.289 F4000
; Retract
G0 Z5.000

; Path 19
; Rapid to initial position
G0 X276.378 Y94.557
G0 Z0.000
; plunge
G1 Z-0.200 F4000
; cut
G1 X271.048 Y94.557 F4000
; Retract
G0 Z5.000

; Path 20
; Rapid to initial position
G0 X261.345 Y107.244
G0 Z0.000
; plunge
G1 Z-0.200 F4000
; cut
G1 X261.345 Y120.569 F4000
; Retract
G0 Z5.000

; Path 21
; Rapid to initial position
G0 X259.263 Y119.156
G0 Z0.000
; plunge
G1 Z-0.200 F4000
; cut
G1 X259.263 Y105.834 F4000
; Retract
G0 Z5.000

; Path 22
; Rapid to initial position
G0 X258.777 Y107.498
G0 Z0.000
; plunge
G1 Z-0.200 F4000
; cut
G1 X245.452 Y107.498 F4000
; Retract
G0 Z5.000

; Path 23
; Rapid to initial position
G0 X240.635 Y113.111
G0 Z0.000
; plunge
G1 Z-0.200 F4000
; cut
G1 X240.635 Y126.433 F4000
; Retract
G0 Z5.000

; Path 24
; Rapid to initial position
G0 X248.294 Y140.461
G0 Z0.000
; plunge
G1 Z-0.200 F4000
; cut
G1 X253.624 Y140.461 F4000
; Retract
G0 Z5.000

; Path 25
; Rapid to initial position
G0 X257.091 Y143.663
G0 Z0.000
; plunge
G1 Z-0.200 F4000
; cut
G1 X257.091 Y130.337 F4000
; Retract
G0 Z5.000

; Path 26
; Rapid to initial position
G0 X255.625 Y146.714
G0 Z0.000
; plunge
G1 Z-0.200 F4000
; cut
G1 X255.625 Y160.040 F4000
; Retract
G0 Z5.000

; Path 27
; Rapid to initial position
G0 X269.454 Y156.300
G0 Z0.000
; plunge
G1 Z-0.200 F4000
; cut
G1 X274.784 Y156.300 F4000
; Retract
G0 Z5.000

; Path 28
; Rapid to initial position
G0 X271.168 Y159.851
G0 Z0.000
; plunge
G1 Z-0.200 F4000
; cut
G1 X271.168 Y139.863 F4000
; Retract
G0 Z5.000

; Path 29
; Rapid to initial position
G0 X275.830 Y113.331
G0 Z0.000
; plunge
G1 Z-0.200 F4000
; cut
G1 X281.161 Y113.331 F4000
; Retract
G0 Z5.000

; Path 30
; Rapid to initial position
G0 X248.691 Y96.566
G0 Z0.000
; plunge
G1 Z-0.200 F4000
; cut
G1 X248.833 Y83.241 F4000
; Retract
G0 Z5.000

; Path 31
; Rapid to initial position
G0 X248.566 Y81.152
G0 Z0.000
; plunge
G1 Z-0.200 F4000
; cut
G1 X248.566 Y94.478 F4000
; Retract
G0 Z5.000

; Path 32
; Rapid to initial position
G0 X248.790 Y90.971
G0 Z0.000
; plunge
G1 Z-0.200 F4000
; cut
G1 X248.790 Y77.644 F4000
; Retract
G0 Z5.000

; Path 33
; Rapid to initial position
G0 X250.035 Y86.685
G0 Z0.000
; plunge
G1 Z-0.200 F4000
; cut
G1 X255.365 Y86.685 F4000
; Retract
G0 Z5.000

; Path 34
; Rapid to initial position
G0 X249.482 Y88.086
G0 Z0.000
; plunge
G1 Z-0.200 F4000
; cut
G1 X244.152 Y88.086 F4000
; Retract
G0 Z5.000

; Path 35
; Rapid to initial position
G0 X238.968 Y75.870
G0 Z0.000
; plunge
G1 Z-0.200 F4000
; cut
G1 X238.968 Y69.204 F4000
; Retract
G0 Z5.000

; Path 36
; Rapid to initial position
G0 X234.376 Y58.333
G0 Z0.000
; plunge
G1 Z-0.200 F4000
; cut
G1 X229.046 Y58.333 F4000
; Retract
G0 Z5.000

; Path 37
; Rapid to initial position
G0 X230.911 Y48.091
G0 Z0.000
; plunge
G1 Z-0.200 F4000
; cut
G1 X236.241 Y48.091 F4000
; Retract
G0 Z5.000

; Path 38
; Rapid to initial position
G0 X213.386 Y52.752
G0 Z0.000
; plunge
G1 Z-0.200 F4000
; cut
G1 X213.386 Y39.427 F4000
; Retract
G0 Z5.000

; Path 39
; Rapid to initial position
G0 X208.075 Y47.258
G0 Z0.000
; plunge
G1 Z-0.200 F4000
; cut
G1 X208.075 Y60.580 F4000
; Retract
G0 Z5.000

; Path 40
; Rapid to initial position
G0 X187.506 Y57.463
G0 Z0.000
; plunge
G1 Z-0.200 F4000
; cut
G1 X174.180 Y57.463 F4000
; Retract
G0 Z5.000

; Path 41
; Rapid to initial position
G0 X181.450 Y61.195
G0 Z0.000
; plunge
G1 Z-0.200 F4000
; cut
G1 X186.781 Y61.195 F4000
; Retract
G0 Z5.000

; Path 42
; Rapid to initial position
G0 X182.365 Y82.099
G0 Z0.000
; plunge
G1 Z-0.200 F4000
; cut
G1 X169.039 Y82.099 F4000
; Retract
G0 Z5.000

; Path 43
; Rapid to initial position
G0 X168.074 Y82.066
G0 Z0.000
; plunge
G1 Z-0.200 F4000
; cut
G1 X172.355 Y82.066 F4000
; Retract
G0 Z5.000

; Path 44
; Rapid to initial position
G0 X167.211 Y88.994
G0 Z0.000
; plunge
G1 Z-0.200 F4000
; cut
G1 X167.211 Y93.275 F4000
; Retract
G0 Z5.000

; Path 45
; Rapid to initial position
G0 X164.555 Y88.949
G0 Z0.000
; plunge
G1 Z-0.200 F4000
; cut
G1 X164.555 Y99.651 F4000
; Retract
G0 Z5.000

; Path 46
; Rapid to initial position
G0 X157.731 Y96.704
G0 Z0.000
; plunge
G1 Z-0.200 F4000
; cut
G1 X157.731 Y86.002 F4000
; Retract
G0 Z5.000

; Path 47
; Rapid to initial position
G0 X155.668 Y81.860
G0 Z0.000
; plunge
G1 Z-0.200 F4000
; cut
G1 X151.387 Y81.860 F4000
; Retract
G0 Z5.000

; Path 48
; Rapid to initial position
G0 X147.002 Y80.979
G0 Z0.000
; plunge
G1 Z-0.200 F4000
; cut
G1 X147.002 Y91.681 F4000
; Retract
G0 Z5.000

; Path 49
; Rapid to initial position
G0 X150.861 Y90.524
G0 Z0.000
; plunge
G1 Z-0.200 F4000
; cut
G1 X160.491 Y90.524 F4000
; Retract
G0 Z5.000

; Path 50
; Rapid to initial position
G0 X145.673 Y86.954
G0 Z0.000
; plunge
G1 Z-0.200 F4000
; cut
G1 X145.673 Y81.623 F4000
; Retract
G0 Z5.000

; Path 51
; Rapid to initial position
G0 X143.997 Y94.925
G0 Z0.000
; plunge
G1 Z-0.200 F4000
; cut
G1 X143.997 Y108.252 F4000
; Retract
G0 Z5.000

; Path 52
; Rapid to initial position
G0 X150.132 Y113.490
G0 Z0.000
; plunge
G1 Z-0.200 F4000
; cut
G1 X150.132 Y124.188 F4000
; Retract
G0 Z5.000

; Path 53
; Rapid to initial position
G0 X146.694 Y123.627
G0 Z0.000
; plunge
G1 Z-0.200 F4000
; cut
G1 X142.413 Y123.627 F4000
; Retract
G0 Z5.000

; Path 54
; Rapid to initial position
G0 X129.777 Y127.610
G0 Z0.000
; plunge
G1 Z-0.200 F4000
; cut
G1 X129.777 Y131.891 F4000
; Retract
G0 Z5.000

; Path 55
; Rapid to initial position
G0 X131.412 Y133.256
G0 Z0.000
; plunge
G1 Z-0.200 F4000
; cut
G1 X127.131 Y133.256 F4000
; Retract
G0 Z5.000

; Path 56
; Rapid to initial position
G0 X119.453 Y133.617
G0 Z0.000
; plunge
G1 Z-0.200 F4000
; cut
G1 X114.123 Y133.617 F4000
; Retract
G0 Z5.000

; Path 57
; Rapid to initial position
G0 X120.608 Y141.520
G0 Z0.000
; plunge
G1 Z-0.200 F4000
; cut
G1 X124.889 Y141.520 F4000
; Retract
G0 Z5.000

; Path 58
; Rapid to initial position
G0 X119.551 Y148.782
G0 Z0.000
; plunge
G1 Z-0.200 F4000
; cut
G1 X119.551 Y153.062 F4000
; Retract
G0 Z5.000

; Path 59
; Rapid to initial position
G0 X119.963 Y154.173
G0 Z0.000
; plunge
G1 Z-0.200 F4000
; cut
G1 X124.243 Y154.173 F4000
; Retract
G0 Z5.000

; Path 60
; Rapid to initial position
G0 X119.862 Y154.474
G0 Z0.000
; plunge
G1 Z-0.200 F4000
; cut
G1 X119.862 Y167.801 F4000
; Retract
G0 Z5.000

; Path 61
; Rapid to initial position
G0 X117.850 Y171.273
G0 Z0.000
; plunge
G1 Z-0.200 F4000
; cut
G1 X117.850 Y160.571 F4000
; Retract
G0 Z5.000

; Path 62
; Rapid to initial position
G0 X110.636 Y154.952
G0 Z0.000
; plunge
G1 Z-0.200 F4000
; cut
G1 X110.636 Y144.250 F4000
; Retract
G0 Z5.000

; Path 63
; Rapid to initial position
G0 X114.740 Y150.102
G0 Z0.000
; plunge
G1 Z-0.200 F4000
; cut
G1 X104.039 Y150.102 F4000
; Retract
G0 Z5.000

; Path 64
; Rapid to initial position
G0 X105.671 Y152.534
G0 Z0.000
; plunge
G1 Z-0.200 F4000
; cut
G1 X101.391 Y152.534 F4000
; Retract
G0 Z5.000

; Path 65
; Rapid to initial position
G0 X99.187 Y147.563
G0 Z0.000
; plunge
G1 Z-0.200 F4000
; cut
G1 X99.187 Y158.265 F4000
; Retract
G0 Z5.000

; Path 66
; Rapid to initial position
G0 X95.169 Y158.431
G0 Z0.000
; plunge
G1 Z-0.200 F4000
; cut
G1 X95.169 Y153.080 F4000
; Retract
G0 Z5.000

; Path 67
; Rapid to initial position
G0 X97.123 Y145.268
G0 Z0.000
; plunge
G1 Z-0.200 F4000
; cut
G1 X86.422 Y145.268 F4000
; Retract
G0 Z5.000

; Path 68
; Rapid to initial position
G0 X78.417 Y136.862
G0 Z0.000
; plunge
G1 Z-0.200 F4000
; cut
G1 X67.716 Y136.862 F4000
; Retract
G0 Z5.000

; Path 69
; Rapid to initial position
G0 X62.613 Y143.127
G0 Z0.000
; plunge
G1 Z-0.200 F4000
; cut
G1 X62.693 Y143.196 F4000
G1 X62.769 Y143.268
G1 X62.842 Y143.344
G1 X62.912 Y143.423
G1 X62.978 Y143.506
G1 X63.040 Y143.592
G1 X63.097 Y143.682
G1 X63.151 Y143.774
G1 X63.200 Y143.870
G1 X63.245 Y143.969
G1 X63.285 Y144.070
G1 X63.320 Y144.175
G1 X63.350 Y144.282
G1 X63.375 Y144.392
G1 X63.394 Y144.504
G1 X63.408 Y144.618
G1 X63.416 Y144.735
G1 X63.418 Y144.852
G1 X63.414 Y144.963
G1 X63.405 Y145.073
G1 X63.390 Y145.181
G1 X63.371 Y145.288
G1 X63.346 Y145.394
G1 X63.316 Y145.497
G1 X63.281 Y145.600
G1 X63.241 Y145.700
G1 X63.197 Y145.797
G1 X63.148 Y145.893
G1 X63.094 Y145.986
G1 X63.036 Y146.076
G1 X62.973 Y146.164
G1 X62.907 Y146.248
G1 X62.836 Y146.329
G1 X62.761 Y146.407
G1 X62.682 Y146.481
G1 X62.599 Y146.552
G1 X62.512 Y146.619
G1 X62.422 Y146.681
G1 X62.328 Y146.740
G1 X62.225 Y146.797
G1 X62.120 Y146.848
G1 X62.014 Y146.894
G1 X61.907 Y146.933
G1 X61.800 Y146.967
G1 X61.692 Y146.994
G1 X61.584 Y147.016
G1 X61.476 Y147.032
G1 X61.368 Y147.043
G1 X61.261 Y147.048
G1 X61.154 Y147.048
G1 X61.047 Y147.043
G1 X60.942 Y147.032
G1 X60.837 Y147.017
G1 X60.734 Y146.996
G1 X60.631 Y146.971
G1 X60.531 Y146.941
G1 X60.432 Y146.906
G1 X60.334 Y146.867
G1 X60.239 Y146.823
G1 X60.146 Y146.775
G1 X60.055 Y146.723
G1 X59.967 Y146.666
G1 X59.882 Y146.605
G1 X59.799 Y146.541
G1 X59.719 Y146.472
G1 X59.643 Y146.400
G1 X59.570 Y146.324
G1 X59.500 Y146.245
G1 X59.435 Y146.162
G1 X59.373 Y146.076
G1 X59.315 Y145.986
G1 X59.261 Y145.894
G1 X59.212 Y145.798
G1 X59.167 Y145.699
G1 X59.127 Y145.598
G1 X59.092 Y145.493
G1 X59.062 Y145.386
G1 X59.038 Y145.276
G1 X59.018 Y145.164
G1 X59.005 Y145.050
G1 X58.997 Y144.933
G1 X58.995 Y144.815
G1 X58.998 Y144.705
G1 X59.008 Y144.595
G1 X59.022 Y144.487
G1 X59.042 Y144.380
G1 X59.067 Y144.274
G1 X59.097 Y144.171
G1 X59.131 Y144.068
G1 X59.171 Y143.968
G1 X59.216 Y143.871
G1 X59.265 Y143.775
G1 X59.318 Y143.682
G1 X59.377 Y143.592
G1 X59.439 Y143.504
G1 X59.506 Y143.420
G1 X59.577 Y143.339
G1 X59.652 Y143.261
G1 X59.731 Y143.187
G1 X59.814 Y143.116
G1 X59.900 Y143.049
G1 X59.991 Y142.987
G1 X60.084 Y142.928
G1 X60.187 Y142.871
G1 X60.292 Y142.820
G1 X60.398 Y142.774
G1 X60.505 Y142.735
G1 X60.612 Y142.701
G1 X60.720 Y142.674
G1 X60.828 Y142.652
G1 X60.936 Y142.636
G1 X61.044 Y142.625
G1 X61.151 Y142.620
G1 X61.259 Y142.620
G1 X61.365 Y142.625
G1 X61.471 Y142.636
G1 X61.575 Y142.651
G1 X61.679 Y142.672
G1 X61.781 Y142.697
G1 X61.882 Y142.727
G1 X61.981 Y142.762
G1 X62.078 Y142.801
G1 X62.173 Y142.845
G1 X62.266 Y142.893
G1 X62.357 Y142.945
G1 X62.445 Y143.002
G1 X62.531 Y143.063
G1 X62.613 Y143.127
; Retract
G0 Z5.000

; Path 70
; Rapid to initial position
G0 X62.464 Y145.457
G0 Z0.000
; plunge
G1 Z-0.200 F4000
; cut
G1 X58.183 Y145.457 F4000
; Retract
G0 Z5.000

; Path 71
; Rapid to initial position
G0 X55.251 Y138.147
G0 Z0.000
; plunge
G1 Z-0.200 F4000
; cut
G1 X55.251 Y55.339 F4000
; Retract
G0 Z5.000

; Path 72
; Rapid to initial position
G0 X53.231 Y82.150
G0 Z0.000
; plunge
G1 Z-0.200 F4000
; cut
G1 X48.950 Y82.150 F4000
; Retract
G0 Z5.000

; Path 73
; Rapid to initial position
G0 X56.822 Y92.459
G0 Z0.000
; plunge
G1 Z-0.200 F4000
; cut
G1 X67.523 Y92.459 F4000
; Retract
G0 Z5.000

; Path 74
; Rapid to initial position
G0 X64.324 Y90.624
G0 Z0.000
; plunge
G1 Z-0.200 F4000
; cut
G1 X64.324 Y95.977 F4000
; Retract
G0 Z5.000

; Path 75
; Rapid to initial position
G0 X57.181 Y94.306
G0 Z0.000
; plunge
G1 Z-0.200 F4000
; cut
G1 X57.181 Y98.586 F4000
; Retract
G0 Z5.000

; Path 76
; Rapid to initial position
G0 X67.992 Y105.445
G0 Z0.000
; plunge
G1 Z-0.200 F4000
; cut
G1 X67.992 Y121.497 F4000
; Retract
G0 Z5.000

; Path 77
; Rapid to initial position
G0 X70.037 Y127.707
G0 Z0.000
; plunge
G1 Z-0.200 F4000
; cut
G1 X74.317 Y127.707 F4000
; Retract
G0 Z5.000

; Path 78
; Rapid to initial position
G0 X80.512 Y129.893
G0 Z0.000
; plunge
G1 Z-0.200 F4000
; cut
G1 X80.512 Y134.059 F4000
; Retract
G0 Z5.000

; Path 79
; Rapid to initial position
G0 X94.487 Y126.957
G0 Z0.000
; plunge
G1 Z-0.200 F4000
; cut
G1 X94.487 Y122.677 F4000
; Retract
G0 Z5.000

; Path 80
; Rapid to initial position
G0 X103.074 Y134.486
G0 Z0.000
; plunge
G1 Z-0.200 F4000
; cut
G1 X103.074 Y138.766 F4000
; Retract
G0 Z5.000

; Path 81
; Rapid to initial position
G0 X112.960 Y118.826
G0 Z0.000
; plunge
G1 Z-0.200 F4000
; cut
G1 X112.960 Y114.546 F4000
; Retract
G0 Z5.000

; Path 82
; Rapid to initial position
G0 X113.484 Y108.590
G0 Z0.000
; plunge
G1 Z-0.200 F4000
; cut
G1 X118.671 Y108.590 F4000
; Retract
G0 Z5.000

; Path 83
; Rapid to initial position
G0 X105.531 Y94.038
G0 Z0.000
; plunge
G1 Z-0.200 F4000
; cut
G1 X105.449 Y94.109 F4000
G1 X105.363 Y94.176
G1 X105.273 Y94.239
G1 X105.180 Y94.299
G1 X105.079 Y94.356
G1 X104.974 Y94.408
G1 X104.868 Y94.455
G1 X104.761 Y94.495
G1 X104.654 Y94.530
G1 X104.546 Y94.558
G1 X104.438 Y94.581
G1 X104.331 Y94.598
G1 X104.223 Y94.610
G1 X104.115 Y94.616
G1 X104.008 Y94.617
G1 X103.901 Y94.612
G1 X103.795 Y94.603
G1 X103.691 Y94.588
G1 X103.587 Y94.568
G1 X103.484 Y94.544
G1 X103.383 Y94.514
G1 X103.284 Y94.480
G1 X103.187 Y94.442
G1 X103.091 Y94.399
G1 X102.998 Y94.351
G1 X102.907 Y94.300
G1 X102.818 Y94.244
G1 X102.732 Y94.184
G1 X102.649 Y94.120
G1 X102.569 Y94.052
G1 X102.492 Y93.981
G1 X102.418 Y93.906
G1 X102.348 Y93.827
G1 X102.282 Y93.744
G1 X102.219 Y93.659
G1 X102.160 Y93.570
G1 X102.106 Y93.478
G1 X102.056 Y93.382
G1 X102.011 Y93.284
G1 X101.970 Y93.183
G1 X101.934 Y93.079
G1 X101.903 Y92.972
G1 X101.878 Y92.863
G1 X101.857 Y92.751
G1 X101.843 Y92.637
G1 X101.834 Y92.521
G1 X101.831 Y92.402
G1 X101.834 Y92.292
G1 X101.842 Y92.182
G1 X101.855 Y92.073
G1 X101.874 Y91.966
G1 X101.898 Y91.860
G1 X101.927 Y91.756
G1 X101.961 Y91.654
G1 X102.000 Y91.553
G1 X102.044 Y91.455
G1 X102.092 Y91.359
G1 X102.145 Y91.266
G1 X102.203 Y91.175
G1 X102.265 Y91.087
G1 X102.331 Y91.002
G1 X102.401 Y90.920
G1 X102.475 Y90.842
G1 X102.554 Y90.767
G1 X102.636 Y90.696
G1 X102.722 Y90.628
G1 X102.811 Y90.565
G1 X102.905 Y90.506
G1 X103.006 Y90.448
G1 X103.111 Y90.396
G1 X103.217 Y90.349
G1 X103.324 Y90.309
G1 X103.431 Y90.275
G1 X103.538 Y90.246
G1 X103.646 Y90.223
G1 X103.754 Y90.206
G1 X103.862 Y90.195
G1 X103.970 Y90.188
G1 X104.077 Y90.188
G1 X104.184 Y90.192
G1 X104.289 Y90.202
G1 X104.394 Y90.217
G1 X104.498 Y90.236
G1 X104.600 Y90.261
G1 X104.701 Y90.290
G1 X104.801 Y90.324
G1 X104.898 Y90.363
G1 X104.994 Y90.406
G1 X105.087 Y90.453
G1 X105.178 Y90.505
G1 X105.267 Y90.560
G1 X105.353 Y90.620
G1 X105.436 Y90.684
G1 X105.516 Y90.752
G1 X105.593 Y90.824
G1 X105.667 Y90.899
G1 X105.737 Y90.978
G1 X105.803 Y91.060
G1 X105.866 Y91.146
G1 X105.924 Y91.235
G1 X105.979 Y91.327
G1 X106.029 Y91.422
G1 X106.074 Y91.520
G1 X106.115 Y91.621
G1 X106.151 Y91.725
G1 X106.182 Y91.832
G1 X106.207 Y91.941
G1 X106.227 Y92.053
G1 X106.242 Y92.167
G1 X106.251 Y92.284
G1 X106.254 Y92.402
G1 X106.251 Y92.513
G1 X106.243 Y92.623
G1 X106.229 Y92.731
G1 X106.210 Y92.838
G1 X106.186 Y92.944
G1 X106.157 Y93.048
G1 X106.123 Y93.151
G1 X106.084 Y93.251
G1 X106.041 Y93.349
G1 X105.992 Y93.445
G1 X105.939 Y93.539
G1 X105.882 Y93.630
G1 X105.820 Y93.717
G1 X105.754 Y93.802
G1 X105.684 Y93.884
G1 X105.610 Y93.963
G1 X105.531 Y94.038
; Retract
G0 Z5.000

; Path 84
; Rapid to initial position
G0 X85.675 Y99.112
G0 Z0.000
; plunge
G1 Z-0.200 F4000
; cut
G1 X74.974 Y99.112 F4000
; Retract
G0 Z5.000

; Path 85
; Rapid to initial position
G0 X76.152 Y83.497
G0 Z0.000
; plunge
G1 Z-0.200 F4000
; cut
G1 X65.452 Y83.497 F4000
; Retract
G0 Z5.000

; Path 86
; Rapid to initial position
G0 X37.892 Y105.820
G0 Z0.000
; plunge
G1 Z-0.200 F4000
; cut
G1 X37.892 Y110.100 F4000
; Retract
G0 Z5.000

; Path 87
; Rapid to initial position
G0 X31.350 Y120.856
G0 Z0.000
; plunge
G1 Z-0.200 F4000
; cut
G1 X172.001 Y120.856 F4000
; Retract
G0 Z5.000

; Path 88
; Rapid to initial position
G0 X172.803 Y134.992
G0 Z0.000
; plunge
G1 Z-0.200 F4000
; cut
G1 X172.803 Y145.694 F4000
; Retract
G0 Z5.000

; Path 89
; Rapid to initial position
G0 X176.733 Y143.828
G0 Z0.000
; plunge
G1 Z-0.200 F4000
; cut
G1 X166.032 Y143.828 F4000
; Retract
G0 Z5.000

; Path 90
; Rapid to initial position
G0 X160.451 Y149.112
G0 Z0.000
; plunge
G1 Z-0.200 F4000
; cut
G1 X160.451 Y154.442 F4000
; Retract
G0 Z5.000

; Path 91
; Rapid to initial position
G0 X171.046 Y150.964
G0 Z0.000
; plunge
G1 Z-0.200 F4000
; cut
G1 X171.046 Y161.666 F4000
; Retract
G0 Z5.000

; Path 92
; Rapid to initial position
G0 X162.749 Y173.960
G0 Z0.000
; plunge
G1 Z-0.200 F4000
; cut
G1 X162.749 Y179.291 F4000
; Retract
G0 Z5.000

; Path 93
; Rapid to initial position
G0 X163.214 Y180.670
G0 Z0.000
; plunge
G1 Z-0.200 F4000
; cut
G1 X163.214 Y176.390 F4000
; Retract
G0 Z5.000

; Path 94
; Rapid to initial position
G0 X162.047 Y174.441
G0 Z0.000
; plunge
G1 Z-0.200 F4000
; cut
G1 X150.054 Y174.441 F4000
; Retract
G0 Z5.000

; Path 95
; Rapid to initial position
G0 X156.257 Y185.125
G0 Z0.000
; plunge
G1 Z-0.200 F4000
; cut
G1 X166.957 Y185.125 F4000
; Retract
G0 Z5.000

; Path 96
; Rapid to initial position
G0 X164.537 Y188.894
G0 Z0.000
; plunge
G1 Z-0.200 F4000
; cut
G1 X164.537 Y199.592 F4000
; Retract
G0 Z5.000

; Path 97
; Rapid to initial position
G0 X162.123 Y196.082
G0 Z0.000
; plunge
G1 Z-0.200 F4000
; cut
G1 X167.453 Y196.082 F4000
; Retract
G0 Z5.000

; Path 98
; Rapid to initial position
G0 X172.646 Y198.018
G0 Z0.000
; plunge
G1 Z-0.200 F4000
; cut
G1 X172.646 Y208.720 F4000
; Retract
G0 Z5.000

; Path 99
; Rapid to initial position
G0 X164.399 Y214.950
G0 Z0.000
; plunge
G1 Z-0.200 F4000
; cut
G1 X159.068 Y214.950 F4000
; Retract
G0 Z5.000

; Path 100
; Rapid to initial position
G0 X151.768 Y210.294
G0 Z0.000
; plunge
G1 Z-0.200 F4000
; cut
G1 X151.768 Y199.592 F4000
; Retract
G0 Z5.000

; Path 101
; Rapid to initial position
G0 X153.531 Y191.661
G0 Z0.000
; plunge
G1 Z-0.200 F4000
; cut
G1 X157.812 Y191.661 F4000
; Retract
G0 Z5.000

; Path 102
; Rapid to initial position
G0 X160.246 Y191.760
G0 Z0.000
; plunge
G1 Z-0.200 F4000
; cut
G1 X149.545 Y191.760 F4000
; Retract
G0 Z5.000

; Path 103
; Rapid to initial position
G0 X144.382 Y191.154
G0 Z0.000
; plunge
G1 Z-0.200 F4000
; cut
G1 X155.083 Y191.154 F4000
; Retract
G0 Z5.000

; Path 104
; Rapid to initial position
G0 X139.119 Y213.361
G0 Z0.000
; plunge
G1 Z-0.200 F4000
; cut
G1 X133.789 Y213.361 F4000
; Retract
G0 Z5.000

; Path 105
; Rapid to initial position
G0 X126.289 Y210.271
G0 Z0.000
; plunge
G1 Z-0.200 F4000
; cut
G1 X115.589 Y210.271 F4000
; Retract
G0 Z5.000

; Path 106
; Rapid to initial position
G0 X124.408 Y205.243
G0 Z0.000
; plunge
G1 Z-0.200 F4000
; cut
G1 X129.738 Y205.243 F4000
; Retract
G0 Z5.000

; Path 107
; Rapid to initial position
G0 X122.426 Y199.797
G0 Z0.000
; plunge
G1 Z-0.200 F4000
; cut
G1 X122.426 Y195.517 F4000
; Retract
G0 Z5.000

; Path 108
; Rapid to initial position
G0 X121.763 Y190.231
G0 Z0.000
; plunge
G1 Z-0.200 F4000
; cut
G1 X108.438 Y190.231 F4000
; Retract
G0 Z5.000

; Path 109
; Rapid to initial position
G0 X105.879 Y191.040
G0 Z0.000
; plunge
G1 Z-0.200 F4000
; cut
G1 X105.879 Y201.742 F4000
; Retract
G0 Z5.000

; Path 110
; Rapid to initial position
G0 X103.108 Y195.757
G0 Z0.000
; plunge
G1 Z-0.200 F4000
; cut
G1 X98.828 Y195.757 F4000
; Retract
G0 Z5.000

; Path 111
; Rapid to initial position
G0 X101.952 Y195.375
G0 Z0.000
; plunge
G1 Z-0.200 F4000
; cut
G1 X112.653 Y195.375 F4000
; Retract
G0 Z5.000

; Path 112
; Rapid to initial position
G0 X112.434 Y189.258
G0 Z0.000
; plunge
G1 Z-0.200 F4000
; cut
G1 X123.135 Y189.258 F4000
; Retract
G0 Z5.000

; Path 113
; Rapid to initial position
G0 X121.556 Y188.884
G0 Z0.000
; plunge
G1 Z-0.200 F4000
; cut
G1 X121.556 Y175.558 F4000
; Retract
G0 Z5.000

; Path 114
; Rapid to initial position
G0 X111.878 Y170.603
G0 Z0.000
; plunge
G1 Z-0.200 F4000
; cut
G1 X111.878 Y181.302 F4000
; Retract
G0 Z5.000

; Path 115
; Rapid to initial position
G0 X110.849 Y181.391
G0 Z0.000
; plunge
G1 Z-0.200 F4000
; cut
G1 X110.849 Y170.692 F4000
; Retract
G0 Z5.000

; Path 116
; Rapid to initial position
G0 X97.479 Y165.994
G0 Z0.000
; plunge
G1 Z-0.200 F4000
; cut
G1 X97.479 Y176.692 F4000
; Retract
G0 Z5.000

; Path 117
; Rapid to initial position
G0 X94.603 Y178.451
G0 Z0.000
; plunge
G1 Z-0.200 F4000
; cut
G1 X94.603 Y194.503 F4000
; Retract
G0 Z5.000

; Path 118
; Rapid to initial position
G0 X98.766 Y192.501
G0 Z0.000
; plunge
G1 Z-0.200 F4000
; cut
G1 X88.065 Y192.501 F4000
; Retract
G0 Z5.000

; Path 119
; Rapid to initial position
G0 X76.429 Y192.189
G0 Z0.000
; plunge
G1 Z-0.200 F4000
; cut
G1 X76.429 Y187.908 F4000
; Retract
G0 Z5.000

; Path 120
; Rapid to initial position
G0 X75.358 Y195.541
G0 Z0.000
; plunge
G1 Z-0.200 F4000
; cut
G1 X75.358 Y206.243 F4000
; Retract
G0 Z5.000

; Path 121
; Rapid to initial position
G0 X74.787 Y204.351
G0 Z0.000
; plunge
G1 Z-0.200 F4000
; cut
G1 X64.086 Y204.351 F4000
; Retract
G0 Z5.000

; Path 122
; Rapid to initial position
G0 X65.337 Y201.808
G0 Z0.000
; plunge
G1 Z-0.200 F4000
; cut
G1 X76.038 Y201.923 F4000
; Retract
G0 Z5.000

; Path 123
; Rapid to initial position
G0 X78.607 Y178.952
G0 Z0.000
; plunge
G1 Z-0.200 F4000
; cut
G1 X78.607 Y174.672 F4000
; Retract
G0 Z5.000

; Path 124
; Rapid to initial position
G0 X71.808 Y177.887
G0 Z0.000
; plunge
G1 Z-0.200 F4000
; cut
G1 X71.808 Y167.189 F4000
; Retract
G0 Z5.000

; Path 125
; Rapid to initial position
G0 X69.920 Y168.416
G0 Z0.000
; plunge
G1 Z-0.200 F4000
; cut
G1 X65.640 Y168.416 F4000
; Retract
G0 Z5.000

; Path 126
; Rapid to initial position
G0 X54.963 Y162.030
G0 Z0.000
; plunge
G1 Z-0.200 F4000
; cut
G1 X44.262 Y162.030 F4000
; Retract
G0 Z5.000

; Path 127
; Rapid to initial position
G0 X45.501 Y161.886
G0 Z0.000
; plunge
G1 Z-0.200 F4000
; cut
G1 X34.800 Y161.886 F4000
; Retract
G0 Z5.000

; Path 128
; Rapid to initial position
G0 X33.173 Y160.020
G0 Z0.000
; plunge
G1 Z-0.200 F4000
; cut
G1 X33.173 Y155.740 F4000
; Retract
G0 Z5.000

; Path 129
; Rapid to initial position
G0 X31.593 Y150.170
G0 Z0.000
; plunge
G1 Z-0.200 F4000
; cut
G1 X41.224 Y150.170 F4000
; Retract
G0 Z5.000

; Path 130
; Rapid to initial position
G0 X45.982 Y152.842
G0 Z0.000
; plunge
G1 Z-0.200 F4000
; cut
G1 X45.982 Y157.122 F4000
; Retract
G0 Z5.000

; Path 131
; Rapid to initial position
G0 X41.836 Y160.280
G0 Z0.000
; plunge
G1 Z-0.200 F4000
; cut
G1 X52.537 Y160.280 F4000
; Retract
G0 Z5.000

; Path 132
; Rapid to initial position
G0 X39.712 Y160.279
G0 Z0.000
; plunge
G1 Z-0.200 F4000
; cut
G1 X39.712 Y155.998 F4000
; Retract
G0 Z5.000

; Path 133
; Rapid to initial position
G0 X35.903 Y142.822
G0 Z0.000
; plunge
G1 Z-0.200 F4000
; cut
G1 X26.272 Y142.822 F4000
; Retract
G0 Z5.000

; Path 134
; Rapid to initial position
G0 X23.006 Y140.324
G0 Z0.000
; plunge
G1 Z-0.200 F4000
; cut
G1 X18.725 Y140.324 F4000
; Retract
G0 Z5.000

; Path 135
; Rapid to initial position
G0 X15.534 Y143.089
G0 Z0.000
; plunge
G1 Z-0.200 F4000
; cut
G1 X15.534 Y147.370 F4000
; Retract
G0 Z5.000

; Path 136
; Rapid to initial position
G0 X15.158 Y154.858
G0 Z0.000
; plunge
G1 Z-0.200 F4000
; cut
G1 X15.158 Y159.139 F4000
; Retract
G0 Z5.000

; Path 137
; Rapid to initial position
G0 X16.467 Y159.053
G0 Z0.000
; plunge
G1 Z-0.200 F4000
; cut
G1 X16.461 Y158.935 F4000
G1 X16.461 Y158.820
G1 X16.466 Y158.710
G1 X16.477 Y158.601
G1 X16.493 Y158.493
G1 X16.515 Y158.386
G1 X16.541 Y158.281
G1 X16.573 Y158.178
G1 X16.609 Y158.077
G1 X16.651 Y157.977
G1 X16.697 Y157.880
G1 X16.747 Y157.786
G1 X16.803 Y157.693
G1 X16.862 Y157.604
G1 X16.926 Y157.518
G1 X16.994 Y157.434
G1 X17.067 Y157.354
G1 X17.143 Y157.277
G1 X17.223 Y157.204
G1 X17.307 Y157.135
G1 X17.395 Y157.070
G1 X17.487 Y157.008
G1 X17.583 Y156.951
G1 X17.688 Y156.895
G1 X17.793 Y156.846
G1 X17.899 Y156.802
G1 X18.006 Y156.765
G1 X18.114 Y156.733
G1 X18.221 Y156.708
G1 X18.329 Y156.688
G1 X18.437 Y156.673
G1 X18.545 Y156.664
G1 X18.653 Y156.661
G1 X18.759 Y156.663
G1 X18.866 Y156.670
G1 X18.971 Y156.682
G1 X19.075 Y156.699
G1 X19.178 Y156.722
G1 X19.280 Y156.748
G1 X19.380 Y156.780
G1 X19.479 Y156.816
G1 X19.575 Y156.857
G1 X19.670 Y156.902
G1 X19.762 Y156.952
G1 X19.852 Y157.006
G1 X19.939 Y157.064
G1 X20.024 Y157.125
G1 X20.106 Y157.191
G1 X20.184 Y157.261
G1 X20.259 Y157.334
G1 X20.331 Y157.411
G1 X20.400 Y157.492
G1 X20.464 Y157.576
G1 X20.525 Y157.663
G1 X20.581 Y157.754
G1 X20.633 Y157.848
G1 X20.681 Y157.944
G1 X20.724 Y158.044
G1 X20.763 Y158.147
G1 X20.796 Y158.252
G1 X20.824 Y158.360
G1 X20.847 Y158.470
G1 X20.865 Y158.583
G1 X20.876 Y158.699
G1 X20.882 Y158.816
G1 X20.882 Y158.931
G1 X20.877 Y159.041
G1 X20.866 Y159.151
G1 X20.850 Y159.259
G1 X20.828 Y159.365
G1 X20.802 Y159.470
G1 X20.770 Y159.574
G1 X20.734 Y159.675
G1 X20.692 Y159.774
G1 X20.646 Y159.871
G1 X20.596 Y159.966
G1 X20.540 Y160.058
G1 X20.481 Y160.147
G1 X20.417 Y160.234
G1 X20.349 Y160.317
G1 X20.276 Y160.397
G1 X20.200 Y160.474
G1 X20.120 Y160.547
G1 X20.036 Y160.617
G1 X19.948 Y160.682
G1 X19.856 Y160.743
G1 X19.760 Y160.801
G1 X19.656 Y160.857
G1 X19.550 Y160.906
G1 X19.444 Y160.949
G1 X19.337 Y160.987
G1 X19.229 Y161.018
G1 X19.122 Y161.044
G1 X19.014 Y161.064
G1 X18.906 Y161.078
G1 X18.798 Y161.087
G1 X18.691 Y161.091
G1 X18.584 Y161.089
G1 X18.477 Y161.082
G1 X18.372 Y161.069
G1 X18.268 Y161.052
G1 X18.165 Y161.030
G1 X18.063 Y161.003
G1 X17.963 Y160.972
G1 X17.864 Y160.935
G1 X17.768 Y160.894
G1 X17.673 Y160.849
G1 X17.581 Y160.800
G1 X17.491 Y160.746
G1 X17.404 Y160.688
G1 X17.319 Y160.626
G1 X17.238 Y160.560
G1 X17.159 Y160.491
G1 X17.084 Y160.417
G1 X17.012 Y160.340
G1 X16.943 Y160.260
G1 X16.879 Y160.176
G1 X16.818 Y160.088
G1 X16.762 Y159.998
G1 X16.710 Y159.904
G1 X16.662 Y159.807
G1 X16.619 Y159.707
G1 X16.581 Y159.605
G1 X16.547 Y159.500
G1 X16.519 Y159.392
G1 X16.496 Y159.281
G1 X16.479 Y159.168
G1 X16.467 Y159.053
; Retract
G0 Z5.000

; Path 138
; Rapid to initial position
G0 X19.431 Y167.641
G0 Z0.000
; plunge
G1 Z-0.200 F4000
; cut
G1 X30.132 Y167.641 F4000
; Retract
G0 Z5.000

; Path 139
; Rapid to initial position
G0 X30.395 Y174.152
G0 Z0.000
; plunge
G1 Z-0.200 F4000
; cut
G1 X19.694 Y174.152 F4000
; Retract
G0 Z5.000

; Path 140
; Rapid to initial position
G0 X30.627 Y176.953
G0 Z0.000
; plunge
G1 Z-0.200 F4000
; cut
G1 X30.627 Y181.234 F4000
; Retract
G0 Z5.000

; Path 141
; Rapid to initial position
G0 X31.937 Y183.883
G0 Z0.000
; plunge
G1 Z-0.200 F4000
; cut
G1 X42.638 Y183.883 F4000
; Retract
G0 Z5.000

; Path 142
; Rapid to initial position
G0 X45.698 Y183.830
G0 Z0.000
; plunge
G1 Z-0.200 F4000
; cut
G1 X45.698 Y173.128 F4000
; Retract
G0 Z5.000

; Path 143
; Rapid to initial position
G0 X52.976 Y192.514
G0 Z0.000
; plunge
G1 Z-0.200 F4000
; cut
G1 X52.976 Y196.794 F4000
; Retract
G0 Z5.000

; Path 144
; Rapid to initial position
G0 X51.141 Y198.571
G0 Z0.000
; plunge
G1 Z-0.200 F4000
; cut
G1 X46.860 Y198.571 F4000
; Retract
G0 Z5.000

; Path 145
; Rapid to initial position
G0 X48.158 Y199.631
G0 Z0.000
; plunge
G1 Z-0.200 F4000
; cut
G1 X48.158 Y203.912 F4000
; Retract
G0 Z5.000

; Path 146
; Rapid to initial position
G0 X33.170 Y199.277
G0 Z0.000
; plunge
G1 Z-0.200 F4000
; cut
G1 X22.470 Y199.277 F4000
; Retract
G0 Z5.000

; Path 147
; Rapid to initial position
G0 X24.783 Y200.802
G0 Z0.000
; plunge
G1 Z-0.200 F4000
; cut
G1 X24.783 Y196.521 F4000
; Retract
G0 Z5.000

; Path 148
; Rapid to initial position
G0 X22.946 Y194.824
G0 Z0.000
; plunge
G1 Z-0.200 F4000
; cut
G1 X12.245 Y194.824 F4000
; Retract
G0 Z5.000

; Path 149
; Rapid to initial position
G0 X12.969 Y193.128
G0 Z0.000
; plunge
G1 Z-0.200 F4000
; cut
G1 X17.250 Y193.128 F4000
; Retract
G0 Z5.000

; Path 150
; Rapid to initial position
G0 X31.787 Y211.237
G0 Z0.000
; plunge
G1 Z-0.200 F4000
; cut
G1 X31.787 Y128.429 F4000
; Retract
G0 Z5.000

; Path 151
; Rapid to initial position
G0 X23.767 Y135.500
G0 Z0.000
; plunge
G1 Z-0.200 F4000
; cut
G1 X14.136 Y135.500 F4000
; Retract
G0 Z5.000

; Path 152
; Rapid to initial position
G0 X14.431 Y113.890
G0 Z0.000
; plunge
G1 Z-0.200 F4000
; cut
G1 X14.431 Y103.192 F4000
; Retract
G0 Z5.000

; Path 153
; Rapid to initial position
G0 X46.598 Y121.559
G0 Z0.000
; plunge
G1 Z-0.200 F4000
; cut
G1 X46.653 Y121.468 F4000
G1 X46.712 Y121.379
G1 X46.776 Y121.293
G1 X46.844 Y121.210
G1 X46.915 Y121.130
G1 X46.991 Y121.054
G1 X47.071 Y120.981
G1 X47.154 Y120.912
G1 X47.241 Y120.847
G1 X47.332 Y120.786
G1 X47.427 Y120.728
G1 X47.532 Y120.672
G1 X47.637 Y120.622
G1 X47.743 Y120.579
G1 X47.850 Y120.541
G1 X47.957 Y120.509
G1 X48.065 Y120.483
G1 X48.173 Y120.463
G1 X48.281 Y120.448
G1 X48.388 Y120.439
G1 X48.496 Y120.435
G1 X48.603 Y120.436
G1 X48.709 Y120.443
G1 X48.814 Y120.455
G1 X48.919 Y120.472
G1 X49.022 Y120.494
G1 X49.124 Y120.520
G1 X49.224 Y120.551
G1 X49.323 Y120.587
G1 X49.419 Y120.628
G1 X49.514 Y120.673
G1 X49.606 Y120.722
G1 X49.696 Y120.775
G1 X49.784 Y120.833
G1 X49.869 Y120.895
G1 X49.951 Y120.960
G1 X50.029 Y121.030
G1 X50.105 Y121.103
G1 X50.177 Y121.179
G1 X50.246 Y121.260
G1 X50.310 Y121.344
G1 X50.371 Y121.431
G1 X50.428 Y121.521
G1 X50.481 Y121.615
G1 X50.529 Y121.711
G1 X50.572 Y121.811
G1 X50.611 Y121.913
G1 X50.645 Y122.018
G1 X50.673 Y122.126
G1 X50.697 Y122.237
G1 X50.714 Y122.350
G1 X50.727 Y122.465
G1 X50.733 Y122.582
G1 X50.733 Y122.697
G1 X50.727 Y122.806
G1 X50.716 Y122.915
G1 X50.700 Y123.022
G1 X50.678 Y123.128
G1 X50.652 Y123.232
G1 X50.620 Y123.335
G1 X50.584 Y123.435
G1 X50.543 Y123.534
G1 X50.497 Y123.630
G1 X50.447 Y123.724
G1 X50.392 Y123.816
G1 X50.332 Y123.905
G1 X50.269 Y123.991
G1 X50.201 Y124.074
G1 X50.130 Y124.153
G1 X50.054 Y124.230
G1 X49.974 Y124.302
G1 X49.891 Y124.371
G1 X49.804 Y124.437
G1 X49.713 Y124.498
G1 X49.618 Y124.555
G1 X49.513 Y124.611
G1 X49.408 Y124.661
G1 X49.302 Y124.705
G1 X49.195 Y124.743
G1 X49.088 Y124.775
G1 X48.980 Y124.801
G1 X48.872 Y124.821
G1 X48.764 Y124.836
G1 X48.657 Y124.845
G1 X48.549 Y124.849
G1 X48.442 Y124.847
G1 X48.336 Y124.841
G1 X48.231 Y124.829
G1 X48.126 Y124.812
G1 X48.023 Y124.790
G1 X47.921 Y124.764
G1 X47.821 Y124.732
G1 X47.722 Y124.696
G1 X47.626 Y124.656
G1 X47.531 Y124.611
G1 X47.439 Y124.562
G1 X47.349 Y124.508
G1 X47.261 Y124.451
G1 X47.176 Y124.389
G1 X47.094 Y124.324
G1 X47.016 Y124.254
G1 X46.940 Y124.181
G1 X46.868 Y124.104
G1 X46.799 Y124.024
G1 X46.734 Y123.940
G1 X46.674 Y123.853
G1 X46.617 Y123.763
G1 X46.564 Y123.669
G1 X46.516 Y123.572
G1 X46.473 Y123.473
G1 X46.434 Y123.371
G1 X46.400 Y123.265
G1 X46.372 Y123.157
G1 X46.348 Y123.047
G1 X46.331 Y122.934
G1 X46.318 Y122.819
G1 X46.312 Y122.701
G1 X46.312 Y122.587
G1 X46.318 Y122.477
G1 X46.329 Y122.369
G1 X46.345 Y122.262
G1 X46.367 Y122.156
G1 X46.393 Y122.052
G1 X46.425 Y121.949
G1 X46.461 Y121.848
G1 X46.502 Y121.750
G1 X46.548 Y121.653
G1 X46.598 Y121.559
; Retract
G0 Z5.000

; Path 154
; Rapid to initial position
G0 X48.458 Y125.768
G0 Z0.000
; plunge
G1 Z-0.200 F4000
; cut
G1 X52.738 Y125.768 F4000
; Retract
G0 Z5.000

; Path 155
; Rapid to initial position
G0 X57.315 Y124.354
G0 Z0.000
; plunge
G1 Z-0.200 F4000
; cut
G1 X57.315 Y128.635 F4000
; Retract
G0 Z5.000

; Path 156
; Rapid to initial position
G0 X51.994 Y137.287
G0 Z0.000
; plunge
G1 Z-0.200 F4000
; cut
G1 X47.714 Y137.287 F4000
; Retract
G0 Z5.000

; Path 157
; Rapid to initial position
G0 X44.775 Y138.809
G0 Z0.000
; plunge
G1 Z-0.200 F4000
; cut
G1 X44.775 Y143.090 F4000
; Retract
G0 Z5.000

; Path 158
; Rapid to initial position
G0 X131.009 Y165.266
G0 Z0.000
; plunge
G1 Z-0.200 F4000
; cut
G1 X135.289 Y165.266 F4000
; Retract
G0 Z5.000

; Path 159
; Rapid to initial position
G0 X137.056 Y167.212
G0 Z0.000
; plunge
G1 Z-0.200 F4000
; cut
G1 X137.056 Y162.932 F4000
; Retract
G0 Z5.000

; Path 160
; Rapid to initial position
G0 X133.345 Y167.471
G0 Z0.000
; plunge
G1 Z-0.200 F4000
; cut
G1 X133.345 Y172.802 F4000
; Retract
G0 Z5.000

; Path 161
; Rapid to initial position
G0 X133.372 Y157.176
G0 Z0.000
; plunge
G1 Z-0.200 F4000
; cut
G1 X133.372 Y152.895 F4000
; Retract
G0 Z5.000

; Path 162
; Rapid to initial position
G0 X136.195 Y156.074
G0 Z0.000
; plunge
G1 Z-0.200 F4000
; cut
G1 X146.895 Y156.074 F4000
; Retract
G0 Z5.000

; Path 163
; Rapid to initial position
G0 X139.793 Y157.315
G0 Z0.000
; plunge
G1 Z-0.200 F4000
; cut
G1 X139.793 Y153.035 F4000
; Retract
G0 Z5.000

; Path 164
; Rapid to initial position
G0 X138.595 Y148.499
G0 Z0.000
; plunge
G1 Z-0.200 F4000
; cut
G1 X134.315 Y148.499 F4000
; Retract
G0 Z5.000

; Path 165
; Rapid to initial position
G0 X134.088 Y146.585
G0 Z0.000
; plunge
G1 Z-0.200 F4000
; cut
G1 X144.788 Y146.585 F4000
; Retract
G0 Z5.000

; Path 166
; Rapid to initial position
G0 X153.301 Y112.328
G0 Z0.000
; plunge
G1 Z-0.200 F4000
; cut
G1 X153.301 Y108.047 F4000
; Retract
G0 Z5.000

; Path 167
; Rapid to initial position
G0 X132.789 Y90.794
G0 Z0.000
; plunge
G1 Z-0.200 F4000
; cut
G1 X132.789 Y77.471 F4000
; Retract
G0 Z5.000

; Path 168
; Rapid to initial position
G0 X116.455 Y71.263
G0 Z0.000
; plunge
G1 Z-0.200 F4000
; cut
G1 X116.455 Y57.936 F4000
; Retract
G0 Z5.000

; Path 169
; Rapid to initial position
G0 X121.817 Y53.950
G0 Z0.000
; plunge
G1 Z-0.200 F4000
; cut
G1 X127.147 Y53.950 F4000
; Retract
G0 Z5.000

; Path 170
; Rapid to initial position
G0 X126.181 Y57.242
G0 Z0.000
; plunge
G1 Z-0.200 F4000
; cut
G1 X139.506 Y57.242 F4000
; Retract
G0 Z5.000

; Path 171
; Rapid to initial position
G0 X138.838 Y53.342
G0 Z0.000
; plunge
G1 Z-0.200 F4000
; cut
G1 X138.838 Y40.014 F4000
; Retract
G0 Z5.000

; Path 172
; Rapid to initial position
G0 X139.627 Y49.888
G0 Z0.000
; plunge
G1 Z-0.200 F4000
; cut
G1 X132.964 Y49.888 F4000
; Retract
G0 Z5.000

; Path 173
; Rapid to initial position
G0 X152.523 Y47.672
G0 Z0.000
; plunge
G1 Z-0.200 F4000
; cut
G1 X165.849 Y47.672 F4000
; Retract
G0 Z5.000

; Path 174
; Rapid to initial position
G0 X160.135 Y17.921
G0 Z0.000
; plunge
G1 Z-0.200 F4000
; cut
G1 X19.484 Y17.921 F4000
; Retract
G0 Z5.000

; Path 175
; Rapid to initial position
G0 X187.235 Y113.557
G0 Z0.000
; plunge
G1 Z-0.200 F4000
; cut
G1 X192.564 Y113.557 F4000
; Retract
G0 Z5.000

; Path 176
; Rapid to initial position
G0 X201.519 Y104.314
G0 Z0.000
; plunge
G1 Z-0.200 F4000
; cut
G1 X201.519 Y90.986 F4000
; Retract
G0 Z5.000

; Path 177
; Rapid to initial position
G0 X215.727 Y107.330
G0 Z0.000
; plunge
G1 Z-0.200 F4000
; cut
G1 X215.727 Y112.661 F4000
; Retract
G0 Z5.000

; Path 178
; Rapid to initial position
G0 X221.819 Y128.666
G0 Z0.000
; plunge
G1 Z-0.200 F4000
; cut
G1 X221.819 Y141.993 F4000
; Retract
G0 Z5.000

; Path 179
; Rapid to initial position
G0 X233.910 Y144.037
G0 Z0.000
; plunge
G1 Z-0.200 F4000
; cut
G1 X233.910 Y149.367 F4000
; Retract
G0 Z5.000

; Path 180
; Rapid to initial position
G0 X233.913 Y150.797
G0 Z0.000
; plunge
G1 Z-0.200 F4000
; cut
G1 X234.025 Y150.800 F4000
G1 X234.136 Y150.808
G1 X234.246 Y150.822
G1 X234.355 Y150.841
G1 X234.463 Y150.865
G1 X234.569 Y150.894
G1 X234.673 Y150.927
G1 X234.776 Y150.966
G1 X234.877 Y151.009
G1 X234.975 Y151.057
G1 X235.072 Y151.110
G1 X235.165 Y151.167
G1 X235.256 Y151.228
G1 X235.344 Y151.294
G1 X235.429 Y151.363
G1 X235.511 Y151.437
G1 X235.589 Y151.514
G1 X235.664 Y151.595
G1 X235.735 Y151.680
G1 X235.802 Y151.768
G1 X235.864 Y151.860
G1 X235.923 Y151.956
G1 X235.977 Y152.054
G1 X236.026 Y152.156
G1 X236.070 Y152.261
G1 X236.110 Y152.369
G1 X236.144 Y152.479
G1 X236.173 Y152.593
G1 X236.196 Y152.709
G1 X236.213 Y152.827
G1 X236.223 Y152.928
G1 X236.229 Y153.030
G1 X236.230 Y153.152
G1 X236.225 Y153.267
G1 X236.214 Y153.382
G1 X236.198 Y153.495
G1 X236.177 Y153.606
G1 X236.150 Y153.716
G1 X236.118 Y153.824
G1 X236.080 Y153.931
G1 X236.038 Y154.035
G1 X235.991 Y154.137
G1 X235.939 Y154.236
G1 X235.882 Y154.333
G1 X235.820 Y154.427
G1 X235.754 Y154.518
G1 X235.684 Y154.605
G1 X235.609 Y154.690
G1 X235.530 Y154.770
G1 X235.447 Y154.847
G1 X235.359 Y154.921
G1 X235.268 Y154.990
G1 X235.173 Y155.054
G1 X235.075 Y155.115
G1 X234.984 Y155.165
G1 X234.892 Y155.210
G1 X234.800 Y155.251
G1 X234.707 Y155.288
G1 X234.595 Y155.326
G1 X234.483 Y155.358
G1 X234.370 Y155.384
G1 X234.257 Y155.404
G1 X234.144 Y155.418
G1 X234.031 Y155.426
G1 X233.919 Y155.429
G1 X233.807 Y155.426
G1 X233.696 Y155.418
G1 X233.586 Y155.405
G1 X233.477 Y155.386
G1 X233.369 Y155.362
G1 X233.263 Y155.333
G1 X233.159 Y155.299
G1 X233.056 Y155.260
G1 X232.955 Y155.217
G1 X232.857 Y155.169
G1 X232.760 Y155.117
G1 X232.667 Y155.060
G1 X232.576 Y154.998
G1 X232.488 Y154.933
G1 X232.403 Y154.863
G1 X232.321 Y154.790
G1 X232.243 Y154.713
G1 X232.168 Y154.631
G1 X232.097 Y154.546
G1 X232.030 Y154.458
G1 X231.968 Y154.366
G1 X231.909 Y154.271
G1 X231.855 Y154.172
G1 X231.806 Y154.071
G1 X231.762 Y153.966
G1 X231.722 Y153.858
G1 X231.688 Y153.747
G1 X231.660 Y153.634
G1 X231.636 Y153.518
G1 X231.619 Y153.399
G1 X231.609 Y153.299
G1 X231.603 Y153.196
G1 X231.602 Y153.075
G1 X231.607 Y152.959
G1 X231.618 Y152.845
G1 X231.634 Y152.732
G1 X231.655 Y152.620
G1 X231.682 Y152.510
G1 X231.714 Y152.402
G1 X231.752 Y152.296
G1 X231.794 Y152.192
G1 X231.841 Y152.090
G1 X231.894 Y151.990
G1 X231.950 Y151.894
G1 X232.012 Y151.800
G1 X232.078 Y151.709
G1 X232.149 Y151.621
G1 X232.223 Y151.537
G1 X232.302 Y151.456
G1 X232.386 Y151.379
G1 X232.473 Y151.306
G1 X232.564 Y151.237
G1 X232.659 Y151.172
G1 X232.758 Y151.112
G1 X232.848 Y151.062
G1 X232.940 Y151.016
G1 X233.032 Y150.975
G1 X233.144 Y150.932
G1 X233.256 Y150.895
G1 X233.368 Y150.864
G1 X233.481 Y150.839
G1 X233.594 Y150.820
G1 X233.707 Y150.807
G1 X233.820 Y150.799
G1 X233.913 Y150.797
; Retract
G0 Z5.000

; Path 181
; Rapid to initial position
G0 X220.603 Y176.576
G0 Z0.000
; plunge
G1 Z-0.200 F4000
; cut
G1 X207.278 Y176.576 F4000
; Retract
G0 Z5.000

; Path 182
; Rapid to initial position
G0 X214.347 Y179.527
G0 Z0.000
; plunge
G1 Z-0.200 F4000
; cut
G1 X219.677 Y179.527 F4000
; Retract
G0 Z5.000

; Path 183
; Rapid to initial position
G0 X208.611 Y188.844
G0 Z0.000
; plunge
G1 Z-0.200 F4000
; cut
G1 X208.611 Y194.175 F4000
; Retract
G0 Z5.000

; Path 184
; Rapid to initial position
G0 X191.412 Y195.767
G0 Z0.000
; plunge
G1 Z-0.200 F4000
; cut
G1 X191.412 Y209.089 F4000
; Retract
G0 Z5.000

; Path 185
; Rapid to initial position
G0 X191.544 Y228.188
G0 Z0.000
; plunge
G1 Z-0.200 F4000
; cut
G1 X204.870 Y228.188 F4000
; Retract
G0 Z5.000

; Path 186
; Rapid to initial position
G0 X190.524 Y240.866
G0 Z0.000
; plunge
G1 Z-0.200 F4000
; cut
G1 X110.626 Y240.866 F4000
; Retract
G0 Z5.000

; Path 187
; Rapid to initial position
G0 X105.566 Y266.759
G0 Z0.000
; plunge
G1 Z-0.200 F4000
; cut
G1 X25.668 Y266.759 F4000
; Retract
G0 Z5.000

; Path 188
; Rapid to initial position
G0 X75.591 Y263.345
G0 Z0.000
; plunge
G1 Z-0.200 F4000
; cut
G1 X75.591 Y230.529 F4000
; Retract
G0 Z5.000

; Path 189
; Rapid to initial position
G0 X87.356 Y257.274
G0 Z0.000
; plunge
G1 Z-0.200 F4000
; cut
G1 X87.356 Y290.090 F4000
; Retract
G0 Z5.000

; Path 190
; Rapid to initial position
G0 X164.258 Y261.530
G0 Z0.000
; plunge
G1 Z-0.200 F4000
; cut
G1 X164.261 Y261.633 F4000
G1 X164.271 Y261.735
G1 X164.287 Y261.834
G1 X164.308 Y261.932
G1 X164.342 Y262.045
G1 X164.384 Y262.155
G1 X164.433 Y262.261
G1 X164.490 Y262.363
G1 X164.554 Y262.460
G1 X164.624 Y262.551
G1 X164.701 Y262.638
G1 X164.784 Y262.719
G1 X164.872 Y262.793
G1 X164.966 Y262.861
G1 X165.064 Y262.923
G1 X165.167 Y262.977
G1 X165.274 Y263.024
G1 X165.386 Y263.063
G1 X165.500 Y263.094
G1 X165.599 Y263.114
G1 X165.699 Y263.127
G1 X165.801 Y263.134
G1 X165.863 Y263.136
; Retract
G0 Z5.000

; Path 191
; Rapid to initial position
G0 X165.863 Y263.136
G0 Z0.000
; plunge
G1 Z-0.200 F4000
; cut
G1 X174.066 Y263.136 F4000
; Retract
G0 Z5.000

; Path 192
; Rapid to initial position
G0 X174.067 Y263.136
G0 Z0.000
; plunge
G1 Z-0.200 F4000
; cut
G1 X174.170 Y263.132 F4000
G1 X174.271 Y263.123
G1 X174.371 Y263.107
G1 X174.487 Y263.080
G1 X174.600 Y263.045
G1 X174.710 Y263.002
G1 X174.815 Y262.951
G1 X174.916 Y262.893
G1 X175.012 Y262.828
G1 X175.103 Y262.757
G1 X175.188 Y262.679
G1 X175.268 Y262.595
G1 X175.341 Y262.506
G1 X175.409 Y262.412
G1 X175.469 Y262.313
G1 X175.522 Y262.209
G1 X175.568 Y262.101
G1 X175.606 Y261.989
G1 X175.635 Y261.873
G1 X175.656 Y261.755
G1 X175.667 Y261.654
G1 X175.672 Y261.551
G1 X175.672 Y261.530
; Retract
G0 Z5.000

; Path 193
; Rapid to initial position
G0 X175.670 Y261.530
G0 Z0.000
; plunge
G1 Z-0.200 F4000
; cut
G1 X175.670 Y244.766 F4000
; Retract
G0 Z5.000

; Path 194
; Rapid to initial position
G0 X175.672 Y244.766
G0 Z0.000
; plunge
G1 Z-0.200 F4000
; cut
G1 X175.669 Y244.663 F4000
G1 X175.659 Y244.561
G1 X175.643 Y244.462
G1 X175.616 Y244.346
G1 X175.581 Y244.233
G1 X175.538 Y244.123
G1 X175.487 Y244.018
G1 X175.429 Y243.917
G1 X175.365 Y243.821
G1 X175.293 Y243.730
G1 X175.215 Y243.645
G1 X175.132 Y243.565
G1 X175.043 Y243.491
G1 X174.948 Y243.424
G1 X174.849 Y243.364
G1 X174.745 Y243.311
G1 X174.637 Y243.265
G1 X174.525 Y243.227
G1 X174.410 Y243.198
G1 X174.311 Y243.179
G1 X174.211 Y243.167
G1 X174.108 Y243.161
G1 X174.067 Y243.161
; Retract
G0 Z5.000

; Path 195
; Rapid to initial position
G0 X174.066 Y243.161
G0 Z0.000
; plunge
G1 Z-0.200 F4000
; cut
G1 X165.863 Y243.161 F4000
; Retract
G0 Z5.000

; Path 196
; Rapid to initial position
G0 X165.863 Y243.161
G0 Z0.000
; plunge
G1 Z-0.200 F4000
; cut
G1 X165.760 Y243.164 F4000
G1 X165.659 Y243.174
G1 X165.559 Y243.189
G1 X165.443 Y243.216
G1 X165.330 Y243.252
G1 X165.220 Y243.295
G1 X165.115 Y243.345
G1 X165.014 Y243.403
G1 X164.918 Y243.468
G1 X164.827 Y243.540
G1 X164.742 Y243.617
G1 X164.662 Y243.701
G1 X164.588 Y243.790
G1 X164.521 Y243.885
G1 X164.461 Y243.984
G1 X164.408 Y244.088
G1 X164.362 Y244.196
G1 X164.324 Y244.307
G1 X164.295 Y244.423
G1 X164.273 Y244.541
G1 X164.263 Y244.642
G1 X164.258 Y244.745
G1 X164.258 Y244.766
; Retract
G0 Z5.000

; Path 197
; Rapid to initial position
G0 X164.259 Y244.766
G0 Z0.000
; plunge
G1 Z-0.200 F4000
; cut
G1 X164.259 Y261.530 F4000
; Retract
G0 Z5.000

; Path 198
; Rapid to initial position
G0 X216.990 Y209.412
G0 Z0.000
; plunge
G1 Z-0.200 F4000
; cut
G1 X222.321 Y209.412 F4000
; Retract
G0 Z5.000

; Path 199
; Rapid to initial position
G0 X232.156 Y200.900
G0 Z0.000
; plunge
G1 Z-0.200 F4000
; cut
G1 X232.086 Y200.814 F4000
G1 X232.020 Y200.725
G1 X231.958 Y200.633
G1 X231.900 Y200.537
G1 X231.847 Y200.438
G1 X231.798 Y200.336
G1 X231.755 Y200.230
G1 X231.716 Y200.122
G1 X231.683 Y200.011
G1 X231.655 Y199.897
G1 X231.633 Y199.781
G1 X231.617 Y199.662
G1 X231.608 Y199.561
G1 X231.603 Y199.458
G1 X231.602 Y199.357
G1 X231.607 Y199.242
G1 X231.618 Y199.127
G1 X231.634 Y199.014
G1 X231.655 Y198.903
G1 X231.682 Y198.793
G1 X231.714 Y198.685
G1 X231.752 Y198.578
G1 X231.794 Y198.474
G1 X231.841 Y198.372
G1 X231.894 Y198.273
G1 X231.950 Y198.176
G1 X232.012 Y198.082
G1 X232.078 Y197.991
G1 X232.149 Y197.904
G1 X232.223 Y197.819
G1 X232.302 Y197.739
G1 X232.386 Y197.662
G1 X232.473 Y197.588
G1 X232.564 Y197.519
G1 X232.659 Y197.455
G1 X232.758 Y197.394
G1 X232.848 Y197.344
G1 X232.940 Y197.299
G1 X233.032 Y197.258
G1 X233.125 Y197.221
G1 X233.237 Y197.183
G1 X233.349 Y197.151
G1 X233.462 Y197.125
G1 X233.575 Y197.105
G1 X233.688 Y197.091
G1 X233.801 Y197.083
G1 X233.913 Y197.080
G1 X234.025 Y197.083
G1 X234.136 Y197.091
G1 X234.246 Y197.104
G1 X234.355 Y197.123
G1 X234.463 Y197.147
G1 X234.569 Y197.176
G1 X234.673 Y197.210
G1 X234.776 Y197.249
G1 X234.877 Y197.292
G1 X234.975 Y197.340
G1 X235.072 Y197.392
G1 X235.165 Y197.449
G1 X235.256 Y197.511
G1 X235.344 Y197.576
G1 X235.429 Y197.646
G1 X235.511 Y197.719
G1 X235.589 Y197.796
G1 X235.664 Y197.878
G1 X235.735 Y197.962
G1 X235.802 Y198.051
G1 X235.864 Y198.143
G1 X235.923 Y198.238
G1 X235.977 Y198.337
G1 X236.026 Y198.438
G1 X236.070 Y198.543
G1 X236.110 Y198.651
G1 X236.144 Y198.762
G1 X236.173 Y198.875
G1 X236.196 Y198.991
G1 X236.211 Y199.090
G1 X236.221 Y199.190
G1 X236.228 Y199.292
G1 X236.230 Y199.396
G1 X236.227 Y199.511
G1 X236.219 Y199.626
G1 X236.204 Y199.739
G1 X236.185 Y199.852
G1 X236.159 Y199.962
G1 X236.129 Y200.071
G1 X236.093 Y200.178
G1 X236.053 Y200.283
G1 X236.007 Y200.385
G1 X235.957 Y200.486
G1 X235.901 Y200.583
G1 X235.841 Y200.678
G1 X235.777 Y200.770
G1 X235.708 Y200.859
G1 X235.634 Y200.944
G1 X235.557 Y201.026
G1 X235.475 Y201.105
G1 X235.389 Y201.179
G1 X235.299 Y201.250
G1 X235.205 Y201.316
G1 X235.108 Y201.378
G1 X235.020 Y201.428
G1 X234.929 Y201.475
G1 X234.837 Y201.518
G1 X234.744 Y201.556
G1 X234.633 Y201.596
G1 X234.520 Y201.630
G1 X234.407 Y201.658
G1 X234.295 Y201.680
G1 X234.182 Y201.696
G1 X234.069 Y201.707
G1 X233.956 Y201.711
G1 X233.844 Y201.710
G1 X233.733 Y201.704
G1 X233.623 Y201.692
G1 X233.513 Y201.675
G1 X233.405 Y201.653
G1 X233.298 Y201.626
G1 X233.193 Y201.593
G1 X233.090 Y201.556
G1 X232.989 Y201.514
G1 X232.889 Y201.468
G1 X232.792 Y201.417
G1 X232.698 Y201.362
G1 X232.606 Y201.302
G1 X232.517 Y201.238
G1 X232.431 Y201.170
G1 X232.348 Y201.097
G1 X232.269 Y201.021
G1 X232.193 Y200.941
G1 X232.156 Y200.900
; Retract
G0 Z5.000

; Path 200
; Rapid to initial position
G0 X282.926 Y204.385
G0 Z0.000
; plunge
G1 Z-0.200 F4000
; cut
G1 X282.926 Y217.710 F4000
; Retract
G0 Z5.000

; Path 201
; Rapid to initial position
G0 X342.286 Y153.150
G0 Z0.000
; plunge
G1 Z-0.200 F4000
; cut
G1 X342.286 Y139.823 F4000
; Retract
G0 Z5.000

; Path 202
; Rapid to initial position
G0 X346.002 Y144.554
G0 Z0.000
; plunge
G1 Z-0.200 F4000
; cut
G1 X351.332 Y144.554 F4000
; Retract
G0 Z5.000

; Path 203
; Rapid to initial position
G0 X353.662 Y145.075
G0 Z0.000
; plunge
G1 Z-0.200 F4000
; cut
G1 X358.992 Y145.075 F4000
; Retract
G0 Z5.000

; Path 204
; Rapid to initial position
G0 X361.962 Y139.526
G0 Z0.000
; plunge
G1 Z-0.200 F4000
; cut
G1 X367.292 Y139.526 F4000
; Retract
G0 Z5.000

; Path 205
; Rapid to initial position
G0 X376.173 Y143.242
G0 Z0.000
; plunge
G1 Z-0.200 F4000
; cut
G1 X376.173 Y156.567 F4000
; Retract
G0 Z5.000

; Path 206
; Rapid to initial position
G0 X371.961 Y160.487
G0 Z0.000
; plunge
G1 Z-0.200 F4000
; cut
G1 X371.961 Y173.814 F4000
; Retract
G0 Z5.000

; Path 207
; Rapid to initial position
G0 X354.175 Y159.001
G0 Z0.000
; plunge
G1 Z-0.200 F4000
; cut
G1 X348.845 Y159.001 F4000
; Retract
G0 Z5.000

; Path 208
; Rapid to initial position
G0 X333.392 Y144.090
G0 Z0.000
; plunge
G1 Z-0.200 F4000
; cut
G1 X333.392 Y124.101 F4000
; Retract
G0 Z5.000

; Path 209
; Rapid to initial position
G0 X345.998 Y112.279
G0 Z0.000
; plunge
G1 Z-0.200 F4000
; cut
G1 X359.323 Y112.279 F4000
; Retract
G0 Z5.000

; Path 210
; Rapid to initial position
G0 X360.482 Y123.619
G0 Z0.000
; plunge
G1 Z-0.200 F4000
; cut
G1 X365.811 Y123.619 F4000
; Retract
G0 Z5.000

; Path 211
; Rapid to initial position
G0 X375.872 Y119.830
G0 Z0.000
; plunge
G1 Z-0.200 F4000
; cut
G1 X387.865 Y119.830 F4000
; Retract
G0 Z5.000

; Path 212
; Rapid to initial position
G0 X385.238 Y122.664
G0 Z0.000
; plunge
G1 Z-0.200 F4000
; cut
G1 X379.909 Y122.664 F4000
; Retract
G0 Z5.000

; Path 213
; Rapid to initial position
G0 X392.719 Y113.085
G0 Z0.000
; plunge
G1 Z-0.200 F4000
; cut
G1 X392.653 Y112.993 F4000
G1 X392.590 Y112.897
G1 X392.531 Y112.797
G1 X392.472 Y112.689
G1 X392.419 Y112.580
G1 X392.371 Y112.470
G1 X392.329 Y112.360
G1 X392.291 Y112.249
G1 X392.259 Y112.137
G1 X392.232 Y112.025
G1 X392.209 Y111.913
G1 X392.192 Y111.801
G1 X392.179 Y111.689
G1 X392.171 Y111.578
G1 X392.168 Y111.466
G1 X392.169 Y111.355
G1 X392.175 Y111.245
G1 X392.185 Y111.135
G1 X392.200 Y111.026
G1 X392.219 Y110.918
G1 X392.242 Y110.811
G1 X392.269 Y110.705
G1 X392.301 Y110.601
G1 X392.336 Y110.498
G1 X392.376 Y110.397
G1 X392.419 Y110.297
G1 X392.466 Y110.199
G1 X392.517 Y110.103
G1 X392.572 Y110.009
G1 X392.630 Y109.917
G1 X392.691 Y109.827
G1 X392.757 Y109.740
G1 X392.825 Y109.656
G1 X392.897 Y109.574
G1 X392.972 Y109.495
G1 X393.050 Y109.418
G1 X393.132 Y109.345
G1 X393.216 Y109.275
G1 X393.303 Y109.208
G1 X393.394 Y109.145
G1 X393.487 Y109.085
G1 X393.583 Y109.029
G1 X393.681 Y108.977
G1 X393.782 Y108.928
G1 X393.886 Y108.884
G1 X393.992 Y108.843
G1 X394.100 Y108.807
G1 X394.211 Y108.775
G1 X394.324 Y108.748
G1 X394.440 Y108.726
G1 X394.557 Y108.708
G1 X394.676 Y108.695
G1 X394.798 Y108.687
G1 X394.921 Y108.684
G1 X395.036 Y108.687
G1 X395.149 Y108.694
G1 X395.262 Y108.706
G1 X395.374 Y108.722
G1 X395.485 Y108.743
G1 X395.594 Y108.769
G1 X395.702 Y108.798
G1 X395.808 Y108.832
G1 X395.913 Y108.871
G1 X396.016 Y108.913
G1 X396.117 Y108.959
G1 X396.216 Y109.010
G1 X396.313 Y109.064
G1 X396.407 Y109.122
G1 X396.500 Y109.184
G1 X396.589 Y109.250
G1 X396.676 Y109.320
G1 X396.761 Y109.393
G1 X396.842 Y109.469
G1 X396.921 Y109.549
G1 X396.996 Y109.632
G1 X397.068 Y109.719
G1 X397.137 Y109.809
G1 X397.202 Y109.902
G1 X397.264 Y109.998
G1 X397.324 Y110.100
G1 X397.381 Y110.209
G1 X397.433 Y110.318
G1 X397.480 Y110.428
G1 X397.521 Y110.538
G1 X397.558 Y110.650
G1 X397.589 Y110.761
G1 X397.616 Y110.873
G1 X397.637 Y110.985
G1 X397.653 Y111.097
G1 X397.665 Y111.209
G1 X397.672 Y111.321
G1 X397.675 Y111.432
G1 X397.672 Y111.543
G1 X397.666 Y111.653
G1 X397.654 Y111.763
G1 X397.639 Y111.872
G1 X397.619 Y111.979
G1 X397.595 Y112.086
G1 X397.567 Y112.191
G1 X397.535 Y112.296
G1 X397.498 Y112.398
G1 X397.458 Y112.499
G1 X397.414 Y112.599
G1 X397.366 Y112.696
G1 X397.315 Y112.792
G1 X397.259 Y112.886
G1 X397.200 Y112.977
G1 X397.138 Y113.066
G1 X397.072 Y113.153
G1 X397.003 Y113.237
G1 X396.931 Y113.318
G1 X396.855 Y113.397
G1 X396.776 Y113.472
G1 X396.694 Y113.545
G1 X396.609 Y113.614
G1 X396.521 Y113.680
G1 X396.430 Y113.743
G1 X396.337 Y113.802
G1 X396.240 Y113.858
G1 X396.141 Y113.909
G1 X396.040 Y113.957
G1 X395.935 Y114.001
G1 X395.829 Y114.040
G1 X395.720 Y114.076
G1 X395.608 Y114.106
G1 X395.495 Y114.133
G1 X395.379 Y114.154
G1 X395.261 Y114.171
G1 X395.142 Y114.183
G1 X395.020 Y114.190
G1 X394.898 Y114.192
G1 X394.784 Y114.188
G1 X394.670 Y114.180
G1 X394.558 Y114.167
G1 X394.446 Y114.150
G1 X394.336 Y114.128
G1 X394.227 Y114.102
G1 X394.119 Y114.071
G1 X394.013 Y114.036
G1 X393.909 Y113.997
G1 X393.806 Y113.954
G1 X393.705 Y113.907
G1 X393.607 Y113.856
G1 X393.510 Y113.800
G1 X393.416 Y113.741
G1 X393.325 Y113.679
G1 X393.235 Y113.612
G1 X393.149 Y113.542
G1 X393.065 Y113.468
G1 X392.984 Y113.391
G1 X392.906 Y113.311
G1 X392.831 Y113.227
G1 X392.760 Y113.139
G1 X392.719 Y113.085
; Retract
G0 Z5.000

; Path 214
; Rapid to initial position
G0 X387.195 Y84.765
G0 Z0.000
; plunge
G1 Z-0.200 F4000
; cut
G1 X400.521 Y84.765 F4000
; Retract
G0 Z5.000

; Path 215
; Rapid to initial position
G0 X395.806 Y55.721
G0 Z0.000
; plunge
G1 Z-0.200 F4000
; cut
G1 X382.480 Y55.721 F4000
; Retract
G0 Z5.000

; Path 216
; Rapid to initial position
G0 X363.880 Y59.468
G0 Z0.000
; plunge
G1 Z-0.200 F4000
; cut
G1 X363.880 Y47.475 F4000
; Retract
G0 Z5.000

; Path 217
; Rapid to initial position
G0 X360.085 Y66.908
G0 Z0.000
; plunge
G1 Z-0.200 F4000
; cut
G1 X360.195 Y66.932 F4000
G1 X360.304 Y66.960
G1 X360.411 Y66.992
G1 X360.517 Y67.029
G1 X360.621 Y67.069
G1 X360.723 Y67.114
G1 X360.823 Y67.163
G1 X360.921 Y67.216
G1 X361.017 Y67.273
G1 X361.110 Y67.334
G1 X361.201 Y67.398
G1 X361.290 Y67.467
G1 X361.375 Y67.538
G1 X361.458 Y67.614
G1 X361.538 Y67.693
G1 X361.615 Y67.775
G1 X361.689 Y67.861
G1 X361.759 Y67.950
G1 X361.826 Y68.042
G1 X361.889 Y68.137
G1 X361.948 Y68.235
G1 X362.008 Y68.343
G1 X362.062 Y68.452
G1 X362.111 Y68.562
G1 X362.154 Y68.673
G1 X362.192 Y68.784
G1 X362.225 Y68.895
G1 X362.254 Y69.007
G1 X362.277 Y69.119
G1 X362.295 Y69.231
G1 X362.308 Y69.343
G1 X362.317 Y69.455
G1 X362.321 Y69.566
G1 X362.321 Y69.678
G1 X362.316 Y69.788
G1 X362.306 Y69.898
G1 X362.292 Y70.007
G1 X362.274 Y70.115
G1 X362.251 Y70.222
G1 X362.224 Y70.328
G1 X362.194 Y70.433
G1 X362.159 Y70.536
G1 X362.120 Y70.638
G1 X362.077 Y70.738
G1 X362.031 Y70.836
G1 X361.980 Y70.932
G1 X361.926 Y71.027
G1 X361.869 Y71.119
G1 X361.808 Y71.209
G1 X361.743 Y71.296
G1 X361.675 Y71.381
G1 X361.604 Y71.464
G1 X361.529 Y71.543
G1 X361.451 Y71.620
G1 X361.371 Y71.694
G1 X361.287 Y71.764
G1 X361.200 Y71.832
G1 X361.110 Y71.895
G1 X361.017 Y71.956
G1 X360.922 Y72.013
G1 X360.824 Y72.066
G1 X360.723 Y72.115
G1 X360.620 Y72.160
G1 X360.514 Y72.201
G1 X360.406 Y72.238
G1 X360.296 Y72.270
G1 X360.183 Y72.298
G1 X360.068 Y72.321
G1 X359.951 Y72.340
G1 X359.832 Y72.354
G1 X359.711 Y72.363
G1 X359.588 Y72.366
G1 X359.471 Y72.365
G1 X359.357 Y72.359
G1 X359.244 Y72.348
G1 X359.131 Y72.332
G1 X359.020 Y72.312
G1 X358.910 Y72.288
G1 X358.802 Y72.259
G1 X358.695 Y72.226
G1 X358.589 Y72.188
G1 X358.486 Y72.147
G1 X358.384 Y72.101
G1 X358.284 Y72.051
G1 X358.187 Y71.997
G1 X358.091 Y71.940
G1 X357.998 Y71.878
G1 X357.908 Y71.813
G1 X357.820 Y71.744
G1 X357.735 Y71.671
G1 X357.652 Y71.595
G1 X357.573 Y71.516
G1 X357.497 Y71.433
G1 X357.424 Y71.346
G1 X357.354 Y71.257
G1 X357.288 Y71.164
G1 X357.226 Y71.068
G1 X357.166 Y70.968
G1 X357.108 Y70.860
G1 X357.055 Y70.750
G1 X357.007 Y70.640
G1 X356.965 Y70.530
G1 X356.928 Y70.419
G1 X356.896 Y70.307
G1 X356.868 Y70.195
G1 X356.846 Y70.083
G1 X356.829 Y69.971
G1 X356.816 Y69.859
G1 X356.809 Y69.747
G1 X356.806 Y69.636
G1 X356.807 Y69.525
G1 X356.813 Y69.415
G1 X356.823 Y69.305
G1 X356.838 Y69.196
G1 X356.857 Y69.088
G1 X356.881 Y68.981
G1 X356.908 Y68.875
G1 X356.940 Y68.771
G1 X356.976 Y68.668
G1 X357.015 Y68.567
G1 X357.059 Y68.467
G1 X357.106 Y68.369
G1 X357.157 Y68.273
G1 X357.212 Y68.179
G1 X357.270 Y68.088
G1 X357.332 Y67.998
G1 X357.397 Y67.911
G1 X357.466 Y67.827
G1 X357.538 Y67.745
G1 X357.613 Y67.666
G1 X357.691 Y67.590
G1 X357.773 Y67.517
G1 X357.857 Y67.447
G1 X357.945 Y67.380
G1 X358.035 Y67.317
G1 X358.128 Y67.257
G1 X358.224 Y67.201
G1 X358.323 Y67.149
G1 X358.424 Y67.101
G1 X358.528 Y67.056
G1 X358.634 Y67.016
G1 X358.743 Y66.980
G1 X358.853 Y66.949
G1 X358.967 Y66.922
G1 X359.082 Y66.899
G1 X359.199 Y66.882
G1 X359.319 Y66.869
G1 X359.440 Y66.861
G1 X359.563 Y66.858
G1 X359.678 Y66.861
G1 X359.793 Y66.868
G1 X359.906 Y66.880
G1 X360.018 Y66.896
G1 X360.085 Y66.908
; Retract
G0 Z5.000

; Path 218
; Rapid to initial position
G0 X348.451 Y67.694
G0 Z0.000
; plunge
G1 Z-0.200 F4000
; cut
G1 X348.451 Y81.020 F4000
; Retract
G0 Z5.000

; Path 219
; Rapid to initial position
G0 X351.814 Y81.769
G0 Z0.000
; plunge
G1 Z-0.200 F4000
; cut
G1 X351.840 Y81.669 F4000
G1 X351.870 Y81.570
G1 X351.906 Y81.474
G1 X351.947 Y81.380
G1 X351.993 Y81.288
G1 X352.044 Y81.199
G1 X352.100 Y81.113
G1 X352.160 Y81.029
G1 X352.225 Y80.950
G1 X352.294 Y80.873
G1 X352.367 Y80.801
G1 X352.445 Y80.732
G1 X352.526 Y80.668
G1 X352.612 Y80.608
G1 X352.701 Y80.553
G1 X352.793 Y80.503
G1 X352.889 Y80.458
G1 X352.989 Y80.418
G1 X353.091 Y80.384
G1 X353.197 Y80.356
G1 X353.305 Y80.334
G1 X353.417 Y80.318
G1 X353.531 Y80.309
G1 X353.661 Y80.307
G1 X353.785 Y80.313
G1 X353.906 Y80.327
G1 X354.026 Y80.349
G1 X354.144 Y80.379
G1 X354.258 Y80.416
G1 X354.370 Y80.461
G1 X354.479 Y80.512
G1 X354.584 Y80.571
G1 X354.685 Y80.636
G1 X354.782 Y80.707
G1 X354.874 Y80.785
G1 X354.961 Y80.869
G1 X355.043 Y80.959
G1 X355.119 Y81.054
G1 X355.189 Y81.155
G1 X355.246 Y81.249
G1 X355.300 Y81.351
G1 X355.347 Y81.455
G1 X355.387 Y81.559
G1 X355.421 Y81.665
G1 X355.447 Y81.770
G1 X355.467 Y81.876
G1 X355.481 Y81.982
G1 X355.489 Y82.087
G1 X355.490 Y82.192
G1 X355.485 Y82.297
G1 X355.474 Y82.400
G1 X355.458 Y82.503
G1 X355.436 Y82.604
G1 X355.409 Y82.703
G1 X355.376 Y82.801
G1 X355.338 Y82.896
G1 X355.294 Y82.989
G1 X355.246 Y83.080
G1 X355.193 Y83.168
G1 X355.136 Y83.253
G1 X355.073 Y83.335
G1 X355.007 Y83.413
G1 X354.936 Y83.488
G1 X354.860 Y83.559
G1 X354.781 Y83.625
G1 X354.698 Y83.688
G1 X354.611 Y83.745
G1 X354.521 Y83.798
G1 X354.427 Y83.846
G1 X354.329 Y83.889
G1 X354.228 Y83.926
G1 X354.124 Y83.958
G1 X354.018 Y83.983
G1 X353.908 Y84.003
G1 X353.795 Y84.016
G1 X353.680 Y84.022
G1 X353.568 Y84.022
G1 X353.445 Y84.014
G1 X353.324 Y83.997
G1 X353.205 Y83.973
G1 X353.088 Y83.942
G1 X352.974 Y83.903
G1 X352.863 Y83.857
G1 X352.755 Y83.803
G1 X352.651 Y83.743
G1 X352.551 Y83.677
G1 X352.455 Y83.603
G1 X352.364 Y83.524
G1 X352.279 Y83.439
G1 X352.198 Y83.347
G1 X352.124 Y83.251
G1 X352.055 Y83.148
G1 X351.998 Y83.051
G1 X351.946 Y82.949
G1 X351.901 Y82.845
G1 X351.863 Y82.740
G1 X351.832 Y82.635
G1 X351.807 Y82.529
G1 X351.789 Y82.423
G1 X351.777 Y82.318
G1 X351.771 Y82.212
G1 X351.772 Y82.107
G1 X351.778 Y82.003
G1 X351.790 Y81.900
G1 X351.808 Y81.798
G1 X351.814 Y81.769
; Retract
G0 Z5.000

; Path 220
; Rapid to initial position
G0 X356.208 Y83.076
G0 Z0.000
; plunge
G1 Z-0.200 F4000
; cut
G1 X356.208 Y88.407 F4000
; Retract
G0 Z5.000

; Path 221
; Rapid to initial position
G0 X344.837 Y90.171
G0 Z0.000
; plunge
G1 Z-0.200 F4000
; cut
G1 X344.837 Y95.502 F4000
; Retract
G0 Z5.000

; Path 222
; Rapid to initial position
G0 X337.651 Y83.308
G0 Z0.000
; plunge
G1 Z-0.200 F4000
; cut
G1 X337.651 Y69.982 F4000
; Retract
G0 Z5.000

; Path 223
; Rapid to initial position
G0 X326.467 Y80.869
G0 Z0.000
; plunge
G1 Z-0.200 F4000
; cut
G1 X326.549 Y80.959 F4000
G1 X326.625 Y81.054
G1 X326.695 Y81.155
G1 X326.752 Y81.249
G1 X326.806 Y81.351
G1 X326.853 Y81.455
G1 X326.893 Y81.559
G1 X326.926 Y81.665
G1 X326.953 Y81.770
G1 X326.973 Y81.876
G1 X326.987 Y81.982
G1 X326.994 Y82.087
G1 X326.996 Y82.192
G1 X326.991 Y82.297
G1 X326.980 Y82.400
G1 X326.964 Y82.503
G1 X326.942 Y82.604
G1 X326.914 Y82.703
G1 X326.881 Y82.801
G1 X326.843 Y82.896
G1 X326.800 Y82.989
G1 X326.752 Y83.080
G1 X326.699 Y83.168
G1 X326.641 Y83.253
G1 X326.579 Y83.335
G1 X326.512 Y83.413
G1 X326.441 Y83.488
G1 X326.366 Y83.559
G1 X326.287 Y83.625
G1 X326.204 Y83.688
G1 X326.117 Y83.745
G1 X326.026 Y83.798
G1 X325.932 Y83.846
G1 X325.835 Y83.889
G1 X325.734 Y83.926
G1 X325.630 Y83.958
G1 X325.523 Y83.983
G1 X325.414 Y84.003
G1 X325.301 Y84.016
G1 X325.186 Y84.022
G1 X325.074 Y84.022
G1 X324.951 Y84.014
G1 X324.830 Y83.997
G1 X324.711 Y83.973
G1 X324.594 Y83.942
G1 X324.480 Y83.903
G1 X324.368 Y83.857
G1 X324.261 Y83.803
G1 X324.157 Y83.743
G1 X324.057 Y83.677
G1 X323.961 Y83.603
G1 X323.870 Y83.524
G1 X323.784 Y83.439
G1 X323.704 Y83.347
G1 X323.629 Y83.251
G1 X323.561 Y83.148
G1 X323.504 Y83.051
G1 X323.452 Y82.949
G1 X323.407 Y82.845
G1 X323.369 Y82.740
G1 X323.337 Y82.635
G1 X323.313 Y82.529
G1 X323.294 Y82.423
G1 X323.282 Y82.318
G1 X323.277 Y82.212
G1 X323.277 Y82.107
G1 X323.284 Y82.003
G1 X323.296 Y81.900
G1 X323.314 Y81.798
G1 X323.338 Y81.697
G1 X323.367 Y81.598
G1 X323.401 Y81.501
G1 X323.441 Y81.406
G1 X323.485 Y81.314
G1 X323.535 Y81.224
G1 X323.589 Y81.137
G1 X323.648 Y81.053
G1 X323.712 Y80.972
G1 X323.780 Y80.895
G1 X323.852 Y80.821
G1 X323.928 Y80.751
G1 X324.008 Y80.686
G1 X324.093 Y80.625
G1 X324.181 Y80.568
G1 X324.272 Y80.517
G1 X324.367 Y80.470
G1 X324.466 Y80.429
G1 X324.567 Y80.394
G1 X324.672 Y80.364
G1 X324.780 Y80.340
G1 X324.890 Y80.322
G1 X325.004 Y80.311
G1 X325.119 Y80.306
G1 X325.229 Y80.309
G1 X325.351 Y80.319
G1 X325.472 Y80.337
G1 X325.591 Y80.363
G1 X325.707 Y80.397
G1 X325.821 Y80.438
G1 X325.931 Y80.486
G1 X326.038 Y80.541
G1 X326.141 Y80.602
G1 X326.240 Y80.671
G1 X326.334 Y80.745
G1 X326.424 Y80.826
G1 X326.467 Y80.869
; Retract
G0 Z5.000

; Path 224
; Rapid to initial position
G0 X323.073 Y79.443
G0 Z0.000
; plunge
G1 Z-0.200 F4000
; cut
G1 X317.742 Y79.443 F4000
; Retract
G0 Z5.000

; Path 225
; Rapid to initial position
G0 X311.790 Y78.896
G0 Z0.000
; plunge
G1 Z-0.200 F4000
; cut
G1 X311.790 Y65.569 F4000
; Retract
G0 Z5.000

; Path 226
; Rapid to initial position
G0 X299.557 Y46.502
G0 Z0.000
; plunge
G1 Z-0.200 F4000
; cut
G1 X299.557 Y41.171 F4000
; Retract
G0 Z5.000

; Path 227
; Rapid to initial position
G0 X267.958 Y48.258
G0 Z0.000
; plunge
G1 Z-0.200 F4000
; cut
G1 X267.958 Y61.584 F4000
; Retract
G0 Z5.000

; Path 228
; Rapid to initial position
G0 X262.701 Y51.453
G0 Z0.000
; plunge
G1 Z-0.200 F4000
; cut
G1 X262.701 Y38.130 F4000
; Retract
G0 Z5.000

; Path 229
; Rapid to initial position
G0 X282.823 Y76.573
G0 Z0.000
; plunge
G1 Z-0.200 F4000
; cut
G1 X288.153 Y76.573 F4000
; Retract
G0 Z5.000

; Path 230
; Rapid to initial position
G0 X319.708 Y100.067
G0 Z0.000
; plunge
G1 Z-0.200 F4000
; cut
G1 X325.038 Y100.067 F4000
; Retract
G0 Z5.000

; Path 231
; Rapid to initial position
G0 X335.197 Y47.572
G0 Z0.000
; plunge
G1 Z-0.200 F4000
; cut
G1 X335.197 Y35.579 F4000
; Retract
G0 Z5.000

; Path 232
; Rapid to initial position
G0 X325.821 Y12.040
G0 Z0.000
; plunge
G1 Z-0.200 F4000
; cut
G1 X325.719 Y12.076 F4000
G1 X325.615 Y12.107
G1 X325.508 Y12.131
G1 X325.398 Y12.150
G1 X325.285 Y12.162
G1 X325.169 Y12.168
G1 X325.043 Y12.166
G1 X324.921 Y12.155
G1 X324.800 Y12.137
G1 X324.681 Y12.111
G1 X324.565 Y12.078
G1 X324.452 Y12.037
G1 X324.341 Y11.989
G1 X324.234 Y11.934
G1 X324.131 Y11.872
G1 X324.032 Y11.804
G1 X323.938 Y11.729
G1 X323.848 Y11.648
G1 X323.764 Y11.561
G1 X323.685 Y11.469
G1 X323.612 Y11.370
G1 X323.544 Y11.267
G1 X323.489 Y11.167
G1 X323.438 Y11.064
G1 X323.395 Y10.960
G1 X323.359 Y10.855
G1 X323.330 Y10.749
G1 X323.307 Y10.644
G1 X323.290 Y10.538
G1 X323.280 Y10.432
G1 X323.276 Y10.327
G1 X323.279 Y10.222
G1 X323.287 Y10.118
G1 X323.301 Y10.015
G1 X323.320 Y9.914
G1 X323.345 Y9.814
G1 X323.376 Y9.715
G1 X323.412 Y9.619
G1 X323.453 Y9.525
G1 X323.499 Y9.433
G1 X323.550 Y9.344
G1 X323.605 Y9.257
G1 X323.666 Y9.174
G1 X323.731 Y9.094
G1 X323.800 Y9.018
G1 X323.873 Y8.946
G1 X323.951 Y8.877
G1 X324.032 Y8.813
G1 X324.117 Y8.753
G1 X324.206 Y8.698
G1 X324.299 Y8.648
G1 X324.395 Y8.603
G1 X324.494 Y8.563
G1 X324.597 Y8.529
G1 X324.703 Y8.501
G1 X324.811 Y8.479
G1 X324.922 Y8.463
G1 X325.036 Y8.454
G1 X325.136 Y8.451
G1 X325.260 Y8.455
G1 X325.382 Y8.468
G1 X325.502 Y8.488
G1 X325.620 Y8.516
G1 X325.736 Y8.551
G1 X325.848 Y8.594
G1 X325.958 Y8.644
G1 X326.064 Y8.700
G1 X326.166 Y8.764
G1 X326.264 Y8.834
G1 X326.357 Y8.910
G1 X326.445 Y8.992
G1 X326.529 Y9.081
G1 X326.606 Y9.175
G1 X326.678 Y9.274
G1 X326.743 Y9.379
G1 X326.791 Y9.467
G1 X326.840 Y9.570
G1 X326.882 Y9.674
G1 X326.918 Y9.779
G1 X326.946 Y9.885
G1 X326.968 Y9.991
G1 X326.984 Y10.096
G1 X326.993 Y10.202
G1 X326.996 Y10.307
G1 X326.993 Y10.412
G1 X326.984 Y10.516
G1 X326.969 Y10.618
G1 X326.949 Y10.720
G1 X326.923 Y10.820
G1 X326.891 Y10.918
G1 X326.855 Y11.014
G1 X326.813 Y11.108
G1 X326.766 Y11.199
G1 X326.715 Y11.288
G1 X326.658 Y11.374
G1 X326.597 Y11.456
G1 X326.532 Y11.536
G1 X326.462 Y11.612
G1 X326.388 Y11.684
G1 X326.310 Y11.751
G1 X326.228 Y11.815
G1 X326.142 Y11.874
G1 X326.053 Y11.929
G1 X325.959 Y11.978
G1 X325.863 Y12.022
G1 X325.821 Y12.040
; Retract
G0 Z5.000

; Path 233
; Rapid to initial position
G0 X351.775 Y10.432
G0 Z0.000
; plunge
G1 Z-0.200 F4000
; cut
G1 X351.771 Y10.327 F4000
G1 X351.773 Y10.222
G1 X351.781 Y10.118
G1 X351.795 Y10.015
G1 X351.814 Y9.914
G1 X351.840 Y9.814
G1 X351.870 Y9.715
G1 X351.906 Y9.619
G1 X351.947 Y9.525
G1 X351.993 Y9.433
G1 X352.044 Y9.344
G1 X352.100 Y9.257
G1 X352.160 Y9.174
G1 X352.225 Y9.094
G1 X352.294 Y9.018
G1 X352.367 Y8.946
G1 X352.445 Y8.877
G1 X352.526 Y8.813
G1 X352.612 Y8.753
G1 X352.701 Y8.698
G1 X352.793 Y8.648
G1 X352.889 Y8.603
G1 X352.989 Y8.563
G1 X353.091 Y8.529
G1 X353.197 Y8.501
G1 X353.305 Y8.479
G1 X353.417 Y8.463
G1 X353.531 Y8.454
G1 X353.661 Y8.452
G1 X353.785 Y8.458
G1 X353.906 Y8.472
G1 X354.026 Y8.494
G1 X354.144 Y8.524
G1 X354.258 Y8.561
G1 X354.370 Y8.606
G1 X354.479 Y8.657
G1 X354.584 Y8.715
G1 X354.685 Y8.780
G1 X354.782 Y8.852
G1 X354.874 Y8.930
G1 X354.961 Y9.014
G1 X355.043 Y9.104
G1 X355.119 Y9.199
G1 X355.189 Y9.300
G1 X355.246 Y9.394
G1 X355.300 Y9.496
G1 X355.347 Y9.600
G1 X355.387 Y9.704
G1 X355.421 Y9.809
G1 X355.447 Y9.915
G1 X355.467 Y10.021
G1 X355.481 Y10.127
G1 X355.489 Y10.232
G1 X355.490 Y10.337
G1 X355.485 Y10.442
G1 X355.474 Y10.545
G1 X355.458 Y10.648
G1 X355.436 Y10.749
G1 X355.409 Y10.848
G1 X355.376 Y10.945
G1 X355.338 Y11.041
G1 X355.294 Y11.134
G1 X355.246 Y11.225
G1 X355.193 Y11.313
G1 X355.136 Y11.398
G1 X355.073 Y11.480
G1 X355.007 Y11.558
G1 X354.936 Y11.633
G1 X354.860 Y11.703
G1 X354.781 Y11.770
G1 X354.698 Y11.832
G1 X354.611 Y11.890
G1 X354.521 Y11.943
G1 X354.427 Y11.991
G1 X354.329 Y12.034
G1 X354.228 Y12.071
G1 X354.124 Y12.103
G1 X354.018 Y12.128
G1 X353.908 Y12.148
G1 X353.795 Y12.161
G1 X353.680 Y12.167
G1 X353.568 Y12.167
G1 X353.445 Y12.159
G1 X353.324 Y12.142
G1 X353.205 Y12.118
G1 X353.088 Y12.087
G1 X352.974 Y12.048
G1 X352.863 Y12.001
G1 X352.755 Y11.948
G1 X352.651 Y11.888
G1 X352.551 Y11.821
G1 X352.455 Y11.748
G1 X352.364 Y11.669
G1 X352.279 Y11.583
G1 X352.198 Y11.492
G1 X352.124 Y11.395
G1 X352.055 Y11.293
G1 X351.998 Y11.196
G1 X351.946 Y11.093
G1 X351.901 Y10.990
G1 X351.863 Y10.885
G1 X351.832 Y10.780
G1 X351.807 Y10.674
G1 X351.789 Y10.568
G1 X351.777 Y10.462
G1 X351.775 Y10.432
; Retract
G0 Z5.000

; Path 234
; Rapid to initial position
G0 X223.416 Y80.640
G0 Z0.000
; plunge
G1 Z-0.200 F4000
; cut
G1 X223.416 Y85.970 F4000
; Retract
G0 Z5.000

; Path 235
; Rapid to initial position
G0 X200.136 Y148.630
G0 Z0.000
; plunge
G1 Z-0.200 F4000
; cut
G1 X194.806 Y148.630 F4000
; Retract
G0 Z5.000

; Path 236
; Rapid to initial position
G0 X398.315 Y200.248
G0 Z0.000
; plunge
G1 Z-0.200 F4000
; cut
G1 X398.315 Y213.575 F4000
; Retract
G0 Z5.000

; Path 237
; Rapid to initial position
G0 X398.399 Y226.291
G0 Z0.000
; plunge
G1 Z-0.200 F4000
; cut
G1 X393.069 Y226.291 F4000
; Retract
G0 Z5.000
M5          ; Switch tool offEnd
