G21         ; Set units to mm
G90         ; Absolute positioning

;
; Operation:    0
; Type:         Mill Cut
; Paths:        190
; Direction:    Conventional
; Rapid Z:      5
; Start Z:      0
; End Z:        -0.2
; Pass Depth:   1
; Plunge rate:  1800 mm/min
; Cut rate:     1800 mm/min
;
; Retract
G0 Z5.000

; Path 0
; Rapid to initial position
G0 X194.868 Y281.251
G0 Z0.000
; plunge
G1 Z-0.200 F1800
; cut
G1 X178.304 Y281.251 F1800
G1 X178.304 Y242.696
G1 X194.868 Y242.696
G1 X194.868 Y281.251
G1 X194.868 Y281.251
; Retract
G0 Z5.000

; Path 1
; Rapid to initial position
G0 X186.586 Y288.646
G0 Z0.000
; plunge
G1 Z-0.200 F1800
; cut
G1 X186.586 Y250.091 F1800
; Retract
G0 Z5.000

; Path 2
; Rapid to initial position
G0 X155.912 Y263.069
G0 Z0.000
; plunge
G1 Z-0.200 F1800
; cut
G1 X155.912 Y275.668 F1800
; Retract
G0 Z5.000

; Path 3
; Rapid to initial position
G0 X86.237 Y267.015
G0 Z0.000
; plunge
G1 Z-0.200 F1800
; cut
G1 X85.045 Y267.015 F1800
G1 X85.045 Y261.640
G1 X86.237 Y261.640
G1 X86.237 Y267.015
G1 X86.237 Y267.015
; Retract
G0 Z5.000

; Path 4
; Rapid to initial position
G0 X85.641 Y265.886
G0 Z0.000
; plunge
G1 Z-0.200 F1800
; cut
G1 X85.641 Y271.261 F1800
; Retract
G0 Z5.000

; Path 5
; Rapid to initial position
G0 X81.819 Y273.792
G0 Z0.000
; plunge
G1 Z-0.200 F1800
; cut
G1 X81.819 Y228.939 F1800
; Retract
G0 Z5.000

; Path 6
; Rapid to initial position
G0 X79.188 Y228.806
G0 Z0.000
; plunge
G1 Z-0.200 F1800
; cut
G1 X78.844 Y228.806 F1800
G1 X78.844 Y243.359
G1 X75.488 Y243.359
G1 X75.488 Y228.806
G1 X78.844 Y228.806
G1 X78.844 Y217.426
G1 X78.848 Y202.768
G1 X78.844 Y217.426
G1 X77.948 Y217.426
G1 X77.948 Y223.831
G1 X76.742 Y223.831
G1 X76.742 Y217.426
G1 X77.197 Y217.426
G1 X77.197 Y209.174
G1 X77.493 Y209.174
G1 X77.493 Y203.823
G1 X77.197 Y203.823
G1 X77.197 Y209.174
G1 X76.742 Y209.174
G1 X76.742 Y217.426
G1 X75.843 Y217.426
G1 X75.843 Y202.768
G1 X78.844 Y202.768
G1 X78.844 Y198.158
G1 X85.845 Y198.158
G1 X85.845 Y250.494
G1 X78.844 Y250.494
G1 X78.844 Y243.359
G1 X79.188 Y243.359
G1 X79.188 Y228.806
; Retract
G0 Z5.000

; Path 7
; Rapid to initial position
G0 X77.345 Y228.128
G0 Z0.000
; plunge
G1 Z-0.200 F1800
; cut
G1 X77.345 Y213.470 F1800
; Retract
G0 Z5.000

; Path 8
; Rapid to initial position
G0 X77.338 Y215.632
G0 Z0.000
; plunge
G1 Z-0.200 F1800
; cut
G1 X77.338 Y230.184 F1800
; Retract
G0 Z5.000

; Path 9
; Rapid to initial position
G0 X76.510 Y236.082
G0 Z0.000
; plunge
G1 Z-0.200 F1800
; cut
G1 X80.209 Y236.082 F1800
; Retract
G0 Z5.000

; Path 10
; Rapid to initial position
G0 X78.166 Y236.082
G0 Z0.000
; plunge
G1 Z-0.200 F1800
; cut
G1 X74.467 Y236.082 F1800
; Retract
G0 Z5.000

; Path 11
; Rapid to initial position
G0 X77.338 Y241.981
G0 Z0.000
; plunge
G1 Z-0.200 F1800
; cut
G1 X77.338 Y256.533 F1800
; Retract
G0 Z5.000

; Path 12
; Rapid to initial position
G0 X77.345 Y258.695
G0 Z0.000
; plunge
G1 Z-0.200 F1800
; cut
G1 X77.345 Y244.037 F1800
; Retract
G0 Z5.000

; Path 13
; Rapid to initial position
G0 X76.137 Y252.641
G0 Z0.000
; plunge
G1 Z-0.200 F1800
; cut
G1 X78.553 Y252.641 F1800
G1 X78.553 Y267.298
G1 X76.137 Y267.298
G1 X76.137 Y252.641
; Retract
G0 Z5.000

; Path 14
; Rapid to initial position
G0 X77.166 Y259.970
G0 Z0.000
; plunge
G1 Z-0.200 F1800
; cut
G1 X79.582 Y259.970 F1800
; Retract
G0 Z5.000

; Path 15
; Rapid to initial position
G0 X79.878 Y259.970
G0 Z0.000
; plunge
G1 Z-0.200 F1800
; cut
G1 X77.462 Y259.970 F1800
; Retract
G0 Z5.000

; Path 16
; Rapid to initial position
G0 X77.524 Y259.970
G0 Z0.000
; plunge
G1 Z-0.200 F1800
; cut
G1 X75.108 Y259.970 F1800
; Retract
G0 Z5.000

; Path 17
; Rapid to initial position
G0 X83.760 Y259.970
G0 Z0.000
; plunge
G1 Z-0.200 F1800
; cut
G1 X86.176 Y259.970 F1800
; Retract
G0 Z5.000

; Path 18
; Rapid to initial position
G0 X85.646 Y260.625
G0 Z0.000
; plunge
G1 Z-0.200 F1800
; cut
G1 X85.646 Y255.320 F1800
; Retract
G0 Z5.000

; Path 19
; Rapid to initial position
G0 X85.737 Y254.669
G0 Z0.000
; plunge
G1 Z-0.200 F1800
; cut
G1 X84.810 Y254.669 F1800
; Retract
G0 Z5.000

; Path 20
; Rapid to initial position
G0 X85.555 Y254.669
G0 Z0.000
; plunge
G1 Z-0.200 F1800
; cut
G1 X86.482 Y254.669 F1800
; Retract
G0 Z5.000

; Path 21
; Rapid to initial position
G0 X85.646 Y254.019
G0 Z0.000
; plunge
G1 Z-0.200 F1800
; cut
G1 X85.646 Y248.713 F1800
; Retract
G0 Z5.000

; Path 22
; Rapid to initial position
G0 X85.182 Y252.017
G0 Z0.000
; plunge
G1 Z-0.200 F1800
; cut
G1 X86.110 Y252.017 F1800
G1 X86.110 Y257.322
G1 X85.182 Y257.322
G1 X85.182 Y252.017
; Retract
G0 Z5.000

; Path 23
; Rapid to initial position
G0 X85.641 Y257.394
G0 Z0.000
; plunge
G1 Z-0.200 F1800
; cut
G1 X85.641 Y262.769 F1800
; Retract
G0 Z5.000

; Path 24
; Rapid to initial position
G0 X85.860 Y264.328
G0 Z0.000
; plunge
G1 Z-0.200 F1800
; cut
G1 X84.668 Y264.328 F1800
; Retract
G0 Z5.000

; Path 25
; Rapid to initial position
G0 X85.422 Y264.328
G0 Z0.000
; plunge
G1 Z-0.200 F1800
; cut
G1 X86.614 Y264.328 F1800
; Retract
G0 Z5.000

; Path 26
; Rapid to initial position
G0 X82.344 Y275.425
G0 Z0.000
; plunge
G1 Z-0.200 F1800
; cut
G1 X82.344 Y223.089 F1800
; Retract
G0 Z5.000

; Path 27
; Rapid to initial position
G0 X82.171 Y224.326
G0 Z0.000
; plunge
G1 Z-0.200 F1800
; cut
G1 X75.170 Y224.326 F1800
; Retract
G0 Z5.000

; Path 28
; Rapid to initial position
G0 X77.345 Y219.535
G0 Z0.000
; plunge
G1 Z-0.200 F1800
; cut
G1 X77.345 Y204.877 F1800
; Retract
G0 Z5.000

; Path 29
; Rapid to initial position
G0 X77.345 Y202.768
G0 Z0.000
; plunge
G1 Z-0.200 F1800
; cut
G1 X77.345 Y217.426 F1800
; Retract
G0 Z5.000

; Path 30
; Rapid to initial position
G0 X77.197 Y217.426
G0 Z0.000
; plunge
G1 Z-0.200 F1800
; cut
G1 X77.197 Y218.480 F1800
G1 X77.493 Y218.480
G1 X77.493 Y217.426
G1 X77.948 Y217.426
G1 X77.948 Y209.174
G1 X77.493 Y209.174
G1 X77.493 Y217.426
G1 X77.197 Y217.426
; Retract
G0 Z5.000

; Path 31
; Rapid to initial position
G0 X76.920 Y216.503
G0 Z0.000
; plunge
G1 Z-0.200 F1800
; cut
G1 X75.713 Y216.503 F1800
; Retract
G0 Z5.000

; Path 32
; Rapid to initial position
G0 X77.771 Y216.503
G0 Z0.000
; plunge
G1 Z-0.200 F1800
; cut
G1 X78.977 Y216.503 F1800
; Retract
G0 Z5.000

; Path 33
; Rapid to initial position
G0 X82.518 Y224.326
G0 Z0.000
; plunge
G1 Z-0.200 F1800
; cut
G1 X89.519 Y224.326 F1800
; Retract
G0 Z5.000

; Path 34
; Rapid to initial position
G0 X99.009 Y211.741
G0 Z0.000
; plunge
G1 Z-0.200 F1800
; cut
G1 X99.009 Y197.113 F1800
G1 X101.071 Y197.113
G1 X101.071 Y211.741
G1 X99.009 Y211.741
; Retract
G0 Z5.000

; Path 35
; Rapid to initial position
G0 X98.831 Y210.819
G0 Z0.000
; plunge
G1 Z-0.200 F1800
; cut
G1 X98.425 Y210.819 F1800
; Retract
G0 Z5.000

; Path 36
; Rapid to initial position
G0 X101.249 Y210.819
G0 Z0.000
; plunge
G1 Z-0.200 F1800
; cut
G1 X101.655 Y210.819 F1800
; Retract
G0 Z5.000

; Path 37
; Rapid to initial position
G0 X100.040 Y206.400
G0 Z0.000
; plunge
G1 Z-0.200 F1800
; cut
G1 X100.040 Y191.772 F1800
; Retract
G0 Z5.000

; Path 38
; Rapid to initial position
G0 X99.659 Y204.427
G0 Z0.000
; plunge
G1 Z-0.200 F1800
; cut
G1 X97.597 Y204.427 F1800
; Retract
G0 Z5.000

; Path 39
; Rapid to initial position
G0 X100.421 Y204.427
G0 Z0.000
; plunge
G1 Z-0.200 F1800
; cut
G1 X102.483 Y204.427 F1800
; Retract
G0 Z5.000

; Path 40
; Rapid to initial position
G0 X88.527 Y179.125
G0 Z0.000
; plunge
G1 Z-0.200 F1800
; cut
G1 X88.527 Y173.224 F1800
; Retract
G0 Z5.000

; Path 41
; Rapid to initial position
G0 X85.326 Y173.140
G0 Z0.000
; plunge
G1 Z-0.200 F1800
; cut
G1 X74.532 Y173.140 F1800
; Retract
G0 Z5.000

; Path 42
; Rapid to initial position
G0 X73.184 Y172.382
G0 Z0.000
; plunge
G1 Z-0.200 F1800
; cut
G1 X73.184 Y179.967 F1800
; Retract
G0 Z5.000

; Path 43
; Rapid to initial position
G0 X73.184 Y173.899
G0 Z0.000
; plunge
G1 Z-0.200 F1800
; cut
G1 X73.184 Y166.314 F1800
; Retract
G0 Z5.000

; Path 44
; Rapid to initial position
G0 X73.184 Y164.463
G0 Z0.000
; plunge
G1 Z-0.200 F1800
; cut
G1 X73.184 Y172.048 F1800
; Retract
G0 Z5.000

; Path 45
; Rapid to initial position
G0 X73.184 Y172.015
G0 Z0.000
; plunge
G1 Z-0.200 F1800
; cut
G1 X73.184 Y164.430 F1800
; Retract
G0 Z5.000

; Path 46
; Rapid to initial position
G0 X73.154 Y164.447
G0 Z0.000
; plunge
G1 Z-0.200 F1800
; cut
G1 X73.213 Y169.348 F1800
G1 X73.154 Y172.031
G1 X73.213 Y169.348
G1 X78.580 Y169.348
G1 X78.580 Y176.933
G1 X67.787 Y176.933
G1 X67.787 Y169.348
G1 X73.154 Y169.348
G1 X73.154 Y164.447
; Retract
G0 Z5.000

; Path 47
; Rapid to initial position
G0 X74.707 Y167.740
G0 Z0.000
; plunge
G1 Z-0.200 F1800
; cut
G1 X74.707 Y160.139 F1800
G1 X51.406 Y160.139
G1 X51.406 Y158.255
G1 X74.707 Y158.255
G1 X74.707 Y155.605
G1 X82.091 Y155.605
G1 X82.091 Y150.871
G1 X100.805 Y150.871
G1 X100.805 Y147.737
G1 X112.997 Y147.737
G1 X112.997 Y145.136
G1 X109.456 Y145.136
G1 X109.456 Y144.970
G1 X112.997 Y144.970
G1 X112.997 Y144.188
G1 X116.368 Y144.188
G1 X116.368 Y143.327
G1 X117.762 Y143.327
G1 X117.762 Y140.236
G1 X120.900 Y140.236
G1 X120.900 Y129.058
G1 X120.823 Y126.953
G1 X120.900 Y124.965
G1 X122.489 Y124.965
G1 X122.489 Y120.477
G1 X122.978 Y120.477
G1 X122.978 Y113.425
G1 X129.819 Y113.425
G1 X129.819 Y111.234
G1 X128.253 Y111.234
G1 X127.764 Y111.162
G1 X119.328 Y111.234
G1 X119.328 Y113.425
G1 X122.489 Y113.425
G1 X122.489 Y120.477
G1 X120.900 Y120.477
G1 X120.900 Y124.965
G1 X117.762 Y124.965
G1 X117.762 Y140.236
G1 X116.368 Y140.236
G1 X116.368 Y143.327
G1 X112.997 Y143.327
G1 X112.997 Y144.188
G1 X109.456 Y144.188
G1 X109.456 Y144.970
G1 X100.805 Y144.970
G1 X100.805 Y145.136
G1 X109.456 Y145.136
G1 X109.456 Y146.716
G1 X100.805 Y146.716
G1 X100.805 Y147.737
G1 X82.091 Y147.737
G1 X82.091 Y147.920
G1 X79.929 Y147.920
G1 X79.929 Y149.804
G1 X82.091 Y149.804
G1 X82.091 Y147.920
G1 X83.279 Y147.920
G1 X83.279 Y149.804
G1 X82.091 Y149.804
G1 X82.091 Y150.871
G1 X74.707 Y150.871
G1 X74.707 Y155.605
G1 X29.851 Y155.605
G1 X29.851 Y140.236
G1 X29.999 Y140.236
G1 X53.030 Y140.152
G1 X53.030 Y137.242
G1 X49.439 Y137.242
G1 X49.439 Y134.082
G1 X53.030 Y134.082
G1 X53.030 Y130.201
G1 X59.690 Y130.201
G1 X59.690 Y128.621
G1 X60.394 Y128.621
G1 X60.394 Y121.207
G1 X59.690 Y121.207
G1 X59.690 Y128.621
G1 X53.030 Y128.621
G1 X53.030 Y130.201
G1 X47.204 Y130.201
G1 X47.204 Y130.399
G1 X47.204 Y130.503
G1 X29.028 Y130.503
G1 X29.028 Y122.450
G1 X44.998 Y122.450
G1 X44.998 Y114.167
G1 X53.030 Y114.167
G1 X53.030 Y113.380
G1 X74.168 Y113.380
G1 X74.168 Y120.228
G1 X65.188 Y120.228
G1 X65.188 Y128.621
G1 X61.260 Y128.621
G1 X61.260 Y130.201
G1 X61.011 Y130.201
G1 X61.011 Y132.851
G1 X60.394 Y132.851
G1 X60.394 Y134.735
G1 X56.476 Y134.735
G1 X56.476 Y134.082
G1 X59.690 Y134.082
G1 X59.690 Y132.851
G1 X60.394 Y132.851
G1 X60.394 Y130.201
G1 X61.011 Y130.201
G1 X61.011 Y128.621
G1 X61.260 Y128.621
G1 X61.260 Y120.228
G1 X65.188 Y120.228
G1 X65.188 Y115.746
G1 X61.260 Y115.746
G1 X61.260 Y120.228
G1 X61.011 Y120.228
G1 X61.011 Y128.621
G1 X60.394 Y128.621
G1 X60.394 Y130.201
G1 X59.690 Y130.201
G1 X59.690 Y132.851
G1 X56.476 Y132.851
G1 X56.476 Y134.082
G1 X53.030 Y134.082
G1 X53.030 Y137.242
G1 X59.690 Y137.242
G1 X59.690 Y140.152
G1 X53.030 Y140.152
G1 X29.999 Y140.236
G1 X29.999 Y147.737
G1 X38.271 Y147.737
G1 X38.271 Y144.970
G1 X53.030 Y144.970
G1 X53.030 Y140.236
G1 X59.690 Y140.236
G1 X60.394 Y140.152
G1 X60.394 Y134.735
G1 X61.011 Y134.735
G1 X61.011 Y132.851
G1 X74.168 Y132.851
G1 X74.168 Y120.228
G1 X82.149 Y120.228
G1 X82.149 Y124.965
G1 X74.707 Y124.965
G1 X74.707 Y132.851
G1 X74.168 Y132.851
G1 X74.168 Y134.735
G1 X61.011 Y134.735
G1 X61.011 Y140.152
G1 X60.394 Y140.152
G1 X59.690 Y140.236
G1 X59.690 Y144.970
G1 X53.030 Y144.970
G1 X53.030 Y147.737
G1 X38.271 Y147.737
G1 X38.271 Y150.871
G1 X53.030 Y150.871
G1 X53.030 Y147.737
G1 X59.690 Y147.737
G1 X59.690 Y144.970
G1 X60.394 Y144.970
G1 X60.394 Y140.236
G1 X61.011 Y140.236
G1 X74.168 Y140.152
G1 X74.168 Y134.735
G1 X74.707 Y134.735
G1 X74.707 Y132.851
G1 X82.149 Y132.851
G1 X82.149 Y124.965
G1 X98.965 Y124.965
G1 X98.965 Y124.476
G1 X100.805 Y124.476
G1 X100.805 Y99.422
G1 X103.132 Y99.422
G1 X103.132 Y87.371
G1 X109.228 Y87.371
G1 X109.228 Y99.422
G1 X103.132 Y99.422
G1 X103.132 Y124.476
G1 X100.805 Y124.476
G1 X100.805 Y124.965
G1 X98.965 Y124.965
G1 X98.965 Y132.851
G1 X82.149 Y132.851
G1 X82.149 Y134.735
G1 X74.707 Y134.735
G1 X74.707 Y140.152
G1 X74.168 Y140.152
G1 X61.011 Y140.236
G1 X61.011 Y144.970
G1 X60.394 Y144.970
G1 X60.394 Y147.737
G1 X59.690 Y147.737
G1 X59.690 Y150.871
G1 X53.030 Y150.871
G1 X53.030 Y152.857
G1 X59.690 Y152.857
G1 X59.690 Y150.871
G1 X60.394 Y150.871
G1 X60.394 Y147.737
G1 X74.168 Y147.737
G1 X74.168 Y146.009
G1 X74.707 Y146.009
G1 X74.707 Y144.970
G1 X82.091 Y144.970
G1 X82.091 Y144.188
G1 X82.149 Y140.236
G1 X98.965 Y140.236
G1 X100.805 Y140.152
G1 X100.805 Y134.735
G1 X106.732 Y134.735
G1 X106.732 Y132.851
G1 X100.805 Y132.851
G1 X100.805 Y134.735
G1 X98.965 Y134.735
G1 X98.965 Y140.152
G1 X82.149 Y140.152
G1 X74.707 Y140.236
G1 X74.707 Y144.970
G1 X74.168 Y144.970
G1 X74.168 Y146.009
G1 X61.011 Y146.009
G1 X61.011 Y144.970
G1 X74.168 Y144.970
G1 X74.168 Y140.236
G1 X74.707 Y140.236
G1 X82.149 Y140.152
G1 X82.149 Y134.735
G1 X98.965 Y134.735
G1 X98.965 Y132.851
G1 X100.805 Y132.851
G1 X100.805 Y124.965
G1 X103.132 Y124.965
G1 X103.132 Y124.476
G1 X109.228 Y124.476
G1 X109.228 Y102.945
G1 X112.235 Y102.945
G1 X112.235 Y100.840
G1 X109.228 Y100.840
G1 X109.228 Y102.945
G1 X109.175 Y100.840
G1 X109.228 Y99.422
G1 X112.997 Y99.422
G1 X112.997 Y124.965
G1 X109.456 Y124.965
G1 X109.456 Y140.152
G1 X100.805 Y140.152
G1 X98.965 Y140.236
G1 X98.965 Y143.327
G1 X95.692 Y143.327
G1 X95.692 Y144.188
G1 X82.149 Y144.188
G1 X82.149 Y144.970
G1 X82.091 Y146.009
G1 X74.707 Y146.009
G1 X74.707 Y147.737
G1 X74.168 Y147.737
G1 X74.168 Y150.871
G1 X60.394 Y150.871
G1 X60.394 Y152.857
G1 X59.690 Y152.857
G1 X59.690 Y153.276
G1 X60.394 Y153.276
G1 X60.394 Y152.857
G1 X74.168 Y152.857
G1 X74.168 Y150.871
G1 X74.707 Y150.871
G1 X74.707 Y147.737
G1 X82.091 Y147.737
G1 X82.091 Y146.009
G1 X82.149 Y144.970
G1 X95.692 Y144.970
G1 X95.692 Y144.188
G1 X98.965 Y144.188
G1 X98.965 Y143.327
G1 X100.805 Y143.327
G1 X100.805 Y140.236
G1 X109.456 Y140.236
G1 X112.997 Y140.152
G1 X112.997 Y124.965
G1 X117.762 Y124.965
G1 X117.762 Y100.657
G1 X129.954 Y100.657
G1 X129.954 Y124.965
G1 X127.742 Y124.965
G1 X127.742 Y126.953
G1 X122.978 Y126.953
G1 X122.978 Y129.058
G1 X127.742 Y129.058
G1 X127.742 Y140.236
G1 X122.978 Y140.236
G1 X122.978 Y143.327
G1 X122.489 Y143.327
G1 X122.489 Y144.188
G1 X120.900 Y144.188
G1 X120.900 Y144.970
G1 X117.762 Y144.970
G1 X117.762 Y145.136
G1 X120.900 Y145.136
G1 X120.900 Y150.419
G1 X117.762 Y150.419
G1 X117.762 Y145.136
G1 X116.368 Y145.136
G1 X116.368 Y144.970
G1 X117.762 Y144.970
G1 X117.762 Y144.188
G1 X120.900 Y144.188
G1 X120.900 Y143.327
G1 X122.489 Y143.327
G1 X122.489 Y140.236
G1 X122.978 Y140.236
G1 X122.978 Y129.058
G1 X122.489 Y129.058
G1 X122.489 Y126.953
G1 X122.978 Y126.953
G1 X122.978 Y124.965
G1 X127.742 Y124.965
G1 X127.742 Y120.477
G1 X122.978 Y120.477
G1 X122.978 Y124.965
G1 X122.489 Y124.965
G1 X122.489 Y126.953
G1 X120.900 Y126.953
G1 X120.900 Y129.058
G1 X122.489 Y129.058
G1 X122.489 Y140.236
G1 X120.900 Y140.236
G1 X120.900 Y143.327
G1 X117.762 Y143.327
G1 X117.762 Y144.188
G1 X116.368 Y144.188
G1 X116.368 Y144.970
G1 X112.997 Y144.970
G1 X112.997 Y145.136
G1 X116.368 Y145.136
G1 X116.368 Y147.737
G1 X112.997 Y147.737
G1 X112.997 Y150.871
G1 X100.805 Y150.871
G1 X100.805 Y151.653
G1 X112.997 Y151.653
G1 X112.997 Y150.871
G1 X120.900 Y150.871
G1 X120.900 Y150.419
G1 X122.489 Y150.419
G1 X122.489 Y145.136
G1 X120.900 Y145.136
G1 X120.900 Y144.970
G1 X122.489 Y144.970
G1 X122.489 Y144.188
G1 X122.978 Y144.188
G1 X122.978 Y143.327
G1 X127.742 Y143.327
G1 X127.742 Y140.236
G1 X129.954 Y140.236
G1 X129.954 Y129.058
G1 X127.742 Y129.058
G1 X127.742 Y126.953
G1 X129.954 Y126.953
G1 X129.954 Y124.965
G1 X158.298 Y124.965
G1 X158.298 Y143.327
G1 X143.727 Y143.327
G1 X143.727 Y144.188
G1 X140.834 Y144.188
G1 X140.834 Y145.136
G1 X143.727 Y145.136
G1 X143.727 Y163.751
G1 X140.834 Y163.751
G1 X140.834 Y145.136
G1 X138.783 Y145.136
G1 X138.783 Y144.970
G1 X130.363 Y144.970
G1 X130.363 Y145.136
G1 X138.783 Y145.136
G1 X138.783 Y150.871
G1 X130.881 Y150.871
G1 X130.884 Y152.796
G1 X130.395 Y152.796
G1 X130.397 Y153.738
G1 X130.885 Y153.738
G1 X130.884 Y152.796
G1 X131.416 Y152.796
G1 X131.416 Y158.381
G1 X129.850 Y158.381
G1 X129.846 Y155.605
G1 X130.363 Y155.605
G1 X130.363 Y152.796
G1 X130.392 Y150.871
G1 X130.881 Y150.871
G1 X130.877 Y148.226
G1 X130.388 Y148.226
G1 X130.392 Y150.871
G1 X130.363 Y152.796
G1 X129.842 Y152.796
G1 X129.846 Y155.605
G1 X127.742 Y155.605
G1 X127.742 Y167.082
G1 X120.900 Y167.082
G1 X120.900 Y155.605
G1 X122.489 Y155.605
G1 X122.489 Y150.871
G1 X122.978 Y150.871
G1 X122.978 Y150.419
G1 X127.742 Y150.419
G1 X127.742 Y145.136
G1 X122.978 Y145.136
G1 X122.978 Y144.970
G1 X127.742 Y144.970
G1 X127.742 Y144.188
G1 X129.954 Y144.188
G1 X129.954 Y143.327
G1 X130.363 Y143.327
G1 X130.363 Y140.236
G1 X129.954 Y140.236
G1 X129.954 Y143.327
G1 X127.742 Y143.327
G1 X127.742 Y144.188
G1 X122.978 Y144.188
G1 X122.978 Y144.970
G1 X122.489 Y144.970
G1 X122.489 Y145.136
G1 X122.978 Y145.136
G1 X122.978 Y150.419
G1 X122.489 Y150.419
G1 X122.489 Y150.871
G1 X120.900 Y150.871
G1 X120.900 Y155.605
G1 X82.091 Y155.605
G1 X82.091 Y158.255
G1 X74.707 Y158.255
G1 X74.707 Y160.139
G1 X82.091 Y160.139
G1 X82.091 Y167.722
G1 X84.226 Y167.722
G1 X84.226 Y160.139
G1 X82.091 Y160.139
G1 X82.091 Y158.255
G1 X98.312 Y158.255
G1 X98.312 Y160.139
G1 X87.518 Y160.139
G1 X87.518 Y167.722
G1 X84.226 Y167.722
G1 X87.518 Y167.723
G1 X154.020 Y167.722
G1 X154.020 Y145.136
G1 X143.727 Y145.136
G1 X143.727 Y144.188
G1 X154.020 Y144.188
G1 X154.020 Y145.136
G1 X158.298 Y145.136
G1 X158.298 Y167.740
G1 X74.707 Y167.740
; Retract
G0 Z5.000

; Path 48
; Rapid to initial position
G0 X79.900 Y168.239
G0 Z0.000
; plunge
G1 Z-0.200 F1800
; cut
G1 X79.958 Y168.239 F1800
; Retract
G0 Z5.000

; Path 49
; Rapid to initial position
G0 X81.604 Y175.233
G0 Z0.000
; plunge
G1 Z-0.200 F1800
; cut
G1 X81.604 Y177.116 F1800
; Retract
G0 Z5.000

; Path 50
; Rapid to initial position
G0 X71.835 Y173.140
G0 Z0.000
; plunge
G1 Z-0.200 F1800
; cut
G1 X61.042 Y173.140 F1800
; Retract
G0 Z5.000

; Path 51
; Rapid to initial position
G0 X64.792 Y169.181
G0 Z0.000
; plunge
G1 Z-0.200 F1800
; cut
G1 X68.084 Y169.181 F1800
; Retract
G0 Z5.000

; Path 52
; Rapid to initial position
G0 X66.467 Y168.239
G0 Z0.000
; plunge
G1 Z-0.200 F1800
; cut
G1 X66.409 Y168.239 F1800
; Retract
G0 Z5.000

; Path 53
; Rapid to initial position
G0 X57.057 Y165.082
G0 Z0.000
; plunge
G1 Z-0.200 F1800
; cut
G1 X57.057 Y152.207 F1800
; Retract
G0 Z5.000

; Path 54
; Rapid to initial position
G0 X53.129 Y150.628
G0 Z0.000
; plunge
G1 Z-0.200 F1800
; cut
G1 X53.129 Y166.662 F1800
; Retract
G0 Z5.000

; Path 55
; Rapid to initial position
G0 X51.694 Y160.225
G0 Z0.000
; plunge
G1 Z-0.200 F1800
; cut
G1 X50.989 Y160.225 F1800
; Retract
G0 Z5.000

; Path 56
; Rapid to initial position
G0 X58.140 Y160.225
G0 Z0.000
; plunge
G1 Z-0.200 F1800
; cut
G1 X58.845 Y160.225 F1800
; Retract
G0 Z5.000

; Path 57
; Rapid to initial position
G0 X61.161 Y155.955
G0 Z0.000
; plunge
G1 Z-0.200 F1800
; cut
G1 X133.090 Y155.955 F1800
; Retract
G0 Z5.000

; Path 58
; Rapid to initial position
G0 X132.038 Y155.589
G0 Z0.000
; plunge
G1 Z-0.200 F1800
; cut
G1 X130.464 Y155.589 F1800
; Retract
G0 Z5.000

; Path 59
; Rapid to initial position
G0 X130.789 Y155.608
G0 Z0.000
; plunge
G1 Z-0.200 F1800
; cut
G1 X129.223 Y155.608 F1800
; Retract
G0 Z5.000

; Path 60
; Rapid to initial position
G0 X127.742 Y155.605
G0 Z0.000
; plunge
G1 Z-0.200 F1800
; cut
G1 X127.742 Y150.871 F1800
G1 X130.363 Y150.871
G1 X130.363 Y145.136
G1 X129.954 Y145.136
G1 X129.954 Y144.970
G1 X130.363 Y144.970
G1 X130.363 Y144.188
G1 X140.834 Y144.188
G1 X140.834 Y143.327
G1 X143.727 Y143.327
G1 X143.727 Y141.511
G1 X140.834 Y141.511
G1 X140.834 Y143.327
G1 X130.363 Y143.327
G1 X130.363 Y144.188
G1 X129.954 Y144.188
G1 X129.954 Y144.970
G1 X127.742 Y144.970
G1 X127.742 Y145.136
G1 X129.954 Y145.136
G1 X129.954 Y150.419
G1 X127.742 Y150.419
G1 X127.742 Y150.871
G1 X122.978 Y150.871
G1 X122.978 Y155.605
G1 X122.489 Y155.605
G1 X122.489 Y160.030
G1 X122.978 Y160.030
G1 X122.978 Y155.605
G1 X127.742 Y155.605
; Retract
G0 Z5.000

; Path 61
; Rapid to initial position
G0 X130.629 Y156.326
G0 Z0.000
; plunge
G1 Z-0.200 F1800
; cut
G1 X130.629 Y161.910 F1800
; Retract
G0 Z5.000

; Path 62
; Rapid to initial position
G0 X129.762 Y160.214
G0 Z0.000
; plunge
G1 Z-0.200 F1800
; cut
G1 X129.762 Y158.023 F1800
; Retract
G0 Z5.000

; Path 63
; Rapid to initial position
G0 X130.633 Y154.870
G0 Z0.000
; plunge
G1 Z-0.200 F1800
; cut
G1 X130.624 Y149.286 F1800
; Retract
G0 Z5.000

; Path 64
; Rapid to initial position
G0 X130.624 Y147.095
G0 Z0.000
; plunge
G1 Z-0.200 F1800
; cut
G1 X130.633 Y152.679 F1800
; Retract
G0 Z5.000

; Path 65
; Rapid to initial position
G0 X133.535 Y147.920
G0 Z0.000
; plunge
G1 Z-0.200 F1800
; cut
G1 X33.023 Y147.920 F1800
; Retract
G0 Z5.000

; Path 66
; Rapid to initial position
G0 X36.745 Y143.944
G0 Z0.000
; plunge
G1 Z-0.200 F1800
; cut
G1 X123.113 Y143.944 F1800
; Retract
G0 Z5.000

; Path 67
; Rapid to initial position
G0 X116.503 Y140.603
G0 Z0.000
; plunge
G1 Z-0.200 F1800
; cut
G1 X116.503 Y97.828 F1800
; Retract
G0 Z5.000

; Path 68
; Rapid to initial position
G0 X120.085 Y99.307
G0 Z0.000
; plunge
G1 Z-0.200 F1800
; cut
G1 X120.085 Y88.627 F1800
; Retract
G0 Z5.000

; Path 69
; Rapid to initial position
G0 X122.350 Y89.679
G0 Z0.000
; plunge
G1 Z-0.200 F1800
; cut
G1 X122.350 Y98.255 F1800
; Retract
G0 Z5.000

; Path 70
; Rapid to initial position
G0 X122.850 Y100.840
G0 Z0.000
; plunge
G1 Z-0.200 F1800
; cut
G1 X119.789 Y100.840 F1800
G1 X119.789 Y102.945
G1 X121.851 Y102.945
G1 X121.851 Y100.840
G1 X122.850 Y100.840
G1 X122.850 Y100.840
; Retract
G0 Z5.000

; Path 71
; Rapid to initial position
G0 X122.850 Y100.840
G0 Z0.000
; plunge
G1 Z-0.200 F1800
; cut
G1 X122.850 Y102.945 F1800
G1 X121.851 Y102.945
G1 X124.912 Y102.945
G1 X124.912 Y100.840
G1 X122.850 Y100.840
G1 X122.850 Y100.840
; Retract
G0 Z5.000

; Path 72
; Rapid to initial position
G0 X123.382 Y95.020
G0 Z0.000
; plunge
G1 Z-0.200 F1800
; cut
G1 X123.382 Y92.915 F1800
; Retract
G0 Z5.000

; Path 73
; Rapid to initial position
G0 X123.426 Y92.741
G0 Z0.000
; plunge
G1 Z-0.200 F1800
; cut
G1 X123.426 Y119.037 F1800
; Retract
G0 Z5.000

; Path 74
; Rapid to initial position
G0 X122.570 Y126.249
G0 Z0.000
; plunge
G1 Z-0.200 F1800
; cut
G1 X107.910 Y126.249 F1800
; Retract
G0 Z5.000

; Path 75
; Rapid to initial position
G0 X109.228 Y124.965
G0 Z0.000
; plunge
G1 Z-0.200 F1800
; cut
G1 X103.132 Y124.965 F1800
G1 X103.132 Y132.134
G1 X109.228 Y132.134
G1 X109.228 Y124.965
G1 X109.456 Y124.965
G1 X109.456 Y124.476
G1 X109.228 Y124.476
G1 X109.228 Y124.965
; Retract
G0 Z5.000

; Path 76
; Rapid to initial position
G0 X109.742 Y126.759
G0 Z0.000
; plunge
G1 Z-0.200 F1800
; cut
G1 X84.510 Y126.759 F1800
; Retract
G0 Z5.000

; Path 77
; Rapid to initial position
G0 X84.448 Y125.071
G0 Z0.000
; plunge
G1 Z-0.200 F1800
; cut
G1 X84.448 Y98.775 F1800
; Retract
G0 Z5.000

; Path 78
; Rapid to initial position
G0 X84.651 Y97.722
G0 Z0.000
; plunge
G1 Z-0.200 F1800
; cut
G1 X84.651 Y124.018 F1800
G1 X84.245 Y124.018
G1 X84.245 Y97.722
G1 X84.651 Y97.722
; Retract
G0 Z5.000

; Path 79
; Rapid to initial position
G0 X89.456 Y101.242
G0 Z0.000
; plunge
G1 Z-0.200 F1800
; cut
G1 X89.456 Y122.603 F1800
; Retract
G0 Z5.000

; Path 80
; Rapid to initial position
G0 X88.527 Y122.617
G0 Z0.000
; plunge
G1 Z-0.200 F1800
; cut
G1 X88.527 Y116.716 F1800
; Retract
G0 Z5.000

; Path 81
; Rapid to initial position
G0 X88.424 Y115.158
G0 Z0.000
; plunge
G1 Z-0.200 F1800
; cut
G1 X88.018 Y115.158 F1800
G1 X88.018 Y106.582
G1 X88.424 Y106.582
G1 X88.424 Y115.158
G1 X88.424 Y115.158
; Retract
G0 Z5.000

; Path 82
; Rapid to initial position
G0 X90.284 Y116.211
G0 Z0.000
; plunge
G1 Z-0.200 F1800
; cut
G1 X90.284 Y105.530 F1800
G1 X90.690 Y105.530
G1 X90.690 Y116.211
G1 X90.284 Y116.211
; Retract
G0 Z5.000

; Path 83
; Rapid to initial position
G0 X94.893 Y110.978
G0 Z0.000
; plunge
G1 Z-0.200 F1800
; cut
G1 X95.381 Y110.978 F1800
; Retract
G0 Z5.000

; Path 84
; Rapid to initial position
G0 X100.998 Y110.978
G0 Z0.000
; plunge
G1 Z-0.200 F1800
; cut
G1 X101.487 Y110.978 F1800
; Retract
G0 Z5.000

; Path 85
; Rapid to initial position
G0 X101.487 Y110.978
G0 Z0.000
; plunge
G1 Z-0.200 F1800
; cut
G1 X101.975 Y110.978 F1800
; Retract
G0 Z5.000

; Path 86
; Rapid to initial position
G0 X103.478 Y110.978
G0 Z0.000
; plunge
G1 Z-0.200 F1800
; cut
G1 X103.966 Y110.978 F1800
; Retract
G0 Z5.000

; Path 87
; Rapid to initial position
G0 X103.966 Y110.978
G0 Z0.000
; plunge
G1 Z-0.200 F1800
; cut
G1 X104.455 Y110.978 F1800
; Retract
G0 Z5.000

; Path 88
; Rapid to initial position
G0 X104.211 Y112.074
G0 Z0.000
; plunge
G1 Z-0.200 F1800
; cut
G1 X103.722 Y112.074 F1800
G1 X103.722 Y109.882
G1 X104.211 Y109.882
G1 X104.211 Y112.074
G1 X104.211 Y112.074
; Retract
G0 Z5.000

; Path 89
; Rapid to initial position
G0 X106.446 Y110.978
G0 Z0.000
; plunge
G1 Z-0.200 F1800
; cut
G1 X106.935 Y110.978 F1800
; Retract
G0 Z5.000

; Path 90
; Rapid to initial position
G0 X106.180 Y105.261
G0 Z0.000
; plunge
G1 Z-0.200 F1800
; cut
G1 X106.180 Y150.024 F1800
; Retract
G0 Z5.000

; Path 91
; Rapid to initial position
G0 X106.180 Y147.919
G0 Z0.000
; plunge
G1 Z-0.200 F1800
; cut
G1 X106.180 Y103.156 F1800
; Retract
G0 Z5.000

; Path 92
; Rapid to initial position
G0 X100.040 Y101.281
G0 Z0.000
; plunge
G1 Z-0.200 F1800
; cut
G1 X100.040 Y86.653 F1800
; Retract
G0 Z5.000

; Path 93
; Rapid to initial position
G0 X111.426 Y91.285
G0 Z0.000
; plunge
G1 Z-0.200 F1800
; cut
G1 X111.426 Y96.649 F1800
; Retract
G0 Z5.000

; Path 94
; Rapid to initial position
G0 X110.705 Y95.020
G0 Z0.000
; plunge
G1 Z-0.200 F1800
; cut
G1 X110.705 Y92.915 F1800
; Retract
G0 Z5.000

; Path 95
; Rapid to initial position
G0 X121.319 Y92.915
G0 Z0.000
; plunge
G1 Z-0.200 F1800
; cut
G1 X121.319 Y95.020 F1800
; Retract
G0 Z5.000

; Path 96
; Rapid to initial position
G0 X130.727 Y102.554
G0 Z0.000
; plunge
G1 Z-0.200 F1800
; cut
G1 X130.727 Y85.381 F1800
; Retract
G0 Z5.000

; Path 97
; Rapid to initial position
G0 X122.790 Y109.814
G0 Z0.000
; plunge
G1 Z-0.200 F1800
; cut
G1 X115.460 Y109.814 F1800
; Retract
G0 Z5.000

; Path 98
; Rapid to initial position
G0 X111.306 Y126.249
G0 Z0.000
; plunge
G1 Z-0.200 F1800
; cut
G1 X125.966 Y126.249 F1800
; Retract
G0 Z5.000

; Path 99
; Rapid to initial position
G0 X124.321 Y135.816
G0 Z0.000
; plunge
G1 Z-0.200 F1800
; cut
G1 X124.321 Y182.421 F1800
; Retract
G0 Z5.000

; Path 100
; Rapid to initial position
G0 X104.211 Y170.238
G0 Z0.000
; plunge
G1 Z-0.200 F1800
; cut
G1 X104.211 Y147.998 F1800
; Retract
G0 Z5.000

; Path 101
; Rapid to initial position
G0 X100.805 Y146.716
G0 Z0.000
; plunge
G1 Z-0.200 F1800
; cut
G1 X100.805 Y145.136 F1800
G1 X98.965 Y145.136
G1 X98.965 Y144.970
G1 X100.805 Y144.970
G1 X100.805 Y144.188
G1 X109.456 Y144.188
G1 X109.456 Y143.327
G1 X112.997 Y143.327
G1 X112.997 Y140.236
G1 X116.368 Y140.236
G1 X112.997 Y140.152
G1 X109.456 Y140.236
G1 X109.456 Y143.327
G1 X100.805 Y143.327
G1 X100.805 Y144.188
G1 X98.965 Y144.188
G1 X98.965 Y144.970
G1 X95.692 Y144.970
G1 X95.692 Y145.136
G1 X98.965 Y145.136
G1 X98.965 Y146.716
G1 X100.805 Y146.716
; Retract
G0 Z5.000

; Path 102
; Rapid to initial position
G0 X98.190 Y145.429
G0 Z0.000
; plunge
G1 Z-0.200 F1800
; cut
G1 X98.190 Y172.807 F1800
; Retract
G0 Z5.000

; Path 103
; Rapid to initial position
G0 X81.604 Y150.746
G0 Z0.000
; plunge
G1 Z-0.200 F1800
; cut
G1 X81.604 Y148.862 F1800
; Retract
G0 Z5.000

; Path 104
; Rapid to initial position
G0 X81.604 Y148.862
G0 Z0.000
; plunge
G1 Z-0.200 F1800
; cut
G1 X81.604 Y146.978 F1800
; Retract
G0 Z5.000

; Path 105
; Rapid to initial position
G0 X86.714 Y134.699
G0 Z0.000
; plunge
G1 Z-0.200 F1800
; cut
G1 X86.714 Y84.937 F1800
; Retract
G0 Z5.000

; Path 106
; Rapid to initial position
G0 X89.988 Y101.893
G0 Z0.000
; plunge
G1 Z-0.200 F1800
; cut
G1 X93.048 Y101.893 F1800
; Retract
G0 Z5.000

; Path 107
; Rapid to initial position
G0 X81.604 Y118.724
G0 Z0.000
; plunge
G1 Z-0.200 F1800
; cut
G1 X81.604 Y120.608 F1800
; Retract
G0 Z5.000

; Path 108
; Rapid to initial position
G0 X73.184 Y123.458
G0 Z0.000
; plunge
G1 Z-0.200 F1800
; cut
G1 X73.184 Y115.874 F1800
; Retract
G0 Z5.000

; Path 109
; Rapid to initial position
G0 X66.623 Y122.184
G0 Z0.000
; plunge
G1 Z-0.200 F1800
; cut
G1 X50.362 Y122.184 F1800
; Retract
G0 Z5.000

; Path 110
; Rapid to initial position
G0 X47.491 Y122.184
G0 Z0.000
; plunge
G1 Z-0.200 F1800
; cut
G1 X63.752 Y122.184 F1800
; Retract
G0 Z5.000

; Path 111
; Rapid to initial position
G0 X63.048 Y122.184
G0 Z0.000
; plunge
G1 Z-0.200 F1800
; cut
G1 X46.786 Y122.184 F1800
; Retract
G0 Z5.000

; Path 112
; Rapid to initial position
G0 X47.192 Y122.450
G0 Z0.000
; plunge
G1 Z-0.200 F1800
; cut
G1 X44.998 Y122.450 F1800
G1 X44.998 Y130.201
G1 X47.204 Y130.201
G1 X47.192 Y122.450
; Retract
G0 Z5.000

; Path 113
; Rapid to initial position
G0 X43.211 Y122.184
G0 Z0.000
; plunge
G1 Z-0.200 F1800
; cut
G1 X59.472 Y122.184 F1800
; Retract
G0 Z5.000

; Path 114
; Rapid to initial position
G0 X61.260 Y115.746
G0 Z0.000
; plunge
G1 Z-0.200 F1800
; cut
G1 X61.260 Y114.167 F1800
G1 X53.030 Y114.167
G1 X53.030 Y115.746
G1 X48.926 Y115.746
G1 X48.926 Y128.621
G1 X53.030 Y128.621
G1 X53.030 Y115.746
G1 X61.260 Y115.746
; Retract
G0 Z5.000

; Path 115
; Rapid to initial position
G0 X55.269 Y114.258
G0 Z0.000
; plunge
G1 Z-0.200 F1800
; cut
G1 X55.269 Y111.099 F1800
; Retract
G0 Z5.000

; Path 116
; Rapid to initial position
G0 X54.917 Y109.519
G0 Z0.000
; plunge
G1 Z-0.200 F1800
; cut
G1 X55.622 Y109.519 F1800
G1 X55.622 Y112.679
G1 X54.917 Y112.679
G1 X54.917 Y109.519
; Retract
G0 Z5.000

; Path 117
; Rapid to initial position
G0 X51.727 Y110.986
G0 Z0.000
; plunge
G1 Z-0.200 F1800
; cut
G1 X51.727 Y107.952 F1800
; Retract
G0 Z5.000

; Path 118
; Rapid to initial position
G0 X48.753 Y107.952
G0 Z0.000
; plunge
G1 Z-0.200 F1800
; cut
G1 X48.753 Y110.986 F1800
; Retract
G0 Z5.000

; Path 119
; Rapid to initial position
G0 X41.798 Y109.420
G0 Z0.000
; plunge
G1 Z-0.200 F1800
; cut
G1 X31.229 Y109.420 F1800
; Retract
G0 Z5.000

; Path 120
; Rapid to initial position
G0 X33.448 Y107.952
G0 Z0.000
; plunge
G1 Z-0.200 F1800
; cut
G1 X33.448 Y110.986 F1800
; Retract
G0 Z5.000

; Path 121
; Rapid to initial position
G0 X36.514 Y109.519
G0 Z0.000
; plunge
G1 Z-0.200 F1800
; cut
G1 X37.218 Y109.519 F1800
G1 X37.218 Y112.679
G1 X36.514 Y112.679
G1 X36.514 Y109.519
; Retract
G0 Z5.000

; Path 122
; Rapid to initial position
G0 X36.866 Y111.099
G0 Z0.000
; plunge
G1 Z-0.200 F1800
; cut
G1 X36.866 Y114.258 F1800
; Retract
G0 Z5.000

; Path 123
; Rapid to initial position
G0 X29.932 Y126.449
G0 Z0.000
; plunge
G1 Z-0.200 F1800
; cut
G1 X48.096 Y126.449 F1800
; Retract
G0 Z5.000

; Path 124
; Rapid to initial position
G0 X46.306 Y126.476
G0 Z0.000
; plunge
G1 Z-0.200 F1800
; cut
G1 X28.130 Y126.476 F1800
; Retract
G0 Z5.000

; Path 125
; Rapid to initial position
G0 X25.341 Y130.954
G0 Z0.000
; plunge
G1 Z-0.200 F1800
; cut
G1 X25.341 Y100.153 F1800
; Retract
G0 Z5.000

; Path 126
; Rapid to initial position
G0 X21.880 Y134.698
G0 Z0.000
; plunge
G1 Z-0.200 F1800
; cut
G1 X21.176 Y134.698 F1800
; Retract
G0 Z5.000

; Path 127
; Rapid to initial position
G0 X23.254 Y143.944
G0 Z0.000
; plunge
G1 Z-0.200 F1800
; cut
G1 X109.622 Y143.944 F1800
; Retract
G0 Z5.000

; Path 128
; Rapid to initial position
G0 X111.936 Y135.596
G0 Z0.000
; plunge
G1 Z-0.200 F1800
; cut
G1 X101.445 Y135.596 F1800
; Retract
G0 Z5.000

; Path 129
; Rapid to initial position
G0 X96.486 Y135.596
G0 Z0.000
; plunge
G1 Z-0.200 F1800
; cut
G1 X106.976 Y135.596 F1800
; Retract
G0 Z5.000

; Path 130
; Rapid to initial position
G0 X106.488 Y135.596
G0 Z0.000
; plunge
G1 Z-0.200 F1800
; cut
G1 X95.997 Y135.596 F1800
; Retract
G0 Z5.000

; Path 131
; Rapid to initial position
G0 X109.608 Y133.864
G0 Z0.000
; plunge
G1 Z-0.200 F1800
; cut
G1 X124.268 Y133.864 F1800
G1 X124.268 Y118.634
G1 X109.608 Y118.634
G1 X109.608 Y133.864
; Retract
G0 Z5.000

; Path 132
; Rapid to initial position
G0 X79.274 Y133.118
G0 Z0.000
; plunge
G1 Z-0.200 F1800
; cut
G1 X58.136 Y133.118 F1800
; Retract
G0 Z5.000

; Path 133
; Rapid to initial position
G0 X57.431 Y133.118
G0 Z0.000
; plunge
G1 Z-0.200 F1800
; cut
G1 X78.570 Y133.118 F1800
; Retract
G0 Z5.000

; Path 134
; Rapid to initial position
G0 X69.766 Y133.118
G0 Z0.000
; plunge
G1 Z-0.200 F1800
; cut
G1 X48.628 Y133.118 F1800
; Retract
G0 Z5.000

; Path 135
; Rapid to initial position
G0 X43.519 Y147.920
G0 Z0.000
; plunge
G1 Z-0.200 F1800
; cut
G1 X144.031 Y147.920 F1800
; Retract
G0 Z5.000

; Path 136
; Rapid to initial position
G0 X143.313 Y152.631
G0 Z0.000
; plunge
G1 Z-0.200 F1800
; cut
G1 X146.207 Y152.631 F1800
; Retract
G0 Z5.000

; Path 137
; Rapid to initial position
G0 X141.247 Y152.631
G0 Z0.000
; plunge
G1 Z-0.200 F1800
; cut
G1 X138.354 Y152.631 F1800
; Retract
G0 Z5.000

; Path 138
; Rapid to initial position
G0 X142.280 Y157.263
G0 Z0.000
; plunge
G1 Z-0.200 F1800
; cut
G1 X142.280 Y135.023 F1800
; Retract
G0 Z5.000

; Path 139
; Rapid to initial position
G0 X153.836 Y150.178
G0 Z0.000
; plunge
G1 Z-0.200 F1800
; cut
G1 X153.836 Y168.058 F1800
; Retract
G0 Z5.000

; Path 140
; Rapid to initial position
G0 X180.333 Y103.476
G0 Z0.000
; plunge
G1 Z-0.200 F1800
; cut
G1 X180.333 Y38.607 F1800
; Retract
G0 Z5.000

; Path 141
; Rapid to initial position
G0 X178.304 Y39.284
G0 Z0.000
; plunge
G1 Z-0.200 F1800
; cut
G1 X194.868 Y39.284 F1800
G1 X194.868 Y29.178
G1 X202.870 Y29.178
G1 X202.870 Y39.284
G1 X194.868 Y39.284
G1 X194.868 Y45.418
G1 X191.203 Y45.418
G1 X191.203 Y48.687
G1 X190.398 Y48.687
G1 X190.398 Y50.417
G1 X189.173 Y50.417
G1 X189.173 Y51.515
G1 X179.886 Y51.515
G1 X179.886 Y66.817
G1 X177.505 Y66.817
G1 X177.505 Y74.166
G1 X179.886 Y74.166
G1 X179.886 Y66.817
G1 X189.173 Y66.817
G1 X189.173 Y51.515
G1 X190.398 Y51.515
G1 X190.398 Y50.417
G1 X191.203 Y50.417
G1 X191.203 Y48.687
G1 X193.947 Y48.687
G1 X193.947 Y50.417
G1 X191.203 Y50.417
G1 X191.203 Y51.515
G1 X190.398 Y51.515
G1 X190.398 Y57.902
G1 X191.203 Y57.902
G1 X191.203 Y51.515
G1 X193.947 Y51.515
G1 X193.947 Y50.417
G1 X194.868 Y50.417
G1 X194.868 Y45.418
G1 X202.870 Y45.418
G1 X202.870 Y39.284
G1 X214.187 Y39.284
G1 X214.187 Y45.418
G1 X202.870 Y45.418
G1 X202.870 Y57.902
G1 X200.490 Y57.902
G1 X200.490 Y74.166
G1 X191.203 Y74.166
G1 X191.203 Y84.272
G1 X189.173 Y84.272
G1 X189.173 Y86.397
G1 X191.203 Y86.397
G1 X191.203 Y84.272
G1 X200.490 Y84.272
G1 X200.490 Y74.166
G1 X202.870 Y74.166
G1 X202.870 Y57.902
G1 X214.187 Y57.902
G1 X214.187 Y45.418
G1 X225.210 Y45.418
G1 X225.210 Y57.902
G1 X214.187 Y57.902
G1 X214.187 Y84.272
G1 X200.490 Y84.272
G1 X200.490 Y96.503
G1 X179.886 Y96.503
G1 X179.886 Y84.272
G1 X189.173 Y84.272
G1 X189.173 Y74.166
G1 X191.203 Y74.166
G1 X191.203 Y66.817
G1 X193.947 Y66.817
G1 X193.947 Y57.902
G1 X200.490 Y57.902
G1 X200.490 Y51.515
G1 X193.947 Y51.515
G1 X193.947 Y57.902
G1 X191.203 Y57.902
G1 X191.203 Y66.817
G1 X189.173 Y66.817
G1 X189.173 Y74.166
G1 X179.886 Y74.166
G1 X179.886 Y84.272
G1 X166.188 Y84.272
G1 X166.188 Y66.817
G1 X177.505 Y66.817
G1 X177.505 Y48.687
G1 X178.304 Y48.687
G1 X178.304 Y39.284
; Retract
G0 Z5.000

; Path 142
; Rapid to initial position
G0 X178.304 Y39.284
G0 Z0.000
; plunge
G1 Z-0.200 F1800
; cut
G1 X177.505 Y39.284 F1800
G1 X177.505 Y48.687
G1 X166.188 Y48.687
G1 X166.188 Y66.817
G1 X153.170 Y66.817
G1 X153.170 Y48.687
G1 X166.188 Y48.687
G1 X166.188 Y39.284
G1 X177.505 Y39.284
G1 X177.505 Y29.178
G1 X178.304 Y29.178
G1 X178.304 Y11.862
G1 X194.868 Y11.862
G1 X194.868 Y29.178
G1 X178.304 Y29.178
G1 X178.304 Y39.284
; Retract
G0 Z5.000

; Path 143
; Rapid to initial position
G0 X178.304 Y48.687
G0 Z0.000
; plunge
G1 Z-0.200 F1800
; cut
G1 X178.304 Y50.417 F1800
G1 X189.173 Y50.417
G1 X189.173 Y48.687
G1 X190.398 Y48.687
G1 X190.398 Y45.418
G1 X191.203 Y45.418
G1 X191.203 Y41.409
G1 X189.173 Y41.409
G1 X189.173 Y48.687
G1 X178.304 Y48.687
; Retract
G0 Z5.000

; Path 144
; Rapid to initial position
G0 X180.784 Y51.660
G0 Z0.000
; plunge
G1 Z-0.200 F1800
; cut
G1 X215.597 Y51.660 F1800
; Retract
G0 Z5.000

; Path 145
; Rapid to initial position
G0 X211.926 Y57.752
G0 Z0.000
; plunge
G1 Z-0.200 F1800
; cut
G1 X171.149 Y57.752 F1800
; Retract
G0 Z5.000

; Path 146
; Rapid to initial position
G0 X167.131 Y57.752
G0 Z0.000
; plunge
G1 Z-0.200 F1800
; cut
G1 X207.908 Y57.752 F1800
; Retract
G0 Z5.000

; Path 147
; Rapid to initial position
G0 X201.801 Y57.777
G0 Z0.000
; plunge
G1 Z-0.200 F1800
; cut
G1 X231.511 Y57.777 F1800
; Retract
G0 Z5.000

; Path 148
; Rapid to initial position
G0 X234.824 Y51.660
G0 Z0.000
; plunge
G1 Z-0.200 F1800
; cut
G1 X200.011 Y51.660 F1800
; Retract
G0 Z5.000

; Path 149
; Rapid to initial position
G0 X202.696 Y51.672
G0 Z0.000
; plunge
G1 Z-0.200 F1800
; cut
G1 X228.060 Y51.672 F1800
; Retract
G0 Z5.000

; Path 150
; Rapid to initial position
G0 X237.749 Y51.660
G0 Z0.000
; plunge
G1 Z-0.200 F1800
; cut
G1 X202.936 Y51.660 F1800
; Retract
G0 Z5.000

; Path 151
; Rapid to initial position
G0 X209.576 Y46.874
G0 Z0.000
; plunge
G1 Z-0.200 F1800
; cut
G1 X209.576 Y85.429 F1800
; Retract
G0 Z5.000

; Path 152
; Rapid to initial position
G0 X190.188 Y85.491
G0 Z0.000
; plunge
G1 Z-0.200 F1800
; cut
G1 X190.188 Y40.503 F1800
; Retract
G0 Z5.000

; Path 153
; Rapid to initial position
G0 X190.188 Y42.316
G0 Z0.000
; plunge
G1 Z-0.200 F1800
; cut
G1 X190.188 Y87.303 F1800
; Retract
G0 Z5.000

; Path 154
; Rapid to initial position
G0 X173.558 Y80.056
G0 Z0.000
; plunge
G1 Z-0.200 F1800
; cut
G1 X173.558 Y61.925 F1800
; Retract
G0 Z5.000

; Path 155
; Rapid to initial position
G0 X179.985 Y57.752
G0 Z0.000
; plunge
G1 Z-0.200 F1800
; cut
G1 X139.208 Y57.752 F1800
; Retract
G0 Z5.000

; Path 156
; Rapid to initial position
G0 X130.910 Y53.596
G0 Z0.000
; plunge
G1 Z-0.200 F1800
; cut
G1 X130.910 Y35.428 F1800
; Retract
G0 Z5.000

; Path 157
; Rapid to initial position
G0 X130.837 Y32.879
G0 Z0.000
; plunge
G1 Z-0.200 F1800
; cut
G1 X130.837 Y50.917 F1800
; Retract
G0 Z5.000

; Path 158
; Rapid to initial position
G0 X142.547 Y43.205
G0 Z0.000
; plunge
G1 Z-0.200 F1800
; cut
G1 X145.474 Y43.205 F1800
; Retract
G0 Z5.000

; Path 159
; Rapid to initial position
G0 X147.630 Y37.439
G0 Z0.000
; plunge
G1 Z-0.200 F1800
; cut
G1 X147.630 Y24.839 F1800
G1 X164.195 Y24.839
G1 X164.195 Y37.439
G1 X147.630 Y37.439
; Retract
G0 Z5.000

; Path 160
; Rapid to initial position
G0 X155.862 Y34.093
G0 Z0.000
; plunge
G1 Z-0.200 F1800
; cut
G1 X155.862 Y46.602 F1800
; Retract
G0 Z5.000

; Path 161
; Rapid to initial position
G0 X155.912 Y44.834
G0 Z0.000
; plunge
G1 Z-0.200 F1800
; cut
G1 X155.912 Y32.235 F1800
; Retract
G0 Z5.000

; Path 162
; Rapid to initial position
G0 X156.715 Y31.139
G0 Z0.000
; plunge
G1 Z-0.200 F1800
; cut
G1 X173.279 Y31.139 F1800
; Retract
G0 Z5.000

; Path 163
; Rapid to initial position
G0 X171.249 Y31.139
G0 Z0.000
; plunge
G1 Z-0.200 F1800
; cut
G1 X154.685 Y31.139 F1800
; Retract
G0 Z5.000

; Path 164
; Rapid to initial position
G0 X155.912 Y30.043
G0 Z0.000
; plunge
G1 Z-0.200 F1800
; cut
G1 X155.912 Y17.444 F1800
; Retract
G0 Z5.000

; Path 165
; Rapid to initial position
G0 X157.140 Y31.139
G0 Z0.000
; plunge
G1 Z-0.200 F1800
; cut
G1 X140.575 Y31.139 F1800
; Retract
G0 Z5.000

; Path 166
; Rapid to initial position
G0 X186.586 Y19.257
G0 Z0.000
; plunge
G1 Z-0.200 F1800
; cut
G1 X186.586 Y57.812 F1800
; Retract
G0 Z5.000

; Path 167
; Rapid to initial position
G0 X190.188 Y62.841
G0 Z0.000
; plunge
G1 Z-0.200 F1800
; cut
G1 X190.188 Y17.854 F1800
; Retract
G0 Z5.000

; Path 168
; Rapid to initial position
G0 X199.892 Y31.139
G0 Z0.000
; plunge
G1 Z-0.200 F1800
; cut
G1 X216.457 Y31.139 F1800
; Retract
G0 Z5.000

; Path 169
; Rapid to initial position
G0 X216.879 Y29.703
G0 Z0.000
; plunge
G1 Z-0.200 F1800
; cut
G1 X208.704 Y29.703 F1800
G1 X208.704 Y25.083
G1 X216.879 Y25.083
G1 X216.879 Y29.703
G1 X216.879 Y29.703
; Retract
G0 Z5.000

; Path 170
; Rapid to initial position
G0 X214.292 Y27.393
G0 Z0.000
; plunge
G1 Z-0.200 F1800
; cut
G1 X206.117 Y27.393 F1800
; Retract
G0 Z5.000

; Path 171
; Rapid to initial position
G0 X211.291 Y27.393
G0 Z0.000
; plunge
G1 Z-0.200 F1800
; cut
G1 X219.465 Y27.393 F1800
; Retract
G0 Z5.000

; Path 172
; Rapid to initial position
G0 X212.791 Y26.053
G0 Z0.000
; plunge
G1 Z-0.200 F1800
; cut
G1 X212.791 Y21.434 F1800
; Retract
G0 Z5.000

; Path 173
; Rapid to initial position
G0 X212.791 Y28.733
G0 Z0.000
; plunge
G1 Z-0.200 F1800
; cut
G1 X212.791 Y33.353 F1800
; Retract
G0 Z5.000

; Path 174
; Rapid to initial position
G0 X212.825 Y35.136
G0 Z0.000
; plunge
G1 Z-0.200 F1800
; cut
G1 X212.825 Y30.575 F1800
; Retract
G0 Z5.000

; Path 175
; Rapid to initial position
G0 X209.645 Y33.415
G0 Z0.000
; plunge
G1 Z-0.200 F1800
; cut
G1 X216.005 Y33.415 F1800
G1 X216.005 Y37.975
G1 X209.645 Y37.975
G1 X209.645 Y33.415
; Retract
G0 Z5.000

; Path 176
; Rapid to initial position
G0 X212.198 Y35.695
G0 Z0.000
; plunge
G1 Z-0.200 F1800
; cut
G1 X218.558 Y35.695 F1800
; Retract
G0 Z5.000

; Path 177
; Rapid to initial position
G0 X213.451 Y35.695
G0 Z0.000
; plunge
G1 Z-0.200 F1800
; cut
G1 X207.091 Y35.695 F1800
; Retract
G0 Z5.000

; Path 178
; Rapid to initial position
G0 X212.825 Y36.255
G0 Z0.000
; plunge
G1 Z-0.200 F1800
; cut
G1 X212.825 Y40.815 F1800
; Retract
G0 Z5.000

; Path 179
; Rapid to initial position
G0 X215.192 Y43.205
G0 Z0.000
; plunge
G1 Z-0.200 F1800
; cut
G1 X218.120 Y43.205 F1800
; Retract
G0 Z5.000

; Path 180
; Rapid to initial position
G0 X234.263 Y95.278
G0 Z0.000
; plunge
G1 Z-0.200 F1800
; cut
G1 X234.263 Y150.760 F1800
; Retract
G0 Z5.000

; Path 181
; Rapid to initial position
G0 X281.459 Y107.253
G0 Z0.000
; plunge
G1 Z-0.200 F1800
; cut
G1 X281.459 Y54.917 F1800
; Retract
G0 Z5.000

; Path 182
; Rapid to initial position
G0 X318.795 Y106.846
G0 Z0.000
; plunge
G1 Z-0.200 F1800
; cut
G1 X318.795 Y139.504 F1800
; Retract
G0 Z5.000

; Path 183
; Rapid to initial position
G0 X319.984 Y162.384
G0 Z0.000
; plunge
G1 Z-0.200 F1800
; cut
G1 X407.804 Y162.384 F1800
; Retract
G0 Z5.000

; Path 184
; Rapid to initial position
G0 X41.446 Y158.396
G0 Z0.000
; plunge
G1 Z-0.200 F1800
; cut
G1 X31.581 Y158.396 F1800
; Retract
G0 Z5.000

; Path 185
; Rapid to initial position
G0 X26.460 Y158.396
G0 Z0.000
; plunge
G1 Z-0.200 F1800
; cut
G1 X16.596 Y158.396 F1800
; Retract
G0 Z5.000

; Path 186
; Rapid to initial position
G0 X18.375 Y169.534
G0 Z0.000
; plunge
G1 Z-0.200 F1800
; cut
G1 X18.375 Y191.494 F1800
; Retract
G0 Z5.000

; Path 187
; Rapid to initial position
G0 X26.679 Y163.681
G0 Z0.000
; plunge
G1 Z-0.200 F1800
; cut
G1 X26.679 Y102.003 F1800
G1 X56.937 Y102.003
G1 X56.937 Y115.241
G1 X56.937 Y117.850
G1 X56.937 Y128.480
G1 X56.937 Y131.088
G1 X56.937 Y163.681
G1 X26.679 Y163.681
; Retract
G0 Z5.000

; Path 188
; Rapid to initial position
G0 X36.889 Y168.809
G0 Z0.000
; plunge
G1 Z-0.200 F1800
; cut
G1 X37.594 Y168.809 F1800
; Retract
G0 Z5.000

; Path 189
; Rapid to initial position
G0 X38.662 Y168.755
G0 Z0.000
; plunge
G1 Z-0.200 F1800
; cut
G1 X39.366 Y168.755 F1800
; Retract
G0 Z5.000
M5          ; Switch tool offEnd
