G21         ; Set units to mm
G90         ; Absolute positioning

;
; Operation:    0
; Type:         Mill Cut
; Paths:        16
; Direction:    Conventional
; Rapid Z:      5
; Start Z:      0
; End Z:        -0.2
; Pass Depth:   1
; Plunge rate:  4000 mm/min
; Cut rate:     4000 mm/min
;
; Retract
G0 Z5.000

; Path 0
; Rapid to initial position
G0 X861.956 Y614.802
G0 Z0.000
; plunge
G1 Z-0.200 F4000
; cut
G1 X14.011 Y614.802 F4000
G1 X14.011 Y16.471
G1 X861.956 Y16.471
G1 X861.956 Y614.802
G1 X861.956 Y614.802
; Retract
G0 Z5.000

; Path 1
; Rapid to initial position
G0 X835.248 Y595.954
G0 Z0.000
; plunge
G1 Z-0.200 F4000
; cut
G1 X835.248 Y35.350 F4000
G1 X40.769 Y35.350
G1 X40.769 Y595.954
G1 X835.248 Y595.954
; Retract
G0 Z5.000

; Path 2
; Rapid to initial position
G0 X808.540 Y577.106
G0 Z0.000
; plunge
G1 Z-0.200 F4000
; cut
G1 X67.527 Y577.106 F4000
G1 X67.527 Y54.228
G1 X808.540 Y54.228
G1 X808.540 Y577.106
G1 X808.540 Y577.106
; Retract
G0 Z5.000

; Path 3
; Rapid to initial position
G0 X781.833 Y558.258
G0 Z0.000
; plunge
G1 Z-0.200 F4000
; cut
G1 X781.833 Y73.107 F4000
G1 X94.286 Y73.107
G1 X94.286 Y558.258
G1 X781.833 Y558.258
; Retract
G0 Z5.000

; Path 4
; Rapid to initial position
G0 X755.125 Y539.410
G0 Z0.000
; plunge
G1 Z-0.200 F4000
; cut
G1 X121.044 Y539.410 F4000
G1 X121.044 Y91.986
G1 X755.125 Y91.986
G1 X755.125 Y539.410
G1 X755.125 Y539.410
; Retract
G0 Z5.000

; Path 5
; Rapid to initial position
G0 X728.417 Y520.561
G0 Z0.000
; plunge
G1 Z-0.200 F4000
; cut
G1 X728.417 Y110.865 F4000
G1 X147.802 Y110.865
G1 X147.802 Y520.561
G1 X728.417 Y520.561
; Retract
G0 Z5.000

; Path 6
; Rapid to initial position
G0 X701.709 Y501.713
G0 Z0.000
; plunge
G1 Z-0.200 F4000
; cut
G1 X174.561 Y501.713 F4000
G1 X174.561 Y129.744
G1 X701.709 Y129.744
G1 X701.709 Y501.713
G1 X701.709 Y501.713
; Retract
G0 Z5.000

; Path 7
; Rapid to initial position
G0 X675.001 Y482.865
G0 Z0.000
; plunge
G1 Z-0.200 F4000
; cut
G1 X675.001 Y148.623 F4000
G1 X201.319 Y148.623
G1 X201.319 Y482.865
G1 X675.001 Y482.865
; Retract
G0 Z5.000

; Path 8
; Rapid to initial position
G0 X648.293 Y464.017
G0 Z0.000
; plunge
G1 Z-0.200 F4000
; cut
G1 X228.077 Y464.017 F4000
G1 X228.077 Y167.502
G1 X648.293 Y167.502
G1 X648.293 Y464.017
G1 X648.293 Y464.017
; Retract
G0 Z5.000

; Path 9
; Rapid to initial position
G0 X621.585 Y445.169
G0 Z0.000
; plunge
G1 Z-0.200 F4000
; cut
G1 X621.585 Y186.381 F4000
G1 X254.836 Y186.381
G1 X254.836 Y445.169
G1 X621.585 Y445.169
; Retract
G0 Z5.000

; Path 10
; Rapid to initial position
G0 X594.878 Y426.320
G0 Z0.000
; plunge
G1 Z-0.200 F4000
; cut
G1 X281.594 Y426.320 F4000
G1 X281.594 Y205.260
G1 X594.878 Y205.260
G1 X594.878 Y426.320
G1 X594.878 Y426.320
; Retract
G0 Z5.000

; Path 11
; Rapid to initial position
G0 X568.170 Y407.472
G0 Z0.000
; plunge
G1 Z-0.200 F4000
; cut
G1 X568.170 Y224.139 F4000
G1 X308.352 Y224.139
G1 X308.352 Y407.472
G1 X568.170 Y407.472
; Retract
G0 Z5.000

; Path 12
; Rapid to initial position
G0 X541.462 Y388.624
G0 Z0.000
; plunge
G1 Z-0.200 F4000
; cut
G1 X335.111 Y388.624 F4000
G1 X335.111 Y243.018
G1 X541.462 Y243.018
G1 X541.462 Y388.624
G1 X541.462 Y388.624
; Retract
G0 Z5.000

; Path 13
; Rapid to initial position
G0 X514.754 Y369.776
G0 Z0.000
; plunge
G1 Z-0.200 F4000
; cut
G1 X514.754 Y261.896 F4000
G1 X361.869 Y261.896
G1 X361.869 Y369.776
G1 X514.754 Y369.776
; Retract
G0 Z5.000

; Path 14
; Rapid to initial position
G0 X488.046 Y350.928
G0 Z0.000
; plunge
G1 Z-0.200 F4000
; cut
G1 X388.627 Y350.928 F4000
G1 X388.627 Y280.775
G1 X488.046 Y280.775
G1 X488.046 Y350.928
G1 X488.046 Y350.928
; Retract
G0 Z5.000

; Path 15
; Rapid to initial position
G0 X461.338 Y332.080
G0 Z0.000
; plunge
G1 Z-0.200 F4000
; cut
G1 X461.338 Y299.654 F4000
G1 X415.386 Y299.654
G1 X415.386 Y332.080
G1 X461.338 Y332.080
; Retract
G0 Z5.000
M5          ; Switch tool offEnd
